{
"type": "FeatureCollection",
"name": "arroio_mascate",
"crs": { "type": "name", "properties": { "name": "urn:ogc:def:crs:EPSG::31982" } },
"features": [
{ "type": "Feature", "properties": { "AREA": 24067206.083149999, "PERIMETER": 32706.90263, "BACIAS1_": 6, "BACIAS1_ID": 0, "NOME_BACIA": "ARROIO MASCATE", "SUB_AREA": 24.07, "SUBCODIGO": 5, "BACCODIGO": 2, "SUBNOME": "ARROIO MASCATE", "SUBBAC_DAT": "2002-01-03", "SUBBAC_POP": 18472, "SUBBAC_P_1": 22032, "SUBBAC_DEN": 915.43, "SUBBAC_D_1": 767.53 }, "geometry": { "type": "MultiPolygon", "coordinates": [ [ [ [ 672477.348692041588947, 7156357.124489054083824 ], [ 672459.377130598877557, 7156350.589380089193583 ], [ 672444.673123263288289, 7156334.251600785180926 ], [ 672439.771781992050819, 7156304.843593126162887 ], [ 672441.405547434813343, 7156249.295131735503674 ], [ 672462.64464724692516, 7156177.408883230760694 ], [ 672480.616192577173933, 7156113.691526798531413 ], [ 672508.390405834768899, 7156045.072833345271647 ], [ 672503.489057442173362, 7155984.623038670048118 ], [ 672496.953926381072961, 7155904.567905199714005 ], [ 672505.122809017077088, 7155868.624781519174576 ], [ 672521.460586650762707, 7155850.653216886334121 ], [ 672537.79836428409908, 7155832.681652255356312 ], [ 672567.206362449331209, 7155793.470967206172645 ], [ 672601.515692138113081, 7155741.19005492888391 ], [ 672629.289914745371789, 7155713.415818102657795 ], [ 672657.064139600726776, 7155695.444250862114131 ], [ 672666.866806401638314, 7155685.641579041257501 ], [ 672684.838362203445286, 7155667.670014036819339 ], [ 672684.838360327994451, 7155659.50112271681428 ], [ 672688.105902049923316, 7155595.783769682049751 ], [ 672688.10588854632806, 7155536.967752188444138 ], [ 672699.542320015607402, 7155468.349062509834766 ], [ 672709.344972183345817, 7155394.829038418829441 ], [ 672719.147627725498751, 7155336.013018704019487 ], [ 672715.880063498043455, 7155301.703675923869014 ], [ 672686.472042855690233, 7155242.887665166519582 ], [ 672661.965357865206897, 7155188.972988083958626 ], [ 672655.430234666564502, 7155143.227198213338852 ], [ 672637.458658251678571, 7155071.340958758257329 ], [ 672630.923538056900725, 7155038.665394999086857 ], [ 672645.627535246429034, 7155010.891161181032658 ], [ 672655.430203164694831, 7155005.989824157208204 ], [ 672661.965310983825475, 7154984.750705253332853 ], [ 672665.232860205462202, 7154953.708917522802949 ], [ 672661.965296356473118, 7154921.033353021368384 ], [ 672639.092390301870182, 7154870.386232112534344 ], [ 672609.684374180622399, 7154831.175560532137752 ], [ 672598.247922093374655, 7154809.93644573353231 ], [ 672586.811467381892726, 7154777.260883102193475 ], [ 672586.811461008619517, 7154749.486652648076415 ], [ 672604.783009665436111, 7154700.473300694487989 ], [ 672624.388342118822038, 7154675.966622295789421 ], [ 672643.993672319687903, 7154641.657274326309562 ], [ 672643.993667070986703, 7154618.784378663636744 ], [ 672643.993662570021115, 7154599.179039524868131 ], [ 672629.28965188912116, 7154568.137255910784006 ], [ 672627.655867341905832, 7154540.363025836646557 ], [ 672617.853185931337066, 7154486.448345448821783 ], [ 672601.515391457243823, 7154430.899888295680285 ], [ 672563.938480369397439, 7154373.717657725326717 ], [ 672536.981129655847326, 7154326.338094302453101 ], [ 672530.446003850200213, 7154269.155856661498547 ], [ 672530.445988857420161, 7154203.804726231843233 ], [ 672543.516198117751628, 7154133.552258044481277 ], [ 672558.220188919687644, 7154078.003793835639954 ], [ 672568.022852702997625, 7154055.13089594990015 ], [ 672559.853956597158685, 7154032.258002169430256 ], [ 672553.318834164296277, 7153989.779768891632557 ], [ 672546.783714731689543, 7153960.371761698275805 ], [ 672545.149929812876508, 7153930.963753389194608 ], [ 672531.262798863928765, 7153859.077513115480542 ], [ 672510.023679640493356, 7153846.007291879504919 ], [ 672482.249448481597938, 7153836.204628652893007 ], [ 672462.644111175090075, 7153839.472189642488956 ], [ 672456.10899923928082, 7153842.739747650921345 ], [ 672434.869886385160498, 7153857.443756831809878 ], [ 672415.264555445639417, 7153888.485548239201307 ], [ 672387.490335145965219, 7153926.062454549595714 ], [ 672348.27966502122581, 7153952.202915644273162 ], [ 672307.435214477940463, 7153968.540707549080253 ], [ 672268.224548091529869, 7154011.018951246514916 ], [ 672268.224555575405248, 7154043.694516451098025 ], [ 672276.393453169381246, 7154073.102523279376328 ], [ 672276.393461777479388, 7154110.67942326888442 ], [ 672266.590801352751441, 7154148.256325493566692 ], [ 672230.647687931195833, 7154176.030564107000828 ], [ 672209.408575061941519, 7154190.734573286026716 ], [ 672197.972134218434803, 7154218.508806321769953 ], [ 672201.239696173928678, 7154243.015479490160942 ], [ 672219.211263548000716, 7154275.691040614619851 ], [ 672230.647718609543517, 7154310.000381489284337 ], [ 672225.746393071953207, 7154349.211060869507492 ], [ 672199.605951666366309, 7154390.055523345246911 ], [ 672178.366849262965843, 7154450.505323842167854 ], [ 672163.66285842563957, 7154506.05378807336092 ], [ 672144.057526336517185, 7154532.194244716316462 ], [ 672126.085973913082853, 7154564.869814032688737 ], [ 672104.846868508844636, 7154612.249388448894024 ], [ 672091.776650228071958, 7154643.291178394109011 ], [ 672073.805097800679505, 7154675.966747715137899 ], [ 672049.298430437105708, 7154698.839648953638971 ], [ 671995.383765669888817, 7154764.190791685134172 ], [ 671980.679770702379756, 7154801.767695050686598 ], [ 671961.074443080928177, 7154847.513490845449269 ], [ 671951.271779643837363, 7154872.020167003385723 ], [ 671930.032666375627741, 7154885.090397929772735 ], [ 671912.06110796215944, 7154891.625515061430633 ], [ 671872.850433290819637, 7154898.160637019202113 ], [ 671840.174870938877575, 7154903.061979228630662 ], [ 671805.86552929552272, 7154903.061987020075321 ], [ 671765.021072718547657, 7154893.259326720610261 ], [ 671730.71172659797594, 7154873.653995363041759 ], [ 671704.571271720342338, 7154855.682440409436822 ], [ 671688.233487001853064, 7154842.612218023277819 ], [ 671668.62814407364931, 7154821.373105064034462 ], [ 671653.924135665874928, 7154800.133990993723273 ], [ 671631.051233037840575, 7154764.190874420106411 ], [ 671577.136546986061148, 7154736.416656197048724 ], [ 671537.925867475452833, 7154721.712660731747746 ], [ 671500.348969121230766, 7154720.078890989534557 ], [ 671470.940962004475296, 7154720.078897655010223 ], [ 671434.997845918871462, 7154736.41668841894716 ], [ 671402.322286178707145, 7154752.754478437826037 ], [ 671374.54806095699314, 7154769.092267350293696 ], [ 671338.604941518860869, 7154770.7260537520051 ], [ 671291.225370029918849, 7154751.120725337415934 ], [ 671237.310687710763887, 7154739.684289708733559 ], [ 671209.53645393147599, 7154718.445178590714931 ], [ 671196.466221852344461, 7154689.037172835320234 ], [ 671188.297321320045739, 7154646.558939881622791 ], [ 671175.227073254762217, 7154546.89846888743341 ], [ 671160.523053712327965, 7154476.646006975322962 ], [ 671153.987926893867552, 7154414.562434528023005 ], [ 671137.650135132367723, 7154370.450425175949931 ], [ 671122.946126004448161, 7154345.943754587322474 ], [ 671082.101661292021163, 7154300.197972517460585 ], [ 671054.327425675233826, 7154270.78997010178864 ], [ 671046.158525152713992, 7154228.311737168580294 ], [ 671020.018063254887238, 7154179.29839526116848 ], [ 670977.53982744156383, 7154164.59440051484853 ], [ 670953.033155234530568, 7154166.228184316307306 ], [ 670930.160264168865979, 7154180.932193826884031 ], [ 670910.55493204575032, 7154207.072650426998734 ], [ 670884.41448946041055, 7154243.015778066590428 ], [ 670848.471376725588925, 7154274.057573137804866 ], [ 670784.754032835247926, 7154295.296704914420843 ], [ 670725.93802419770509, 7154319.803392103873193 ], [ 670699.797575667034835, 7154329.606067567132413 ], [ 670662.220678816782311, 7154334.507410828024149 ], [ 670636.080227318801917, 7154331.239860201254487 ], [ 670595.235771158942953, 7154323.070978107862175 ], [ 670573.996654921211302, 7154323.070982897654176 ], [ 670564.193986257538199, 7154324.704763367772102 ], [ 670551.123763843206689, 7154337.77499240078032 ], [ 670549.489988633897156, 7154350.845218858681619 ], [ 670546.222436734824441, 7154370.450558725744486 ], [ 670541.321106292656623, 7154388.422120701521635 ], [ 670533.152218764647841, 7154403.126126892864704 ], [ 670523.34955306421034, 7154417.830133454874158 ], [ 670508.64555247547105, 7154430.900362856686115 ], [ 670497.20910674915649, 7154437.43547847867012 ], [ 670459.632213224424049, 7154457.040826078504324 ], [ 670428.590430167270824, 7154466.84350263979286 ], [ 670408.9850957976887, 7154483.181289667263627 ], [ 670397.548653402016498, 7154504.420409642159939 ], [ 670394.281101867323741, 7154525.659527774900198 ], [ 670389.379774012835696, 7154555.067537582479417 ], [ 670374.675778230070136, 7154589.37688438501209 ], [ 670364.873121033422649, 7154641.657790962606668 ], [ 670351.802898981259204, 7154656.361798260360956 ], [ 670330.563786801882088, 7154674.333363919518888 ], [ 670310.95845538447611, 7154703.741377044469118 ], [ 670309.324683500803076, 7154731.515607859939337 ], [ 670309.324696818133816, 7154790.33162528835237 ], [ 670304.423373397206888, 7154839.344974249601364 ], [ 670260.311372701544315, 7154883.456997256726027 ], [ 670226.002043999847956, 7154940.639244152233005 ], [ 670209.664271137909964, 7154979.849926123395562 ], [ 670193.326497902628034, 7155017.42682983353734 ], [ 670167.186049340292811, 7155027.22950528934598 ], [ 670139.411820386303589, 7155027.229511534795165 ], [ 670106.736256911419332, 7155027.229518881067634 ], [ 670092.032253346522339, 7155027.229522189125419 ], [ 670070.793140044086613, 7155040.299753061495721 ], [ 670062.624256930779666, 7155074.6090984120965 ], [ 670062.624262841767631, 7155100.749550610780716 ], [ 670060.990501660155132, 7155175.903351062908769 ], [ 670054.455397090641782, 7155211.846474313177168 ], [ 670041.385178344324231, 7155241.254485981538892 ], [ 670010.343401526566595, 7155278.831393007189035 ], [ 669984.20295627519954, 7155303.338072825223207 ], [ 669944.992287474218756, 7155336.013646895065904 ], [ 669881.274948633275926, 7155380.125674311071634 ], [ 669860.035841219127178, 7155419.336357394233346 ], [ 669822.458953530760482, 7155465.082157203927636 ], [ 669799.586065354640596, 7155492.856392817571759 ], [ 669773.445618245285004, 7155509.19418131839484 ], [ 669740.770054748747498, 7155509.194188648834825 ], [ 669709.728266108781099, 7155494.490191239863634 ], [ 669683.587809415417723, 7155468.349744889885187 ], [ 669652.546018567169085, 7155443.84307790081948 ], [ 669616.602898356039077, 7155442.209307694807649 ], [ 669601.898898837156594, 7155460.180871887132525 ], [ 669570.857122357236221, 7155499.391557166352868 ], [ 669530.012677560560405, 7155541.869801172986627 ], [ 669505.506009355885908, 7155561.475145824253559 ], [ 669482.633114538388327, 7155559.841372683644295 ], [ 669461.393993847537786, 7155540.236038278788328 ], [ 669422.183309186366387, 7155502.659147 ], [ 669404.211749262991361, 7155502.659151025116444 ], [ 669392.775306086870842, 7155520.630714481696486 ], [ 669394.409090149216354, 7155546.771166332066059 ], [ 669402.577986174728721, 7155569.644060196354985 ], [ 669389.507768870331347, 7155605.587184920907021 ], [ 669358.465990165714175, 7155634.995200618170202 ], [ 669347.029552503256127, 7155677.473438035696745 ], [ 669353.564672928536311, 7155711.782780114561319 ], [ 669362.550472021219321, 7155796.739247833378613 ], [ 669370.719368784106337, 7155822.879698231816292 ], [ 669370.719377245986834, 7155860.456598307937384 ], [ 669344.578934896737337, 7155898.033504237420857 ], [ 669315.170933986548334, 7155925.807741315104067 ], [ 669290.664267234038562, 7155951.948199030011892 ], [ 669256.354929585242644, 7155969.919767613522708 ], [ 669194.271361109567806, 7155979.722451085224748 ], [ 669161.595800532726571, 7155992.792684506624937 ], [ 669145.258023550035432, 7156014.031805599108338 ], [ 669145.25803163216915, 7156049.974927419796586 ], [ 669150.159379386226647, 7156108.790943855419755 ], [ 669143.624276600312442, 7156152.90295846760273 ], [ 669130.554061475675553, 7156198.648752808570862 ], [ 669112.5825033725705, 7156206.817648150026798 ], [ 669079.906938011059538, 7156198.648764127865434 ], [ 669048.865148988901637, 7156182.310988411307335 ], [ 669006.386900988640264, 7156113.692310776561499 ], [ 668944.303314883960411, 7156045.073637521825731 ], [ 668916.529083691071719, 7156035.270974135957658 ], [ 668869.149517688434571, 7156040.17231950443238 ], [ 668852.811738496879116, 7156051.608771003782749 ], [ 668834.840187360998243, 7156090.819453366100788 ], [ 668808.699744976824149, 7156128.396359289996326 ], [ 668792.361974213970825, 7156177.409710882231593 ], [ 668753.151304213912226, 7156205.183950129896402 ], [ 668707.405531400116161, 7156277.070203995332122 ], [ 668677.997535580885597, 7156327.71733677200973 ], [ 668669.828657887061127, 7156386.533356145955622 ], [ 668664.92733361304272, 7156432.279148671776056 ], [ 668660.842899527866393, 7156482.926275815814734 ], [ 668672.279355191858485, 7156520.503173374570906 ], [ 668688.617160775931552, 7156626.698757011443377 ], [ 668724.560299364500679, 7156710.021440563723445 ], [ 668747.433203010819852, 7156750.865892117843032 ], [ 668760.503435028716922, 7156780.273897994309664 ], [ 668758.869665280799381, 7156817.850798483937979 ], [ 668752.334558434551582, 7156843.991252204403281 ], [ 668740.898117786739022, 7156873.399263549596071 ], [ 668716.391450615832582, 7156897.905943010002375 ], [ 668677.180780942901038, 7156927.313960550352931 ], [ 668611.829660053132102, 7156955.088205646723509 ], [ 668551.37987588904798, 7156992.665119248442352 ], [ 668476.226085919770412, 7157020.439366521313787 ], [ 668392.903405785327777, 7157051.481172136962414 ], [ 668358.594069894985296, 7157077.621632041409612 ], [ 668338.988737240433693, 7157102.128310406580567 ], [ 668332.45363220514264, 7157136.437655469402671 ], [ 668325.918528630281799, 7157177.282113598659635 ], [ 668337.354989405488595, 7157237.731906942091882 ], [ 668338.988775992882438, 7157275.308806726709008 ], [ 668347.157673468347639, 7157304.716813722625375 ], [ 668356.960349852684885, 7157337.39237688947469 ], [ 668378.199469469138421, 7157352.09637656994164 ], [ 668401.072369091212749, 7157374.969267226755619 ], [ 668409.241267301957123, 7157407.644830759614706 ], [ 668417.410169899463654, 7157459.92573350854218 ], [ 668440.283074282924645, 7157504.037741649895906 ], [ 668487.662654652376659, 7157562.853748746216297 ], [ 668504.000448887120001, 7157618.402206221595407 ], [ 668513.803124185651541, 7157646.176434596069157 ], [ 668510.53557441313751, 7157675.584444152191281 ], [ 668490.930242479313165, 7157703.358679076656699 ], [ 668464.789803680265322, 7157757.273367753252387 ], [ 668453.353362641646527, 7157785.04760086350143 ], [ 668438.649371460662223, 7157840.596065263263881 ], [ 668438.649378776084632, 7157873.271630635485053 ], [ 668414.142713392386213, 7157905.947201466187835 ], [ 668368.396928007947281, 7157922.284994332119823 ], [ 668296.510696126613766, 7157958.228132236748934 ], [ 668247.497353646089323, 7157971.298369285650551 ], [ 668209.920457329950295, 7157979.467268982902169 ], [ 668178.878674828330986, 7157992.537502033635974 ], [ 668156.005785783287138, 7158017.04418115131557 ], [ 668156.005790530587547, 7158038.283298648893833 ], [ 668159.273351274430752, 7158057.888637151569128 ], [ 668167.442244366742671, 7158067.691304950043559 ], [ 668178.878693819977343, 7158077.493972023017704 ], [ 668203.385378214414231, 7158129.774871191009879 ], [ 668227.892060787067749, 7158173.88687901198864 ], [ 668231.159624089254066, 7158204.928665403276682 ], [ 668222.990736839012243, 7158221.266449912451208 ], [ 668198.484067051322199, 7158234.336681515909731 ], [ 668141.301833646837622, 7158247.406920379027724 ], [ 668111.893828584696166, 7158257.209596529603004 ], [ 668072.683157719671726, 7158281.716279280371964 ], [ 668015.500926499837078, 7158304.58918775152415 ], [ 667958.318690168787725, 7158304.589200445450842 ], [ 667912.572900375467725, 7158301.321654058992863 ], [ 667897.868898571119644, 7158309.490548668429255 ], [ 667889.70001459447667, 7158340.532337604090571 ], [ 667894.601360805216245, 7158392.813241148367524 ], [ 667914.206708458019421, 7158435.291471814736724 ], [ 667963.220059728249907, 7158461.431913256645203 ], [ 668017.13474262773525, 7158474.502127448096871 ], [ 668053.077866628998891, 7158492.473680437542498 ], [ 668075.950766642810777, 7158516.980349408462644 ], [ 668092.288556485902518, 7158552.923467721790075 ], [ 668093.922345253988169, 7158600.303037192672491 ], [ 668090.65479400078766, 7158623.175933703780174 ], [ 668075.95079438155517, 7158641.14749794267118 ], [ 668022.036119497497566, 7158664.020405700430274 ], [ 667989.360558781540021, 7158677.090639118105173 ], [ 667951.783664615824819, 7158695.06220843270421 ], [ 667901.953441741177812, 7158747.3431241447106 ], [ 667844.771222507930361, 7158824.130715550854802 ], [ 667794.124121457454748, 7158925.424979574978352 ], [ 667756.547229459392838, 7158953.199218512512743 ], [ 667704.266334909712896, 7158985.874795520678163 ], [ 667676.492107993806712, 7158995.677471300587058 ], [ 667634.01387525361497, 7158995.677480710670352 ], [ 667591.535640691989101, 7158987.508598763495684 ], [ 667562.12763049826026, 7158974.438379107043147 ], [ 667529.452068306971341, 7158980.973499422892928 ], [ 667501.677844299585558, 7159003.846401367336512 ], [ 667465.734736288548447, 7159057.761092271655798 ], [ 667400.383619529893622, 7159105.140676598995924 ], [ 667364.440515867434442, 7159178.660706759430468 ], [ 667339.116964936954901, 7159227.674060506746173 ], [ 667326.046746012638323, 7159257.08207228500396 ], [ 667308.07519072399009, 7159278.321193790994585 ], [ 667277.033407790819183, 7159289.757648553699255 ], [ 667247.625400859396905, 7159291.391433326527476 ], [ 667200.245836456655525, 7159304.461669968441129 ], [ 667162.668943329248577, 7159327.334574074484408 ], [ 667134.894722565077245, 7159364.911480462178588 ], [ 667131.627172367880121, 7159392.685711807571352 ], [ 667139.796069454168901, 7159420.459940627217293 ], [ 667157.767636366537772, 7159451.501723825931549 ], [ 667185.54187746415846, 7159505.416400671936572 ], [ 667201.879669465357438, 7159551.162188688293099 ], [ 667211.682350185001269, 7159603.443091236054897 ], [ 667234.555253472412005, 7159642.653764723800123 ], [ 667259.061934218276292, 7159678.596881303936243 ], [ 667265.597052401513793, 7159703.1035539470613 ], [ 667263.963281118776649, 7159734.14534149132669 ], [ 667259.06195165310055, 7159757.018238391727209 ], [ 667248.44239999295678, 7159786.426249651238322 ], [ 667235.372178151505068, 7159802.764035265892744 ], [ 667214.133063574205153, 7159810.932931322604418 ], [ 667171.654831876163371, 7159815.834275525994599 ], [ 667143.880609278334305, 7159845.242290573194623 ], [ 667140.613059442490339, 7159874.650300208479166 ], [ 667130.810398320434615, 7159910.593424379825592 ], [ 667116.106402281671762, 7159944.902771362103522 ], [ 667111.205073897494003, 7159972.677003089338541 ], [ 667114.472635347163305, 7159995.549898194149137 ], [ 667119.373973892536014, 7160013.521458117291331 ], [ 667122.641536430222914, 7160041.295688042417169 ], [ 667117.740210585063323, 7160080.506367687135935 ], [ 667109.57133054768201, 7160129.519717697054148 ], [ 667109.571337079047225, 7160158.927726622670889 ], [ 667091.599786478560418, 7160201.405965706333518 ], [ 667071.994459142209962, 7160250.419318248517811 ], [ 667065.459354744874872, 7160287.996219988912344 ], [ 667068.72691909596324, 7160323.93934129551053 ], [ 667076.895816553849727, 7160353.347348425537348 ], [ 667103.036282031331211, 7160418.698473621159792 ], [ 667103.036288199713454, 7160446.472704282030463 ], [ 667111.205182030331343, 7160459.542928673326969 ], [ 667122.641630053869449, 7160462.810482698492706 ], [ 667150.415861022775061, 7160470.97936793603003 ], [ 667176.556313807144761, 7160479.148253534920514 ], [ 667212.499437883496284, 7160497.119806611910462 ], [ 667230.471002646023408, 7160518.358920210041106 ], [ 667227.203449906082824, 7160534.69670367706567 ], [ 667210.865669863997027, 7160542.865598658099771 ], [ 667184.725219618761912, 7160546.133160980418324 ], [ 667161.852325018728152, 7160546.133166034705937 ], [ 667134.07809767476283, 7160554.302063539624214 ], [ 667104.670094685512595, 7160573.907409327104688 ], [ 667089.966096818796359, 7160600.047864966094494 ], [ 667067.910104369395413, 7160658.863887725397944 ], [ 667059.741226498037577, 7160717.67990742251277 ], [ 667045.037228988017887, 7160745.454141341149807 ], [ 667027.065669303759933, 7160747.087923581711948 ], [ 666994.390110655454919, 7160769.960826640948653 ], [ 666950.278110504266806, 7160818.974184622988105 ], [ 666914.335001639672555, 7160869.621319078840315 ], [ 666883.293221894302405, 7160895.761778326705098 ], [ 666852.251436352264136, 7160895.761785170994699 ], [ 666851.826662893290631, 7160935.756677452474833 ], [ 666850.192893764935434, 7160976.601134698837996 ], [ 666835.488904212252237, 7161040.318490684963763 ], [ 666822.418687773868442, 7161081.162950456142426 ], [ 666810.165358615340665, 7161113.838518669828773 ], [ 666795.461361088789999, 7161141.612752599641681 ], [ 666782.391143197775818, 7161175.922099270857871 ], [ 666777.489814429893158, 7161202.06255276594311 ], [ 666769.320933270617388, 7161246.174568017944694 ], [ 666759.518268130486831, 7161264.146131213754416 ], [ 666743.180489877006039, 7161280.483917573466897 ], [ 666720.307598150800914, 7161293.554148821160197 ], [ 666697.434705337393098, 7161301.72304523922503 ], [ 666635.351132771000266, 7161295.187945803627372 ], [ 666587.9715649766149, 7161293.554177956655622 ], [ 666555.295999420806766, 7161285.385293768718839 ], [ 666512.817768720327877, 7161295.187972771003842 ], [ 666476.874649683246389, 7161300.089315506629646 ], [ 666467.071982366382144, 7161308.25820904225111 ], [ 666465.438209600513801, 7161332.764883542433381 ], [ 666468.705773203982972, 7161365.44044834934175 ], [ 666475.240895713330247, 7161409.552460374310613 ], [ 666478.508462570374832, 7161456.932029671035707 ], [ 666489.944917837274261, 7161492.875149239785969 ], [ 666496.480037095141597, 7161522.283156780526042 ], [ 666506.28271309111733, 7161553.324941881000996 ], [ 666525.888062914833426, 7161605.605842424556613 ], [ 666560.197412096662447, 7161638.281400412321091 ], [ 666601.04187294759322, 7161666.055622132495046 ], [ 666650.055223658215255, 7161688.928507220000029 ], [ 666707.23746205389034, 7161697.097386013716459 ], [ 666733.377915961784311, 7161710.167606472037733 ], [ 666764.419702262850478, 7161713.435156187042594 ], [ 666792.193931101006456, 7161711.801371790468693 ], [ 666829.770828706095926, 7161708.533806955441833 ], [ 666852.643722255015746, 7161703.632467081770301 ], [ 666884.5023976493394, 7161706.900016614235938 ], [ 666910.642850112286396, 7161713.435123957693577 ], [ 666944.952194602345116, 7161724.871564331464469 ], [ 666958.022423370741308, 7161739.575565943494439 ], [ 666969.458876488963142, 7161765.716015852987766 ], [ 666979.261554682976566, 7161806.560470622032881 ], [ 666993.965567804989405, 7161849.038702587597072 ], [ 666995.599353245925158, 7161881.714267776347697 ], [ 667007.035810355097055, 7161925.826278743334115 ], [ 667018.472265291609801, 7161960.135620050132275 ], [ 667028.274940589442849, 7161987.909848606213927 ], [ 667049.51406175957527, 7162009.148961529135704 ], [ 667082.18962880235631, 7162023.85295881703496 ], [ 667114.865195484133437, 7162036.923177825286984 ], [ 667141.00564977270551, 7162051.627176554873586 ], [ 667147.540768698090687, 7162079.401405835524201 ], [ 667147.540773778920993, 7162102.274301725439727 ], [ 667136.104330809321254, 7162121.879643585532904 ], [ 667118.132776534534059, 7162148.020100003108382 ], [ 667100.161221894901246, 7162172.526778140105307 ], [ 667085.457221094169654, 7162185.597007609903812 ], [ 667056.049221302499063, 7162219.906357941217721 ], [ 667028.274999335408211, 7162252.581929634325206 ], [ 667015.204780710395426, 7162283.623719804920256 ], [ 667002.134562445688061, 7162316.299288257956505 ], [ 666993.965677661006339, 7162344.073520790785551 ], [ 666993.965681286063045, 7162360.411303575150669 ], [ 666997.233242017333396, 7162380.016642197966576 ], [ 667007.03591985674575, 7162419.227318718098104 ], [ 667007.035925658536144, 7162445.36777117755264 ], [ 666987.430594267556444, 7162476.409562798216939 ], [ 666962.923925043782219, 7162492.747350990772247 ], [ 666951.487479889998212, 7162502.550023186951876 ], [ 666931.8821430595126, 7162509.085140625946224 ], [ 666899.20657925948035, 7162509.085147829726338 ], [ 666879.601242791162804, 7162517.254043547436595 ], [ 666856.728353927028365, 7162543.394501050934196 ], [ 666842.024356012465432, 7162569.534956753253937 ], [ 666833.855469408561476, 7162589.140297900885344 ], [ 666825.686582440976053, 7162607.111860770732164 ], [ 666810.98258379928302, 7162629.984759917482734 ], [ 666810.982589593855664, 7162656.125212384387851 ], [ 666819.151485978160053, 7162680.631884770467877 ], [ 666833.855497658951208, 7162716.575003673322499 ], [ 666853.460842464235611, 7162745.983008379116654 ], [ 666910.643085654708557, 7162775.391004802659154 ], [ 666949.853763316059485, 7162780.292330994270742 ], [ 666992.331998808658682, 7162791.728769578039646 ], [ 667021.740007689455524, 7162798.263876208104193 ], [ 667047.880461640423164, 7162811.334096677601337 ], [ 667077.288472336134873, 7162826.038094703108072 ], [ 667127.935598788084462, 7162837.474531479179859 ], [ 667170.413833923637867, 7162847.277191776782274 ], [ 667207.990735214203596, 7162860.347409713082016 ], [ 667239.032525558257475, 7162881.586520492099226 ], [ 667257.004090014146641, 7162901.191855875775218 ], [ 667257.004092919640243, 7162914.262082112953067 ], [ 667232.49742477608379, 7162935.501205164939165 ], [ 667203.089420606615022, 7162950.20521617680788 ], [ 667145.907189728110097, 7162976.34568128362298 ], [ 667113.231628812733106, 7162989.415914735756814 ], [ 667069.119620555080473, 7163002.486150711774826 ], [ 667051.148062628926709, 7163012.288824359886348 ], [ 666979.261830196715891, 7163048.231962379068136 ], [ 666962.924052634974942, 7163067.837305340915918 ], [ 666930.248493160237558, 7163087.442651908844709 ], [ 666894.305378750083037, 7163113.583112316206098 ], [ 666856.728488681837916, 7163151.160021042451262 ], [ 666825.686713185859844, 7163196.905819728970528 ], [ 666810.982715256279334, 7163223.046275455504656 ], [ 666794.644936961471103, 7163239.384061859920621 ], [ 666779.940936497412622, 7163254.088069623336196 ], [ 666768.504492775537074, 7163270.425854947417974 ], [ 666768.504496397450566, 7163286.763637751340866 ], [ 666775.039617490256205, 7163324.340536763891578 ], [ 666804.447668758453801, 7163522.027702264487743 ], [ 666799.546345407841727, 7163572.674830056726933 ], [ 666794.645021330798045, 7163620.054401291534305 ], [ 666814.250377021962777, 7163698.475754475221038 ], [ 666815.884175854735076, 7163791.601116163656116 ], [ 666814.250409250962548, 7163843.88202153518796 ], [ 666814.250419751275331, 7163891.261591706424952 ], [ 666817.517984105274081, 7163927.204713188111782 ], [ 666824.053109190426767, 7163982.753173335455358 ], [ 666833.855785954860039, 7164017.062515100464225 ], [ 666850.193571509327739, 7164033.400294319726527 ], [ 666879.601580075919628, 7164038.301622683182359 ], [ 666910.643365384778008, 7164036.667837558314204 ], [ 666938.41759467148222, 7164036.667831433936954 ], [ 666967.825601063552313, 7164031.76649010181427 ], [ 666979.262045516632497, 7164018.696261323988438 ], [ 666997.233601656043902, 7164000.724696256220341 ], [ 667026.641604057047516, 7163977.85179382096976 ], [ 667042.979383088182658, 7163964.781563959084451 ], [ 667199.8220791046042, 7163917.401959158480167 ], [ 667229.230085127055645, 7163910.866839535534382 ], [ 667276.609651998616755, 7163907.599272505380213 ], [ 667322.355436682584696, 7163886.360144730657339 ], [ 667348.495883046416566, 7163865.121021289378405 ], [ 667364.833656620117836, 7163827.544117195531726 ], [ 667366.46742754674051, 7163794.868551203049719 ], [ 667390.974090990261175, 7163752.390310464426875 ], [ 667423.64964757557027, 7163719.714737608097494 ], [ 667457.958983075805008, 7163690.306720951572061 ], [ 667515.141212906455621, 7163659.264920956455171 ], [ 667565.102141374605708, 7163620.380986804142594 ], [ 667583.923262892640196, 7163605.742329237982631 ], [ 667606.926856811856851, 7163592.149288844317198 ], [ 667618.428652260219678, 7163578.556250998750329 ], [ 667625.747974602971226, 7163560.780741679482162 ], [ 667625.747970410622656, 7163541.95961588062346 ], [ 667623.656730365008116, 7163524.184108645655215 ], [ 667629.930434197303839, 7163504.317363359034061 ], [ 667639.34099239250645, 7163485.496235478669405 ], [ 667648.751550586079247, 7163466.675107600167394 ], [ 667659.207727754837833, 7163452.036451885476708 ], [ 667674.891997000901029, 7163445.76273981295526 ], [ 667691.621884521562606, 7163440.534645610488951 ], [ 667709.39738752192352, 7163423.804752076976001 ], [ 667721.42199350008741, 7163417.008231764659286 ], [ 667747.562441367655993, 7163402.630977101624012 ], [ 667760.632664572098292, 7163392.174793207086623 ], [ 667775.009907416300848, 7163368.648382779210806 ], [ 667795.922264192602597, 7163350.350061397999525 ], [ 667814.220576734747738, 7163335.972808472812176 ], [ 667823.369731694925576, 7163322.902580199763179 ], [ 667818.141636817716062, 7163301.990219365805387 ], [ 667808.992474280414172, 7163281.077859405428171 ], [ 667808.992471076082438, 7163266.700610537081957 ], [ 667815.527582383714616, 7163260.165495967492461 ], [ 667825.983760479022749, 7163249.709312653169036 ], [ 667836.439940030686557, 7163245.788242462091148 ], [ 667856.045278330217116, 7163245.78823811467737 ], [ 667873.036571814678609, 7163247.095256970264018 ], [ 667896.562977772438899, 7163247.095251753926277 ], [ 667913.55427038425114, 7163244.481202736496925 ], [ 667922.703427089843899, 7163239.253110209479928 ], [ 667922.703424756531604, 7163228.796929214149714 ], [ 667930.545556868193671, 7163214.419678607955575 ], [ 667954.071958159096539, 7163193.50731139909476 ], [ 667962.567602421389893, 7163183.051128521561623 ], [ 667973.023779054754414, 7163166.059832084923983 ], [ 667975.637818617047742, 7163141.226401645690203 ], [ 667973.023768551414832, 7163119.007017615251243 ], [ 667970.409719944698736, 7163103.322746707126498 ], [ 667976.944830376189202, 7163092.866564262658358 ], [ 667983.479941974394023, 7163087.638472317717969 ], [ 668003.085279686143622, 7163085.024422716349363 ], [ 668022.690616230247542, 7163077.182282622903585 ], [ 668040.988931679981761, 7163075.87525593675673 ], [ 668067.129381864564493, 7163071.954182260669768 ], [ 668093.269831463578157, 7163065.419063335284591 ], [ 668122.024325292673893, 7163054.962875959463418 ], [ 668144.243706650333479, 7163045.81371265463531 ], [ 668152.085836126003414, 7163019.673258434049785 ], [ 668163.849032969446853, 7162992.225780718028545 ], [ 668183.454365711892024, 7162967.392346508800983 ], [ 668187.375429280102253, 7162949.09402890317142 ], [ 668179.533288414706476, 7162924.260600793175399 ], [ 668171.691149008693174, 7162905.962285801768303 ], [ 668165.156033616978675, 7162894.19908363930881 ], [ 668140.322601611842401, 7162878.514817671850324 ], [ 668125.945351196569391, 7162868.058639876544476 ], [ 668111.568099906435236, 7162853.68139420915395 ], [ 668101.1119180242531, 7162847.146283412352204 ], [ 668084.120621046749875, 7162830.154993077740073 ], [ 668077.585506825475022, 7162823.61988141015172 ], [ 668082.813594407169148, 7162811.856676636263728 ], [ 668093.269773076055571, 7162804.014538573101163 ], [ 668107.647018526447937, 7162792.251331767998636 ], [ 668137.708534605568275, 7162780.48812147974968 ], [ 668169.077072067884728, 7162763.496820406056941 ], [ 668196.524542747880332, 7162750.426588075235486 ], [ 668221.357967153307982, 7162732.128265826031566 ], [ 668243.577345868921839, 7162711.215898914262652 ], [ 668259.261611529276706, 7162688.996510829776525 ], [ 668271.024805146851577, 7162647.171784267760813 ], [ 668284.095023948117159, 7162617.110261025838554 ], [ 668298.472266176715493, 7162590.969805365428329 ], [ 668303.700352584244683, 7162573.97851010132581 ], [ 668311.542484388686717, 7162558.29423687979579 ], [ 668315.463545321021229, 7162528.232715674676001 ], [ 668325.919722814694978, 7162515.162487120367587 ], [ 668344.218037665472366, 7162511.241415182128549 ], [ 668367.74444301717449, 7162508.627364703454077 ], [ 668383.428711886866949, 7162500.785225475206971 ], [ 668395.191915147006512, 7162502.092245481908321 ], [ 668405.648099657148123, 7162520.390559878200293 ], [ 668416.104283583699726, 7162536.074829030781984 ], [ 668425.25344349606894, 7162545.22398535721004 ], [ 668431.788556841085665, 7162547.838029147125781 ], [ 668448.779849139740691, 7162543.916957499459386 ], [ 668467.07816487015225, 7162543.916953425854445 ], [ 668489.297546206158586, 7162534.767790118232369 ], [ 668497.13968034775462, 7162529.539697881788015 ], [ 668515.437993734842166, 7162519.083512822166085 ], [ 668527.201194361783564, 7162508.627329219132662 ], [ 668536.350350761786103, 7162502.09221406839788 ], [ 668548.113553437869996, 7162500.785188824869692 ], [ 668566.411872678436339, 7162516.469456227496266 ], [ 668582.096147109637968, 7162533.460746835917234 ], [ 668595.166374679654837, 7162542.609902285970747 ], [ 668610.850645889644511, 7162545.223944038152695 ], [ 668630.455985928769223, 7162553.066075410693884 ], [ 668643.526213206700049, 7162560.908208237960935 ], [ 668652.675371071323752, 7162560.908206200227141 ], [ 668672.280708181671798, 7162555.680111339315772 ], [ 668682.736888891202398, 7162556.987131632864475 ], [ 668699.72818558383733, 7162572.67139932513237 ], [ 668711.49138972570654, 7162577.899487193673849 ], [ 668733.710774283623323, 7162583.127572735771537 ], [ 668745.473977252608165, 7162583.127570113167167 ], [ 668755.930156497983262, 7162577.899477288126945 ], [ 668769.000381725956686, 7162576.592451751232147 ], [ 668799.061898371670395, 7162567.443286687135696 ], [ 668825.202347068465315, 7162556.987099872902036 ], [ 668848.728748901514336, 7162538.688777903094888 ], [ 668868.334084248752333, 7162525.618547296151519 ], [ 668903.460311081027612, 7162506.666711425408721 ], [ 668903.460305579937994, 7162482.160037241876125 ], [ 668923.065635059028864, 7162442.949354176409543 ], [ 668923.065628823474981, 7162415.17512343917042 ], [ 668929.600737548898906, 7162397.203560915775597 ], [ 668921.431838165037334, 7162359.626662332564592 ], [ 668921.431832297006622, 7162333.486209876835346 ], [ 668931.234497767174616, 7162317.148424902930856 ], [ 668960.64249931066297, 7162291.007965885102749 ], [ 668976.980276802671142, 7162271.40262289904058 ], [ 668985.149163716239855, 7162253.431060014292598 ], [ 668990.050493147107773, 7162230.558163022622466 ], [ 668998.219377491041087, 7162201.150152191519737 ], [ 669006.388263667467982, 7162179.911032752133906 ], [ 669006.388259264873341, 7162160.305693414062262 ], [ 669012.923365415539593, 7162130.897682949900627 ], [ 669027.627361045335419, 7162094.954557551071048 ], [ 669042.331361443269998, 7162080.250549767166376 ], [ 669061.936695675947703, 7162062.27898433059454 ], [ 669076.640694238594733, 7162039.406085156835616 ], [ 669098.696693180943839, 7162009.998071229085326 ], [ 669139.541134684113786, 7161951.182044105604291 ], [ 669146.076240094727837, 7161918.50647709518671 ], [ 669146.076231281505898, 7161879.29579843301326 ], [ 669136.273558109765872, 7161861.324239570647478 ], [ 669093.795320433331653, 7161840.085131456144154 ], [ 669067.654869416961446, 7161840.085137294605374 ], [ 669044.781973675824702, 7161835.183807572349906 ], [ 669020.275294241146185, 7161805.775804052129388 ], [ 669005.571286509861238, 7161787.804246284998953 ], [ 668994.134836255107075, 7161774.734022619202733 ], [ 668994.134832584648393, 7161758.396239847876132 ], [ 669002.303721693344414, 7161750.227346638217568 ], [ 669015.373945365892723, 7161742.058452335186303 ], [ 669033.345503234770149, 7161732.255778657272458 ], [ 669052.950839660014026, 7161724.086882893927395 ], [ 669070.922397162066773, 7161712.65043094009161 ], [ 669085.626397919491865, 7161699.580201438628137 ], [ 669085.626393146812916, 7161678.341083836741745 ], [ 669087.26016656216234, 7161657.101965872570872 ], [ 669098.696611677180044, 7161647.299293655902147 ], [ 669119.935725919553079, 7161637.496619245968759 ], [ 669139.541061238734983, 7161624.426388651132584 ], [ 669159.146399130346254, 7161622.792605994269252 ], [ 669180.385516307782382, 7161626.060157800093293 ], [ 669216.328637917409651, 7161632.595262872055173 ], [ 669266.975759912515059, 7161624.426360163837671 ], [ 669284.947318510501646, 7161617.891243038699031 ], [ 669295.566875996533781, 7161614.623684110119939 ], [ 669313.538429817417637, 7161586.849449383094907 ], [ 669329.876207653200254, 7161568.877884682267904 ], [ 669356.016655352432281, 7161554.17387434374541 ], [ 669383.790880133747123, 7161534.568528808653355 ], [ 669405.029989956063218, 7161505.160515075549483 ], [ 669416.466433224151842, 7161487.188951471820474 ], [ 669423.001541561912745, 7161467.583610690198839 ], [ 669424.635314600309357, 7161444.710714452899992 ], [ 669436.071759338490665, 7161433.274263956584036 ], [ 669442.606872457545251, 7161434.908040770329535 ], [ 669455.67710090323817, 7161447.97826405800879 ], [ 669465.479775179061107, 7161470.851157734170556 ], [ 669476.916225805412978, 7161485.555159661918879 ], [ 669485.085117848706432, 7161490.456492664292455 ], [ 669506.324231713544577, 7161479.020039970986545 ], [ 669561.872683839756064, 7161451.245796829462051 ], [ 669586.379350028350018, 7161421.837782359682024 ], [ 669592.91445762407966, 7161398.964885026216507 ], [ 669594.548232129891403, 7161382.627101894468069 ], [ 669591.280671335756779, 7161363.021763311699033 ], [ 669584.745556376408786, 7161353.219095117412508 ], [ 669558.605103534529917, 7161345.050209592096508 ], [ 669552.069986367947422, 7161325.444871740415692 ], [ 669556.971313935704529, 7161294.403083395212889 ], [ 669570.041531334398314, 7161258.459958390332758 ], [ 669591.280637091491371, 7161211.080383624881506 ], [ 669607.618410861119628, 7161175.13725789450109 ], [ 669623.956188680953346, 7161157.1656931983307 ], [ 669646.82907961786259, 7161140.827905312180519 ], [ 669661.533084774273448, 7161147.363015118986368 ], [ 669677.870867013232782, 7161148.996789733879268 ], [ 669692.574867749703117, 7161135.926560228690505 ], [ 669700.743755368166603, 7161121.222553914412856 ], [ 669708.912641513277777, 7161099.983434500172734 ], [ 669723.616637825733051, 7161067.307865686714649 ], [ 669741.588190510636196, 7161034.632296144962311 ], [ 669744.855733985081315, 7160977.45005576685071 ], [ 669751.390840097563341, 7160948.042045341804624 ], [ 669756.29216876020655, 7160921.901591836474836 ], [ 669762.827278188895434, 7160907.197585891932249 ], [ 669785.700171326170675, 7160900.662467661313713 ], [ 669818.375735056004487, 7160900.662460330873728 ], [ 669831.445960549172014, 7160900.662457395344973 ], [ 669836.347292526857927, 7160889.226008368656039 ], [ 669829.812174250138924, 7160864.719335706904531 ], [ 669816.741944333538413, 7160845.113999336957932 ], [ 669800.404159151716158, 7160830.409998525865376 ], [ 669784.066372864763252, 7160810.804662887006998 ], [ 669774.263699321309105, 7160791.199325784109533 ], [ 669754.658357031876221, 7160773.227769157849252 ], [ 669733.419236924848519, 7160756.889991169795394 ], [ 669717.081450273282826, 7160735.650877257809043 ], [ 669707.278777102590539, 7160717.679318429902196 ], [ 669696.659212996717542, 7160691.538868413306773 ], [ 669696.659210048848763, 7160678.468642215244472 ], [ 669696.65920783765614, 7160668.66597256436944 ], [ 669699.926759051741101, 7160645.793075986206532 ], [ 669714.630759777850471, 7160632.722846489399672 ], [ 669726.067204868071713, 7160622.920174278318882 ], [ 669760.376541243167594, 7160598.413492462597787 ], [ 669778.348098707152531, 7160586.977040509693325 ], [ 669786.516985213384032, 7160567.371699381619692 ], [ 669799.587207750068046, 7160554.301470253616571 ], [ 669825.727655404014513, 7160539.597459917888045 ], [ 669850.234326714999042, 7160533.062341317534447 ], [ 669868.205883807851933, 7160519.992111090570688 ], [ 669887.811217609210871, 7160500.38676739577204 ], [ 669892.712549953139387, 7160490.584096647799015 ], [ 669891.078766234219074, 7160466.077422898262739 ], [ 669886.177426513051614, 7160443.204528156667948 ], [ 669882.909862764761783, 7160410.528963404707611 ], [ 669887.811189942993224, 7160377.853396820835769 ], [ 669899.247634659521282, 7160366.416946332901716 ], [ 669907.416523002670147, 7160354.980496579781175 ], [ 669912.317855713656172, 7160346.811604109592736 ], [ 669930.289414647384547, 7160341.910265251994133 ], [ 669944.993416469427757, 7160333.741370582953095 ], [ 669950.711636427673511, 7160317.403586557134986 ], [ 669950.71163126162719, 7160294.530690720304847 ], [ 669953.979183571529575, 7160276.559128970839083 ], [ 669963.781849362072535, 7160261.855122305452824 ], [ 669986.654739894089289, 7160243.88355615362525 ], [ 669999.724962790380232, 7160232.447105303406715 ], [ 670027.499187137116678, 7160211.20798150356859 ], [ 670030.766737600439228, 7160185.067528388462961 ], [ 670032.400510985637084, 7160163.828410463407636 ], [ 670047.104508373187855, 7160136.054176506586373 ], [ 670053.639619635650888, 7160129.519061942584813 ], [ 670066.709843268734403, 7160121.350167638622224 ], [ 670081.413846194860525, 7160118.082607787102461 ], [ 670087.948955978266895, 7160105.012380128726363 ], [ 670086.315173361683264, 7160085.407041212543845 ], [ 670084.681392590980977, 7160073.970593666657805 ], [ 670089.582723452826031, 7160057.632809828966856 ], [ 670096.11783249815926, 7160041.29502562712878 ], [ 670101.019164096796885, 7160028.224798337556422 ], [ 670110.821830988279544, 7160018.422126491554081 ], [ 670117.356940771453083, 7160005.351898837834597 ], [ 670127.159605077002198, 7159984.112779079936445 ], [ 670135.328491935390048, 7159966.141216237097979 ], [ 670148.398712978698313, 7159946.535874020308256 ], [ 670163.102707032230683, 7159904.057635610923171 ], [ 670164.736478566192091, 7159874.649626327678561 ], [ 670161.468915915465914, 7159846.87539641931653 ], [ 670148.39868489978835, 7159822.368725262582302 ], [ 670148.398680465528741, 7159802.763385985977948 ], [ 670148.398674555006437, 7159776.622933620586991 ], [ 670148.398670119931921, 7159757.017594345845282 ], [ 670153.300000238930807, 7159737.412253971211612 ], [ 670161.468885986716487, 7159714.539356315508485 ], [ 670177.806662282790057, 7159690.032678550109267 ], [ 670195.77821602311451, 7159662.258443875238299 ], [ 670213.749770131311379, 7159636.117987470701337 ], [ 670226.819990427233279, 7159613.245088716968894 ], [ 670239.89021293958649, 7159600.174859596416354 ], [ 670236.622651397367008, 7159577.301964515820146 ], [ 670236.622645851457492, 7159552.795290427282453 ], [ 670238.256415163516067, 7159513.584611525759101 ], [ 670244.791524570900947, 7159498.880605604499578 ], [ 670266.030641325982288, 7159500.514379099011421 ], [ 670279.100869751302525, 7159513.58460233733058 ], [ 670310.142657826654613, 7159525.021043259650469 ], [ 670331.381773844361305, 7159523.38726020604372 ], [ 670341.184438136639073, 7159502.148140459321439 ], [ 670341.184432218084112, 7159476.007688105106354 ], [ 670334.649314306676388, 7159453.134793763980269 ], [ 670334.649310607928783, 7159436.79701104387641 ], [ 670339.550638130167499, 7159405.755222769454122 ], [ 670350.987080973573029, 7159386.149880930781364 ], [ 670363.240414758212864, 7159374.71343026868999 ], [ 670384.479527810239233, 7159360.009421037510037 ], [ 670413.887535107787699, 7159360.009414416737854 ], [ 670443.295539074577391, 7159345.305403348058462 ], [ 670461.267094277776778, 7159324.066281763836741 ], [ 670484.139984769048169, 7159306.094715621322393 ], [ 670495.57642760744784, 7159286.489373784512281 ], [ 670495.576424275292084, 7159271.78536933939904 ], [ 670485.773751845699735, 7159257.0813671015203 ], [ 670477.604859080165625, 7159248.912477581761777 ], [ 670467.802188131725416, 7159240.743588430806994 ], [ 670461.267072807764634, 7159229.307142000645399 ], [ 670459.633287962526083, 7159199.89913347736001 ], [ 670459.633277228218503, 7159152.519563604146242 ], [ 670471.069715992780402, 7159114.9426607824862 ], [ 670492.308822001330554, 7159069.19686440192163 ], [ 670503.745262985234149, 7159041.422631211578846 ], [ 670516.815482149831951, 7159013.648397658020258 ], [ 670536.420814414042979, 7158987.507940898649395 ], [ 670552.758594015380368, 7158977.705267589539289 ], [ 670586.251044532167725, 7158967.9025904154405 ], [ 670610.757712081773207, 7158945.029689095914364 ], [ 670636.89815855154302, 7158925.424343951046467 ], [ 670666.306161383632571, 7158905.818998066708446 ], [ 670681.010160205420107, 7158884.579877227544785 ], [ 670689.179041849914938, 7158843.735418614000082 ], [ 670689.179032953688875, 7158804.524740114808083 ], [ 670698.981697225710377, 7158783.28562038205564 ], [ 670723.488364765886217, 7158760.412719065323472 ], [ 670749.628804922685958, 7158713.033143321052194 ], [ 670749.628797507379204, 7158680.357577908784151 ], [ 670744.727454061969183, 7158641.146900524385273 ], [ 670713.685654523898847, 7158579.063333254307508 ], [ 670679.376300480915233, 7158525.148658076301217 ], [ 670643.43317159707658, 7158485.937987700104713 ], [ 670620.560272240894847, 7158464.698875349014997 ], [ 670609.123820898123085, 7158446.727316954173148 ], [ 670594.419809486484155, 7158412.417976601049304 ], [ 670569.91313010151498, 7158383.009973268955946 ], [ 670545.406451830407605, 7158358.503304746001959 ], [ 670515.998426426551305, 7158278.448176155798137 ], [ 670480.055292008211836, 7158214.730831742286682 ], [ 670431.041939926450141, 7158185.322833931073546 ], [ 670365.690813439665362, 7158188.590405186638236 ], [ 670336.28280322952196, 7158175.520185651257634 ], [ 670334.649020979413763, 7158157.548625055700541 ], [ 670350.986799454549327, 7158142.844616953283548 ], [ 670367.32457941188477, 7158134.675721928477287 ], [ 670395.098807000089437, 7158128.14060260169208 ], [ 670431.041924750548787, 7158118.337924890220165 ], [ 670489.857931473175995, 7158084.028567988425493 ], [ 670520.899710605852306, 7158056.254330419935286 ], [ 670597.687271005124785, 7157994.17073888797313 ], [ 670641.799275942030363, 7157968.030276639387012 ], [ 670672.841055806144141, 7157943.523595606908202 ], [ 670694.080166216939688, 7157917.383138513192534 ], [ 670734.924615527619608, 7157894.510233538225293 ], [ 670757.797505597234704, 7157874.904889150522649 ], [ 670780.670396408066154, 7157858.567101301625371 ], [ 670818.24728786945343, 7157829.159083984792233 ], [ 670859.091735687223263, 7157799.751065930351615 ], [ 670898.302399754757062, 7157745.836374215781689 ], [ 670934.245511912507936, 7157711.527022458612919 ], [ 670988.160177358076908, 7157647.809657815843821 ], [ 671058.412619758513756, 7157562.853171997703612 ], [ 671095.989501533331349, 7157490.966919710859656 ], [ 671125.397491661831737, 7157415.813112743198872 ], [ 671194.016153615433723, 7157321.05395770072937 ], [ 671249.564603139646351, 7157283.477044980973005 ], [ 671292.042830577935092, 7157260.604139622300863 ], [ 671355.760171728907153, 7157226.29478158056736 ], [ 671412.942401651409455, 7157198.520538087002933 ], [ 671465.223298895056359, 7157178.915187035687268 ], [ 671483.194858114002272, 7157175.647626427933574 ], [ 671519.137974314158782, 7157159.30983561091125 ], [ 671561.616203972720541, 7157146.239599843509495 ], [ 671592.657986380392686, 7157133.169366668909788 ], [ 671656.375331609975547, 7157116.831569546833634 ], [ 671695.586005279212259, 7157105.395112780854106 ], [ 671742.965572078712285, 7157103.76132376305759 ], [ 671798.514027529396117, 7157092.324863283894956 ], [ 671819.753140488523059, 7157077.620854059234262 ], [ 671842.626029386650771, 7157053.114174859598279 ], [ 671868.766466426895931, 7156992.664373048581183 ], [ 671898.174464671756141, 7156953.453687965869904 ], [ 671935.751353803323582, 7156914.243001027964056 ], [ 671963.525580960791558, 7156906.074103381484747 ], [ 672009.271363591076806, 7156878.299862453714013 ], [ 672066.453597197774798, 7156866.863401588052511 ], [ 672112.199383560335264, 7156855.426943317987025 ], [ 672157.945167677477002, 7156834.187815448269248 ], [ 672221.662502395687625, 7156772.10422682389617 ], [ 672239.634054494323209, 7156737.794879144057631 ], [ 672264.140720797004178, 7156710.020643036812544 ], [ 672296.816281726118177, 7156698.584187734872103 ], [ 672336.026953867985867, 7156680.612617878243327 ], [ 672363.801176894688979, 7156654.472159296274185 ], [ 672401.378062991891056, 7156602.191246222704649 ], [ 672417.715834653703496, 7156558.079229320399463 ], [ 672440.588708533905447, 7156468.221419489011168 ], [ 672463.461586154648103, 7156394.701392324641347 ], [ 672477.348692041588947, 7156357.124489054083824 ] ] ] ] } }
]
}
