{
"type": "FeatureCollection",
"name": "ribeirao_da_divisa",
"crs": { "type": "name", "properties": { "name": "urn:ogc:def:crs:EPSG::31982" } },
"features": [
{ "type": "Feature", "properties": { "AREA": 19150453.77124, "PERIMETER": 23305.59878, "BACIAS1_": 7, "BACIAS1_ID": 0, "NOME_BACIA": "RIBEIRAO DA DIVISA", "SUB_AREA": 19.15, "SUBCODIGO": 6, "BACCODIGO": 2, "SUBNOME": "RIBEIRAO DA DIVISA", "SUBBAC_DAT": "2002-01-03", "SUBBAC_POP": 20105, "SUBBAC_P_1": 26485, "SUBBAC_DEN": 1383.05, "SUBBAC_D_1": 1049.89 }, "geometry": { "type": "MultiPolygon", "coordinates": [ [ [ [ 672477.348692041588947, 7156357.124489054083824 ], [ 672463.461586154648103, 7156394.701392324641347 ], [ 672440.588708533905447, 7156468.221419489011168 ], [ 672417.715834653703496, 7156558.079229320399463 ], [ 672401.378062991891056, 7156602.191246222704649 ], [ 672363.801176894688979, 7156654.472159296274185 ], [ 672336.026953867985867, 7156680.612617878243327 ], [ 672296.816281726118177, 7156698.584187734872103 ], [ 672264.140720797004178, 7156710.020643036812544 ], [ 672239.634054494323209, 7156737.794879144057631 ], [ 672221.662502395687625, 7156772.10422682389617 ], [ 672157.945167677477002, 7156834.187815448269248 ], [ 672112.199383560335264, 7156855.426943317987025 ], [ 672066.453597197774798, 7156866.863401588052511 ], [ 672009.271363591076806, 7156878.299862453714013 ], [ 671963.525580960791558, 7156906.074103381484747 ], [ 671935.751353803323582, 7156914.243001027964056 ], [ 671898.174464671756141, 7156953.453687965869904 ], [ 671868.766466426895931, 7156992.664373048581183 ], [ 671842.626029386650771, 7157053.114174859598279 ], [ 671819.753140488523059, 7157077.620854059234262 ], [ 671798.514027529396117, 7157092.324863283894956 ], [ 671742.965572078712285, 7157103.76132376305759 ], [ 671695.586005279212259, 7157105.395112780854106 ], [ 671656.375331609975547, 7157116.831569546833634 ], [ 671592.657986380392686, 7157133.169366668909788 ], [ 671561.616203972720541, 7157146.239599843509495 ], [ 671519.137974314158782, 7157159.30983561091125 ], [ 671483.194858114002272, 7157175.647626427933574 ], [ 671465.223298895056359, 7157178.915187035687268 ], [ 671412.942401651409455, 7157198.520538087002933 ], [ 671355.760171728907153, 7157226.29478158056736 ], [ 671292.042830577935092, 7157260.604139622300863 ], [ 671249.564603139646351, 7157283.477044980973005 ], [ 671194.016153615433723, 7157321.05395770072937 ], [ 671125.397491661831737, 7157415.813112743198872 ], [ 671095.989501533331349, 7157490.966919710859656 ], [ 671058.412619758513756, 7157562.853171997703612 ], [ 670988.160177358076908, 7157647.809657815843821 ], [ 670934.245511912507936, 7157711.527022458612919 ], [ 670898.302399754757062, 7157745.836374215781689 ], [ 670859.091735687223263, 7157799.751065930351615 ], [ 670818.24728786945343, 7157829.159083984792233 ], [ 670780.670396408066154, 7157858.567101301625371 ], [ 670757.797505597234704, 7157874.904889150522649 ], [ 670734.924615527619608, 7157894.510233538225293 ], [ 670694.080166216939688, 7157917.383138513192534 ], [ 670672.841055806144141, 7157943.523595606908202 ], [ 670641.799275942030363, 7157968.030276639387012 ], [ 670597.687271005124785, 7157994.17073888797313 ], [ 670520.899710605852306, 7158056.254330419935286 ], [ 670489.857931473175995, 7158084.028567988425493 ], [ 670431.041924750548787, 7158118.337924890220165 ], [ 670395.098807000089437, 7158128.14060260169208 ], [ 670367.32457941188477, 7158134.675721928477287 ], [ 670350.986799454549327, 7158142.844616953283548 ], [ 670334.649020979413763, 7158157.548625055700541 ], [ 670336.28280322952196, 7158175.520185651257634 ], [ 670365.690813439665362, 7158188.590405186638236 ], [ 670431.041939926450141, 7158185.322833931073546 ], [ 670480.055292008211836, 7158214.730831742286682 ], [ 670515.998426426551305, 7158278.448176155798137 ], [ 670545.406451830407605, 7158358.503304746001959 ], [ 670569.91313010151498, 7158383.009973268955946 ], [ 670594.419809486484155, 7158412.417976601049304 ], [ 670609.123820898123085, 7158446.727316954173148 ], [ 670620.560272240894847, 7158464.698875349014997 ], [ 670643.43317159707658, 7158485.937987700104713 ], [ 670679.376300480915233, 7158525.148658076301217 ], [ 670713.685654523898847, 7158579.063333254307508 ], [ 670744.727454061969183, 7158641.146900524385273 ], [ 670749.628797507379204, 7158680.357577908784151 ], [ 670749.628804922685958, 7158713.033143321052194 ], [ 670723.488364765886217, 7158760.412719065323472 ], [ 670698.981697225710377, 7158783.28562038205564 ], [ 670689.179032953688875, 7158804.524740114808083 ], [ 670689.179041849914938, 7158843.735418614000082 ], [ 670681.010160205420107, 7158884.579877227544785 ], [ 670666.306161383632571, 7158905.818998066708446 ], [ 670636.89815855154302, 7158925.424343951046467 ], [ 670610.757712081773207, 7158945.029689095914364 ], [ 670586.251044532167725, 7158967.9025904154405 ], [ 670552.758594015380368, 7158977.705267589539289 ], [ 670536.420814414042979, 7158987.507940898649395 ], [ 670516.815482149831951, 7159013.648397658020258 ], [ 670503.745262985234149, 7159041.422631211578846 ], [ 670492.308822001330554, 7159069.19686440192163 ], [ 670471.069715992780402, 7159114.9426607824862 ], [ 670459.633277228218503, 7159152.519563604146242 ], [ 670459.633287962526083, 7159199.89913347736001 ], [ 670461.267072807764634, 7159229.307142000645399 ], [ 670467.802188131725416, 7159240.743588430806994 ], [ 670477.604859080165625, 7159248.912477581761777 ], [ 670485.773751845699735, 7159257.0813671015203 ], [ 670495.576424275292084, 7159271.78536933939904 ], [ 670495.57642760744784, 7159286.489373784512281 ], [ 670484.139984769048169, 7159306.094715621322393 ], [ 670461.267094277776778, 7159324.066281763836741 ], [ 670443.295539074577391, 7159345.305403348058462 ], [ 670413.887535107787699, 7159360.009414416737854 ], [ 670384.479527810239233, 7159360.009421037510037 ], [ 670363.240414758212864, 7159374.71343026868999 ], [ 670350.987080973573029, 7159386.149880930781364 ], [ 670339.550638130167499, 7159405.755222769454122 ], [ 670334.649310607928783, 7159436.79701104387641 ], [ 670334.649314306676388, 7159453.134793763980269 ], [ 670341.184432218084112, 7159476.007688105106354 ], [ 670341.184438136639073, 7159502.148140459321439 ], [ 670331.381773844361305, 7159523.38726020604372 ], [ 670310.142657826654613, 7159525.021043259650469 ], [ 670279.100869751302525, 7159513.58460233733058 ], [ 670266.030641325982288, 7159500.514379099011421 ], [ 670244.791524570900947, 7159498.880605604499578 ], [ 670238.256415163516067, 7159513.584611525759101 ], [ 670236.622645851457492, 7159552.795290427282453 ], [ 670236.622651397367008, 7159577.301964515820146 ], [ 670239.89021293958649, 7159600.174859596416354 ], [ 670226.819990427233279, 7159613.245088716968894 ], [ 670213.749770131311379, 7159636.117987470701337 ], [ 670195.77821602311451, 7159662.258443875238299 ], [ 670177.806662282790057, 7159690.032678550109267 ], [ 670161.468885986716487, 7159714.539356315508485 ], [ 670153.300000238930807, 7159737.412253971211612 ], [ 670148.398670119931921, 7159757.017594345845282 ], [ 670148.398674555006437, 7159776.622933620586991 ], [ 670148.398680465528741, 7159802.763385985977948 ], [ 670148.39868489978835, 7159822.368725262582302 ], [ 670161.468915915465914, 7159846.87539641931653 ], [ 670164.736478566192091, 7159874.649626327678561 ], [ 670163.102707032230683, 7159904.057635610923171 ], [ 670148.398712978698313, 7159946.535874020308256 ], [ 670135.328491935390048, 7159966.141216237097979 ], [ 670127.159605077002198, 7159984.112779079936445 ], [ 670117.356940771453083, 7160005.351898837834597 ], [ 670110.821830988279544, 7160018.422126491554081 ], [ 670101.019164096796885, 7160028.224798337556422 ], [ 670096.11783249815926, 7160041.29502562712878 ], [ 670089.582723452826031, 7160057.632809828966856 ], [ 670084.681392590980977, 7160073.970593666657805 ], [ 670086.315173361683264, 7160085.407041212543845 ], [ 670087.948955978266895, 7160105.012380128726363 ], [ 670081.413846194860525, 7160118.082607787102461 ], [ 670066.709843268734403, 7160121.350167638622224 ], [ 670053.639619635650888, 7160129.519061942584813 ], [ 670047.104508373187855, 7160136.054176506586373 ], [ 670032.400510985637084, 7160163.828410463407636 ], [ 670030.766737600439228, 7160185.067528388462961 ], [ 670027.499187137116678, 7160211.20798150356859 ], [ 669999.724962790380232, 7160232.447105303406715 ], [ 669986.654739894089289, 7160243.88355615362525 ], [ 669963.781849362072535, 7160261.855122305452824 ], [ 669953.979183571529575, 7160276.559128970839083 ], [ 669950.71163126162719, 7160294.530690720304847 ], [ 669950.711636427673511, 7160317.403586557134986 ], [ 669944.993416469427757, 7160333.741370582953095 ], [ 669930.289414647384547, 7160341.910265251994133 ], [ 669912.317855713656172, 7160346.811604109592736 ], [ 669907.416523002670147, 7160354.980496579781175 ], [ 669899.247634659521282, 7160366.416946332901716 ], [ 669887.811189942993224, 7160377.853396820835769 ], [ 669882.909862764761783, 7160410.528963404707611 ], [ 669886.177426513051614, 7160443.204528156667948 ], [ 669891.078766234219074, 7160466.077422898262739 ], [ 669892.712549953139387, 7160490.584096647799015 ], [ 669887.811217609210871, 7160500.38676739577204 ], [ 669868.205883807851933, 7160519.992111090570688 ], [ 669850.234326714999042, 7160533.062341317534447 ], [ 669825.727655404014513, 7160539.597459917888045 ], [ 669799.587207750068046, 7160554.301470253616571 ], [ 669786.516985213384032, 7160567.371699381619692 ], [ 669778.348098707152531, 7160586.977040509693325 ], [ 669760.376541243167594, 7160598.413492462597787 ], [ 669726.067204868071713, 7160622.920174278318882 ], [ 669714.630759777850471, 7160632.722846489399672 ], [ 669699.926759051741101, 7160645.793075986206532 ], [ 669696.65920783765614, 7160668.66597256436944 ], [ 669696.659210048848763, 7160678.468642215244472 ], [ 669696.659212996717542, 7160691.538868413306773 ], [ 669707.278777102590539, 7160717.679318429902196 ], [ 669717.081450273282826, 7160735.650877257809043 ], [ 669733.419236924848519, 7160756.889991169795394 ], [ 669754.658357031876221, 7160773.227769157849252 ], [ 669774.263699321309105, 7160791.199325784109533 ], [ 669784.066372864763252, 7160810.804662887006998 ], [ 669800.404159151716158, 7160830.409998525865376 ], [ 669816.741944333538413, 7160845.113999336957932 ], [ 669829.812174250138924, 7160864.719335706904531 ], [ 669836.347292526857927, 7160889.226008368656039 ], [ 669831.445960549172014, 7160900.662457395344973 ], [ 669818.375735056004487, 7160900.662460330873728 ], [ 669785.700171326170675, 7160900.662467661313713 ], [ 669762.827278188895434, 7160907.197585891932249 ], [ 669756.29216876020655, 7160921.901591836474836 ], [ 669751.390840097563341, 7160948.042045341804624 ], [ 669744.855733985081315, 7160977.45005576685071 ], [ 669741.588190510636196, 7161034.632296144962311 ], [ 669723.616637825733051, 7161067.307865686714649 ], [ 669708.912641513277777, 7161099.983434500172734 ], [ 669700.743755368166603, 7161121.222553914412856 ], [ 669692.574867749703117, 7161135.926560228690505 ], [ 669677.870867013232782, 7161148.996789733879268 ], [ 669661.533084774273448, 7161147.363015118986368 ], [ 669646.82907961786259, 7161140.827905312180519 ], [ 669623.956188680953346, 7161157.1656931983307 ], [ 669607.618410861119628, 7161175.13725789450109 ], [ 669591.280637091491371, 7161211.080383624881506 ], [ 669570.041531334398314, 7161258.459958390332758 ], [ 669556.971313935704529, 7161294.403083395212889 ], [ 669552.069986367947422, 7161325.444871740415692 ], [ 669558.605103534529917, 7161345.050209592096508 ], [ 669584.745556376408786, 7161353.219095117412508 ], [ 669591.280671335756779, 7161363.021763311699033 ], [ 669594.548232129891403, 7161382.627101894468069 ], [ 669592.91445762407966, 7161398.964885026216507 ], [ 669586.379350028350018, 7161421.837782359682024 ], [ 669561.872683839756064, 7161451.245796829462051 ], [ 669506.324231713544577, 7161479.020039970986545 ], [ 669485.085117848706432, 7161490.456492664292455 ], [ 669476.916225805412978, 7161485.555159661918879 ], [ 669465.479775179061107, 7161470.851157734170556 ], [ 669455.67710090323817, 7161447.97826405800879 ], [ 669442.606872457545251, 7161434.908040770329535 ], [ 669436.071759338490665, 7161433.274263956584036 ], [ 669424.635314600309357, 7161444.710714452899992 ], [ 669423.001541561912745, 7161467.583610690198839 ], [ 669416.466433224151842, 7161487.188951471820474 ], [ 669405.029989956063218, 7161505.160515075549483 ], [ 669383.790880133747123, 7161534.568528808653355 ], [ 669356.016655352432281, 7161554.17387434374541 ], [ 669329.876207653200254, 7161568.877884682267904 ], [ 669313.538429817417637, 7161586.849449383094907 ], [ 669295.566875996533781, 7161614.623684110119939 ], [ 669284.947318510501646, 7161617.891243038699031 ], [ 669266.975759912515059, 7161624.426360163837671 ], [ 669216.328637917409651, 7161632.595262872055173 ], [ 669180.385516307782382, 7161626.060157800093293 ], [ 669159.146399130346254, 7161622.792605994269252 ], [ 669139.541061238734983, 7161624.426388651132584 ], [ 669119.935725919553079, 7161637.496619245968759 ], [ 669098.696611677180044, 7161647.299293655902147 ], [ 669087.26016656216234, 7161657.101965872570872 ], [ 669085.626393146812916, 7161678.341083836741745 ], [ 669085.626397919491865, 7161699.580201438628137 ], [ 669070.922397162066773, 7161712.65043094009161 ], [ 669052.950839660014026, 7161724.086882893927395 ], [ 669033.345503234770149, 7161732.255778657272458 ], [ 669015.373945365892723, 7161742.058452335186303 ], [ 669002.303721693344414, 7161750.227346638217568 ], [ 668994.134832584648393, 7161758.396239847876132 ], [ 668994.134836255107075, 7161774.734022619202733 ], [ 669005.571286509861238, 7161787.804246284998953 ], [ 669020.275294241146185, 7161805.775804052129388 ], [ 669044.781973675824702, 7161835.183807572349906 ], [ 669067.654869416961446, 7161840.085137294605374 ], [ 669093.795320433331653, 7161840.085131456144154 ], [ 669136.273558109765872, 7161861.324239570647478 ], [ 669146.076231281505898, 7161879.29579843301326 ], [ 669146.076240094727837, 7161918.50647709518671 ], [ 669139.541134684113786, 7161951.182044105604291 ], [ 669098.696693180943839, 7162009.998071229085326 ], [ 669076.640694238594733, 7162039.406085156835616 ], [ 669061.936695675947703, 7162062.27898433059454 ], [ 669042.331361443269998, 7162080.250549767166376 ], [ 669027.627361045335419, 7162094.954557551071048 ], [ 669012.923365415539593, 7162130.897682949900627 ], [ 669006.388259264873341, 7162160.305693414062262 ], [ 669006.388263667467982, 7162179.911032752133906 ], [ 668998.219377491041087, 7162201.150152191519737 ], [ 668990.050493147107773, 7162230.558163022622466 ], [ 668985.149163716239855, 7162253.431060014292598 ], [ 668976.980276802671142, 7162271.40262289904058 ], [ 668960.64249931066297, 7162291.007965885102749 ], [ 668931.234497767174616, 7162317.148424902930856 ], [ 668921.431832297006622, 7162333.486209876835346 ], [ 668921.431838165037334, 7162359.626662332564592 ], [ 668929.600737548898906, 7162397.203560915775597 ], [ 668923.065628823474981, 7162415.17512343917042 ], [ 668923.065635059028864, 7162442.949354176409543 ], [ 668903.460305579937994, 7162482.160037241876125 ], [ 668903.460311081027612, 7162506.666711425408721 ], [ 668903.460319514852017, 7162544.243611838668585 ], [ 668905.094107239274308, 7162586.721846725791693 ], [ 668905.094114206149243, 7162617.763634029775858 ], [ 668911.629234667518176, 7162652.072976433672011 ], [ 668909.99546454497613, 7162688.016098942607641 ], [ 668911.629252635990269, 7162732.128112117759883 ], [ 668913.263041095458902, 7162777.873903576284647 ], [ 668919.798167059547268, 7162836.689920179545879 ], [ 668918.164398036431521, 7162877.534377534873784 ], [ 668924.699514834443107, 7162895.505937153473496 ], [ 668945.938634249963798, 7162908.576158651150763 ], [ 668967.177754399250261, 7162924.913936709053814 ], [ 668973.712874500080943, 7162957.58950084540993 ], [ 669008.83911441185046, 7162996.800171721726656 ], [ 669031.712012022268027, 7163009.870392853394151 ], [ 669048.049803476314992, 7163052.348624484613538 ], [ 669061.12003928120248, 7163098.094413410872221 ], [ 669062.75382407894358, 7163127.502422088757157 ], [ 669062.753833989263512, 7163171.614435655996203 ], [ 669069.288952627684921, 7163197.754886680282652 ], [ 669082.359186602639966, 7163235.331784211099148 ], [ 669097.063195465598255, 7163258.204676853492856 ], [ 669105.232097437372431, 7163307.21802344545722 ], [ 669118.302327377954498, 7163326.823359893634915 ], [ 669136.27389079099521, 7163341.527360405772924 ], [ 669193.456135954125784, 7163379.10424808319658 ], [ 669204.892586235539056, 7163392.174471775069833 ], [ 669227.765481657348573, 7163395.442023223266006 ], [ 669253.90593456546776, 7163403.610908783972263 ], [ 669273.511274707503617, 7163411.779795803129673 ], [ 669281.680165667785332, 7163411.779793976806104 ], [ 669302.919278119923547, 7163393.808228138834238 ], [ 669322.52461495238822, 7163387.273110629990697 ], [ 669338.862397606833838, 7163390.540663537569344 ], [ 669347.031293714186177, 7163413.413557641208172 ], [ 669351.932635276112705, 7163444.455343883484602 ], [ 669369.904198697186075, 7163459.159344390034676 ], [ 669405.847326277405955, 7163491.834901967085898 ], [ 669433.621569890296087, 7163555.552248714491725 ], [ 669458.128247924963944, 7163578.425139166414738 ], [ 669489.170037258067168, 7163594.762915029190481 ], [ 669530.014497587340884, 7163619.269580103456974 ], [ 669551.253617034526542, 7163632.33980159740895 ], [ 669552.887399644358084, 7163651.945140607655048 ], [ 669573.309632572811097, 7163676.45181025378406 ], [ 669583.112305041169748, 7163691.155812591314316 ], [ 669586.379865475581028, 7163709.127372955903411 ], [ 669586.379869892727584, 7163728.732712332159281 ], [ 669584.746096855029464, 7163751.605608642101288 ], [ 669586.379881673376076, 7163781.013617346063256 ], [ 669596.182555617531762, 7163802.252732811495662 ], [ 669615.787899821531028, 7163828.39318092726171 ], [ 669653.364803414675407, 7163851.266068452969193 ], [ 669723.617271238006651, 7163875.772726933471859 ], [ 669856.770207609864883, 7163936.222493503242731 ], [ 669874.741770683787763, 7163949.292715725488961 ], [ 669899.248445794917643, 7163959.095379917882383 ], [ 669931.924012240604497, 7163970.531820558942854 ], [ 669944.994238893035799, 7163975.433152472600341 ], [ 669977.669803863624111, 7163980.334479982033372 ], [ 669997.275141813792288, 7163978.700697298161685 ], [ 670029.950701619964093, 7163960.729128856211901 ], [ 670082.231592723401263, 7163911.715768652968109 ], [ 670111.639592444524169, 7163877.406418125145137 ], [ 670173.723144566873088, 7163792.449933517724276 ], [ 670198.229812658159062, 7163771.210810346528888 ], [ 670226.004040826461278, 7163766.309469256550074 ], [ 670253.778268255409785, 7163758.140571603551507 ], [ 670284.820052808849141, 7163753.239229775965214 ], [ 670327.298286189325154, 7163754.872998502105474 ], [ 670348.537405800772831, 7163768.596731291152537 ], [ 670364.221679409849457, 7163781.666954014450312 ], [ 670374.677861620206386, 7163789.509087414480746 ], [ 670394.283201708691195, 7163797.351218754425645 ], [ 670411.274496097816154, 7163802.579305429011583 ], [ 670425.651745970360935, 7163810.421437945216894 ], [ 670440.028997323708609, 7163824.79868358746171 ], [ 670442.643046576762572, 7163843.096999756991863 ], [ 670441.336028758436441, 7163864.00936205778271 ], [ 670441.336032015038654, 7163878.38661093916744 ], [ 670458.327329958323389, 7163899.298969121649861 ], [ 670475.318627903121524, 7163920.211327305063605 ], [ 670485.774812780786306, 7163939.816664334386587 ], [ 670510.608246942632832, 7163964.650088629685342 ], [ 670522.371454375330359, 7163984.255425365641713 ], [ 670530.213593848398887, 7164002.55374035704881 ], [ 670532.827642215765081, 7164016.93098865263164 ], [ 670543.283824429614469, 7164024.773122052662075 ], [ 670553.7400048666168, 7164024.773119698278606 ], [ 670582.494499291758984, 7164016.930977463722229 ], [ 670620.398151598870754, 7164009.088833168148994 ], [ 670650.459670653566718, 7164010.395849017426372 ], [ 670667.450964455492795, 7164013.009890438988805 ], [ 670684.442257665446959, 7164013.009886609390378 ], [ 670701.433547911932692, 7163999.939656519331038 ], [ 670709.27567968366202, 7163984.255383243784308 ], [ 670727.573989813099615, 7163959.421949230134487 ], [ 670740.644209725083783, 7163934.588516392745078 ], [ 670751.10038541641552, 7163913.676152025349438 ], [ 670770.705718692275696, 7163891.456762968562543 ], [ 670782.468916343175806, 7163867.930353054776788 ], [ 670809.916384645388462, 7163844.403939602896571 ], [ 670825.600652332068421, 7163831.333709811791778 ], [ 670836.056830392451957, 7163820.877526449039578 ], [ 670839.977893901988864, 7163802.579208807088435 ], [ 670839.977889451314695, 7163782.973869427107275 ], [ 670841.284911413560621, 7163780.359823882579803 ], [ 670839.324372833245434, 7163759.447462318465114 ], [ 670836.710322087397799, 7163734.614033026620746 ], [ 670839.324363636318594, 7163718.929760934785008 ], [ 670847.166495993034914, 7163705.859532911330462 ], [ 670860.236719457549043, 7163696.710371585562825 ], [ 670878.535035215201788, 7163696.710367455147207 ], [ 670913.824645660468377, 7163703.245472615584731 ], [ 670933.429984267335385, 7163704.552490815520287 ], [ 670958.26341309340205, 7163705.85950783174485 ], [ 670980.482795622432604, 7163701.938434939831495 ], [ 670997.474087341222912, 7163695.403317974880338 ], [ 671010.544310505501926, 7163684.947134020738304 ], [ 671037.991781764896587, 7163674.490946818143129 ], [ 671057.59711918537505, 7163670.569874512962997 ], [ 671077.202457199338824, 7163669.262847458943725 ], [ 671104.649930238723755, 7163666.648796005174518 ], [ 671132.097402388346381, 7163660.113676674664021 ], [ 671146.474648698698729, 7163652.2715376727283 ], [ 671155.623804199742153, 7163641.815354604274035 ], [ 671158.237843363080174, 7163615.674901511520147 ], [ 671159.544859972666018, 7163589.534448713064194 ], [ 671149.088676270795986, 7163575.157202204689384 ], [ 671129.48333647614345, 7163568.622093511745334 ], [ 671113.799065531929955, 7163567.315074431709945 ], [ 671098.114796074572951, 7163572.543168475851417 ], [ 671088.965638196561486, 7163572.543170545250177 ], [ 671079.816479429602623, 7163568.622104737907648 ], [ 671073.281364282243885, 7163558.165925214067101 ], [ 671069.360292759141885, 7163541.17463197465986 ], [ 671062.825174642028287, 7163517.648226204328239 ], [ 671058.904103118693456, 7163500.656932966783643 ], [ 671060.211124186986126, 7163494.121819545514882 ], [ 671082.430506709963083, 7163490.200746649876237 ], [ 671108.570959566859528, 7163498.042876491323113 ], [ 671142.553545964648947, 7163498.042868809774518 ], [ 671162.15888427128084, 7163498.042864376679063 ], [ 671181.764221685705706, 7163494.121792070567608 ], [ 671192.220398547826335, 7163478.437518207356334 ], [ 671205.290616651647724, 7163445.761949630454183 ], [ 671223.588929131394252, 7163431.384696620516479 ], [ 671234.045107776066288, 7163423.542558507062495 ], [ 671232.738083439297043, 7163415.700423055328429 ], [ 671227.509990844875574, 7163405.244243239983916 ], [ 671228.817008641897701, 7163384.331880947574973 ], [ 671219.66784511692822, 7163359.49845315143466 ], [ 671213.132727591320872, 7163338.586092635989189 ], [ 671213.132725805742666, 7163330.743956887163222 ], [ 671219.667836790787987, 7163322.901819661259651 ], [ 671239.27317420009058, 7163318.980747353285551 ], [ 671260.185534757212736, 7163317.67371999938041 ], [ 671271.948736251681112, 7163311.138604213483632 ], [ 671279.790868596872315, 7163298.06837619561702 ], [ 671292.861091453349218, 7163286.305169615894556 ], [ 671319.001538653159514, 7163269.313869584351778 ], [ 671345.141988529707305, 7163264.085773168131709 ], [ 671358.212212278973311, 7163256.24363446328789 ], [ 671384.352658881107345, 7163236.638289179652929 ], [ 671420.949284716043621, 7163211.804851029068232 ], [ 671445.782706678379327, 7163183.050347671844065 ], [ 671458.852926849969663, 7163159.523937473073602 ], [ 671481.072297448059544, 7163103.321959597989917 ], [ 671501.984651445993222, 7163073.260434506461024 ], [ 671517.668917315313593, 7163052.348068967461586 ], [ 671535.967228290974163, 7163031.435702834278345 ], [ 671568.64278943289537, 7163019.672491814941168 ], [ 671602.625373722752556, 7163010.523325744085014 ], [ 671630.072847334085964, 7163010.523319521918893 ], [ 671645.757116478402168, 7163003.988202843815088 ], [ 671661.441382939345203, 7162985.68988255225122 ], [ 671671.897558890632354, 7162966.084540821611881 ], [ 671691.502892709570006, 7162946.479197015985847 ], [ 671721.56440724839922, 7162928.180873462930322 ], [ 671743.783788855536841, 7162920.338732680305839 ], [ 671775.152325945906341, 7162902.040408827364445 ], [ 671792.143617340596393, 7162894.198269230313599 ], [ 671809.134909929474816, 7162891.584220126271248 ], [ 671833.968337236321531, 7162886.356123995035887 ], [ 671861.415808456484228, 7162875.899936772882938 ], [ 671879.714121506316587, 7162864.136729003861547 ], [ 671884.942209029453807, 7162852.373524203896523 ], [ 671883.635182298137806, 7162834.075207768008113 ], [ 671878.407086416031234, 7162809.241779105737805 ], [ 671862.72280951612629, 7162781.794307569041848 ], [ 671854.880669425940141, 7162760.881947370246053 ], [ 671858.801730815903284, 7162733.434471387416124 ], [ 671853.573634934844449, 7162708.601042727008462 ], [ 671844.424466323805973, 7162661.548230360262096 ], [ 671847.03850456350483, 7162631.486709428951144 ], [ 671843.117433623410761, 7162617.109461462125182 ], [ 671833.968273668200709, 7162607.96030517667532 ], [ 671827.433157923514955, 7162594.890080427750945 ], [ 671823.512086686096154, 7162579.205809837207198 ], [ 671823.512081911321729, 7162558.293447865173221 ], [ 671823.51207653991878, 7162534.767040647566319 ], [ 671830.04718542075716, 7162517.775745061226189 ], [ 671847.03847232752014, 7162490.328266117721796 ], [ 671857.494648267631419, 7162470.722924400120974 ], [ 671861.41571084887255, 7162448.503538915887475 ], [ 671861.415703088161536, 7162414.520950720645487 ], [ 671853.573563897516578, 7162397.52965840138495 ], [ 671849.652492360910401, 7162380.538365192711353 ], [ 671848.345465928199701, 7162363.547071392647922 ], [ 671847.038438899326138, 7162343.941732345148921 ], [ 671847.038434125017375, 7162323.029370381496847 ], [ 671845.731408587424085, 7162309.95914444886148 ], [ 671844.424382156110369, 7162292.967850649729371 ], [ 671844.424377977848053, 7162274.669533931650221 ], [ 671852.266503437538631, 7162231.537785600870848 ], [ 671860.108629493508488, 7162191.020082521252334 ], [ 671862.722667134017684, 7162158.344516362994909 ], [ 671867.950754354591481, 7162145.274288949556649 ], [ 671857.494570659589954, 7162130.897042477503419 ], [ 671849.65243296243716, 7162120.440863278694451 ], [ 671833.968158167903312, 7162102.142550123855472 ], [ 671824.818995234905742, 7162079.923167619854212 ], [ 671815.669831706210971, 7162055.089739874005318 ], [ 671814.362804679083638, 7162035.48440083488822 ], [ 671824.818981805932708, 7162021.107149614021182 ], [ 671841.810273478389718, 7162014.572032647207379 ], [ 671852.266452396521345, 7162008.036917163059115 ], [ 671852.266450903727673, 7162001.501804050989449 ], [ 671845.731333671021275, 7161981.896466201171279 ], [ 671845.731331283110194, 7161971.440285222604871 ], [ 671845.731328297872096, 7161958.370059000328183 ], [ 671847.038349057314917, 7161950.527922971174121 ], [ 671856.187505425070412, 7161943.992807782255113 ], [ 671873.178797990549356, 7161941.37875868100673 ], [ 671899.319249012391083, 7161941.378752745687962 ], [ 671925.45970182470046, 7161949.220882543362677 ], [ 671943.758018136955798, 7161951.834923630580306 ], [ 671952.907175696920604, 7161950.527898930944502 ], [ 671960.749308014754206, 7161937.457670925185084 ], [ 671977.740596699528396, 7161917.852327733300626 ], [ 671996.038908229325898, 7161899.554006867110729 ], [ 672009.109131947741844, 7161891.711868165060878 ], [ 672018.258285322808661, 7161872.106526754796505 ], [ 672022.179349390557036, 7161856.422254400327802 ], [ 672030.021481110015884, 7161840.737981155514717 ], [ 672045.705747538479045, 7161822.4396608825773 ], [ 672062.697036812780425, 7161805.448362935334444 ], [ 672073.153214829042554, 7161794.992179583758116 ], [ 672088.837480356683955, 7161772.77279144525528 ], [ 672088.837475873762742, 7161753.167452118359506 ], [ 672079.688311742385849, 7161725.719979139044881 ], [ 672077.074263950577006, 7161713.956776138395071 ], [ 672077.074260363937356, 7161698.272504677996039 ], [ 672084.916387897217646, 7161664.289914730936289 ], [ 672092.758516025962308, 7161632.921370029449463 ], [ 672104.521712403744459, 7161604.16686967946589 ], [ 672118.898956872173585, 7161588.482594951987267 ], [ 672135.890246738330461, 7161574.105342251248658 ], [ 672156.802606349228881, 7161568.877247009426355 ], [ 672186.86412500962615, 7161568.87724017072469 ], [ 672216.925649052718654, 7161592.403640520758927 ], [ 672226.074807803612202, 7161596.324706302955747 ], [ 672241.759078409057111, 7161596.324702734127641 ], [ 672253.522278670454398, 7161584.561496463604271 ], [ 672258.750364085077308, 7161563.649133330211043 ], [ 672263.978448602021672, 7161538.815702331252396 ], [ 672280.969736668630503, 7161516.596313901245594 ], [ 672295.346983526018448, 7161511.368220143020153 ], [ 672305.803164527285844, 7161513.982263006269932 ], [ 672320.180414974573068, 7161524.438440704718232 ], [ 672333.250641076941974, 7161527.052482971921563 ], [ 672342.399799229344353, 7161528.359503511339426 ], [ 672358.084069532807916, 7161527.052477317862213 ], [ 672400.562304142862558, 7161534.567847713828087 ], [ 672397.294745146878995, 7161523.131400520913303 ], [ 672400.562298528966494, 7161510.061173562891781 ], [ 672410.364965410670266, 7161500.258501670323312 ], [ 672433.237858916632831, 7161495.35716162994504 ], [ 672454.476977979764342, 7161506.793604724109173 ], [ 672493.687655987450853, 7161513.328708900138736 ], [ 672511.659219425637275, 7161528.0327092949301 ], [ 672531.264560304232873, 7161539.469152765348554 ], [ 672545.96856362069957, 7161537.835371135734022 ], [ 672565.57390000205487, 7161529.666475283913314 ], [ 672578.644121384713799, 7161511.694911258295178 ], [ 672588.446787514258176, 7161498.624682810157537 ], [ 672609.685902458033524, 7161492.089564858935773 ], [ 672619.488570086890832, 7161485.554449515417218 ], [ 672640.727686526603065, 7161485.554444671608508 ], [ 672661.966801470844075, 7161479.019326720386744 ], [ 672684.839691601227969, 7161459.413982183672488 ], [ 672706.078802042175084, 7161433.273524913936853 ], [ 672724.050357981934212, 7161415.301959768868983 ], [ 672737.120579733746126, 7161398.96417402010411 ], [ 672737.12057673255913, 7161385.893947808071971 ], [ 672730.58546023152303, 7161369.556166535243392 ], [ 672714.247676481376402, 7161361.387278879992664 ], [ 672709.346339668147266, 7161351.584610341116786 ], [ 672709.34633554390166, 7161333.613049300387502 ], [ 672710.980109230382368, 7161314.007709611207247 ], [ 672717.515215980820358, 7161287.867255699820817 ], [ 672732.219215167337097, 7161268.261913031339645 ], [ 672756.725881976424716, 7161242.121455017477274 ], [ 672782.866326220915653, 7161212.713440079241991 ], [ 672792.668990467209369, 7161191.474320254288614 ], [ 672791.03520590160042, 7161163.700089934282005 ], [ 672791.035201774677262, 7161145.728528898209333 ], [ 672799.204091584659182, 7161140.827192204073071 ], [ 672823.710763641865924, 7161137.559630058705807 ], [ 672849.851215010508895, 7161139.193402365781367 ], [ 672859.653884132159874, 7161139.193400128744543 ], [ 672880.892999438219704, 7161134.292060449719429 ], [ 672908.667221485171467, 7161103.25026686117053 ], [ 672926.638774784165435, 7161073.84225379023701 ], [ 672957.680544940056279, 7161006.857337394729257 ], [ 672975.652088093920611, 7160933.337310886010528 ], [ 672990.356080880621448, 7160885.957737537100911 ], [ 672993.623622980783693, 7160823.874162329360843 ], [ 672982.187166285701096, 7160783.029708060435951 ], [ 672959.314261912018992, 7160740.551478136330843 ], [ 672916.836019308771938, 7160698.073252690955997 ], [ 672864.555104966275394, 7160644.15858156234026 ], [ 672849.85109528619796, 7160618.018132522702217 ], [ 672831.87952773552388, 7160585.342571130953729 ], [ 672818.809297746513039, 7160565.737234819680452 ], [ 672804.105290321283974, 7160549.399455429986119 ], [ 672800.837729070335627, 7160528.160338604822755 ], [ 672822.076837231521495, 7160492.217211715877056 ], [ 672844.949726576800458, 7160469.344310650601983 ], [ 672871.090169289032929, 7160433.401182640343904 ], [ 672875.991495962487534, 7160399.091837761923671 ], [ 672877.625266640912741, 7160366.416271900758147 ], [ 672856.386140846530907, 7160325.571819897741079 ], [ 672840.048352237907238, 7160296.163814696483314 ], [ 672817.175446762237698, 7160248.784249971620739 ], [ 672792.668754474376328, 7160163.827785322442651 ], [ 672756.725622775615193, 7160113.180667042732239 ], [ 672733.852722561452538, 7160088.673998158425093 ], [ 672728.9513827561168, 7160065.801103445701301 ], [ 672748.55671684758272, 7160047.829537961632013 ], [ 672797.570059387944639, 7160034.759300583973527 ], [ 672843.315848560072482, 7160034.759290140122175 ], [ 672875.991411877097562, 7160033.125504404306412 ], [ 672898.864302709931508, 7160016.787716444581747 ], [ 672913.568298486759886, 7159982.478369342163205 ], [ 672918.469623652519658, 7159941.633911387994885 ], [ 672908.666945909848437, 7159904.057013342157006 ], [ 672893.962935868185014, 7159876.282786056399345 ], [ 672882.526482947403565, 7159851.776114573702216 ], [ 672877.625142012606375, 7159824.001885051839054 ], [ 672884.16024611517787, 7159786.424983277916908 ], [ 672885.794017165782861, 7159755.383195718750358 ], [ 672900.498011812800542, 7159716.17251380905509 ], [ 672937.258013066952117, 7159681.863161684013903 ], [ 672987.905122494208626, 7159619.779575748369098 ], [ 673032.017127821571194, 7159595.272891575470567 ], [ 673066.326468552579172, 7159590.371548913419247 ], [ 673103.90336414729245, 7159578.935092411935329 ], [ 673134.945147006423213, 7159567.498637401498854 ], [ 673146.381589779513888, 7159547.893295519053936 ], [ 673148.015358940465376, 7159508.682616606354713 ], [ 673149.649126595351845, 7159462.936824606731534 ], [ 673156.184231433318928, 7159428.627479396760464 ], [ 673167.620670069009066, 7159391.050576519221067 ], [ 673183.958444757154211, 7159360.008785611018538 ], [ 673216.634002026868984, 7159332.234547508880496 ], [ 673252.577116413158365, 7159307.72786520421505 ], [ 673298.322898766957223, 7159278.319845834746957 ], [ 673337.533569137798622, 7159252.17938450537622 ], [ 673360.406457300879993, 7159224.405148644000292 ], [ 673360.406454288517125, 7159211.334922472015023 ], [ 673352.237557350890711, 7159185.194471996277571 ], [ 673324.463322972878814, 7159162.321582555770874 ], [ 673314.66064936039038, 7159142.716245541349053 ], [ 673293.421514920890331, 7159064.294893372803926 ], [ 673285.252610084600747, 7159003.8450992051512 ], [ 673293.421486696926877, 7158941.761523028835654 ], [ 673291.787693086080253, 7158874.776614287868142 ], [ 673290.153893453767523, 7158781.651253222487867 ], [ 673296.688997526653111, 7158744.074351500719786 ], [ 673290.153878025594167, 7158714.666344123892486 ], [ 673283.618757019517943, 7158678.72322366759181 ], [ 673286.886306608095765, 7158649.315214050933719 ], [ 673295.055190367624164, 7158618.273425040766597 ], [ 673304.857855693553574, 7158601.935640092939138 ], [ 673330.998301705461927, 7158580.696516592055559 ], [ 673347.336081262445077, 7158570.8938432270661 ], [ 673378.377867465140298, 7158574.161392657086253 ], [ 673409.419657809077762, 7158595.400503057986498 ], [ 673432.292556870030239, 7158615.005837062373757 ], [ 673486.207235357607715, 7158608.470711622387171 ], [ 673502.545013782451861, 7158593.76670344453305 ], [ 673522.150344801601022, 7158562.724911812692881 ], [ 673551.558338500792161, 7158503.908887341618538 ], [ 673567.896110137808137, 7158459.796870300546288 ], [ 673618.543222823063843, 7158412.417288850992918 ], [ 673638.14855685015209, 7158394.445723384618759 ], [ 673656.120112316333689, 7158374.84038002230227 ], [ 673661.021440448239446, 7158347.066148310899734 ], [ 673657.753873528097756, 7158301.320357507094741 ], [ 673641.416080405586399, 7158252.307013165205717 ], [ 673634.880957877729088, 7158209.828779654577374 ], [ 673634.880946942837909, 7158162.449209839105606 ], [ 673634.880940155824646, 7158133.041200990788639 ], [ 673616.909371496061794, 7158095.464304919354618 ], [ 673602.205358446342871, 7158054.619851563125849 ], [ 673580.966227777302265, 7157992.536282208748162 ], [ 673562.994657993782312, 7157950.058051336556673 ], [ 673543.389311539358459, 7157914.114933915436268 ], [ 673536.854194673942402, 7157896.143374458886683 ], [ 673536.854190151207149, 7157876.538035230711102 ], [ 673540.121740104630589, 7157848.763803914189339 ], [ 673558.093292922829278, 7157817.722012685611844 ], [ 673602.20528983103577, 7157757.272206630557775 ], [ 673633.247068081400357, 7157726.230412405915558 ], [ 673644.68351119, 7157708.258848827332258 ], [ 673646.317283713840879, 7157683.75217442959547 ], [ 673639.782162699033506, 7157647.809054024517536 ], [ 673618.543038447154686, 7157613.499715264886618 ], [ 673554.82567399344407, 7157546.514820886775851 ], [ 673500.910988048883155, 7157520.374380961060524 ], [ 673463.334082767716609, 7157489.332602484151721 ], [ 673432.292293219594285, 7157471.361048653721809 ], [ 673371.842496449593455, 7157453.389501556754112 ], [ 673352.237155665992759, 7157441.953058174811304 ], [ 673329.364254382555373, 7157412.545054592192173 ], [ 673321.195357464603148, 7157386.404604179784656 ], [ 673317.927794332965277, 7157356.99659611005336 ], [ 673301.590005014790222, 7157324.321034501306713 ], [ 673286.885990868438967, 7157278.575246376916766 ], [ 673270.548200802179053, 7157242.632128234952688 ], [ 673267.280638423981145, 7157216.491676704958081 ], [ 673259.111734360689297, 7157159.309439219534397 ], [ 673237.872605625307187, 7157105.394761268049479 ], [ 673213.365915269358084, 7157028.607188327237964 ], [ 673179.056558106676675, 7156961.622287238016725 ], [ 673157.817428629146889, 7156904.440052764490247 ], [ 673149.648531722370535, 7156878.299602368846536 ], [ 673149.648525705561042, 7156852.15915010496974 ], [ 673165.986300337710418, 7156821.117359301075339 ], [ 673197.028079696465284, 7156794.97689993493259 ], [ 673221.534747094265185, 7156772.103998593986034 ], [ 673229.703634595731273, 7156757.399992327205837 ], [ 673229.703629704890773, 7156736.160874865949154 ], [ 673203.563169083208777, 7156693.682645929977298 ], [ 673156.183579372940585, 7156595.655960807576776 ], [ 673087.56487788434606, 7156517.234619744122028 ], [ 673045.086631750687957, 7156458.418611895292997 ], [ 672978.101706583518535, 7156371.828379133716226 ], [ 672945.426129902713001, 7156314.646147314459085 ], [ 672906.215447654714808, 7156288.505704030394554 ], [ 672840.864320967230015, 7156290.13949722610414 ], [ 672790.217201246879995, 7156306.477291447110474 ], [ 672739.570081523852423, 7156322.815085664391518 ], [ 672698.725630108849145, 7156335.885321110486984 ], [ 672657.88117569219321, 7156335.885330431163311 ], [ 672612.135386746027507, 7156335.88534086663276 ], [ 672566.389597799628973, 7156335.885351302102208 ], [ 672538.615369171486236, 7156337.519135899841785 ], [ 672511.658033377840184, 7156355.490702966228127 ], [ 672477.348692041588947, 7156357.124489054083824 ] ] ] ] } }
]
}
