{
"type": "FeatureCollection",
"name": "rio_turvo",
"crs": { "type": "name", "properties": { "name": "urn:ogc:def:crs:EPSG::31982" } },
"features": [
{ "type": "Feature", "properties": { "AREA": 37807075.796960004, "PERIMETER": 35838.96427, "BACIAS1_": 26, "BACIAS1_ID": 0, "NOME_BACIA": "RIO TURVO", "SUB_AREA": 37.81, "SUBCODIGO": 25, "BACCODIGO": 2, "SUBNOME": "RIO TURVO", "SUBBAC_DAT": "2002-01-03", "SUBBAC_POP": 356, "SUBBAC_P_1": 320, "SUBBAC_DEN": 8.45, "SUBBAC_D_1": 9.41 }, "geometry": { "type": "MultiPolygon", "coordinates": [ [ [ [ 640020.45002531085629, 7158700.34022612683475 ], [ 640046.069280882831663, 7158704.183109821751714 ], [ 640085.779127582442015, 7158713.149842157959938 ], [ 640125.488978577195667, 7158745.173905113711953 ], [ 640158.794014666927978, 7158770.793155191466212 ], [ 640194.660973619087599, 7158782.321813859045506 ], [ 640222.842158501502126, 7158806.660102073103189 ], [ 640234.370832262327895, 7158855.336686810478568 ], [ 640242.056617316324264, 7158901.451346635818481 ], [ 640248.461432941956446, 7158911.699047951027751 ], [ 640276.642614488024265, 7158918.103856788948178 ], [ 640304.823795079719275, 7158919.384814377874136 ], [ 640344.533637730637565, 7158906.575178889557719 ], [ 640376.557706312043592, 7158906.575172949582338 ], [ 640389.367335656890646, 7158916.822873073630035 ], [ 640412.424671011976898, 7158948.846939111128449 ], [ 640430.358154199668206, 7158974.466192038729787 ], [ 640443.16778426466044, 7158988.556780601851642 ], [ 640448.291639302507974, 7159010.333147466182709 ], [ 640448.291643367847428, 7159032.109515283256769 ], [ 640427.796242580050603, 7159048.762035651132464 ], [ 640393.210251614451408, 7159065.414558636955917 ], [ 640368.871961399097927, 7159075.662265655584633 ], [ 640349.657521201646887, 7159080.786120470613241 ], [ 640336.847894482663833, 7159084.629011285491288 ], [ 640317.633454764029011, 7159092.314791724085808 ], [ 640317.633455958683044, 7159098.719605788588524 ], [ 640329.162122321664356, 7159107.686343342065811 ], [ 640347.095603361609392, 7159121.776930958032608 ], [ 640365.029088223702274, 7159156.3629235830158 ], [ 640367.591019447310828, 7159187.106030620634556 ], [ 640370.152952103293501, 7159225.534914538264275 ], [ 640372.714889302267693, 7159288.302091909572482 ], [ 640375.276821241364814, 7159322.888087391853333 ], [ 640382.962605593027547, 7159365.15985880792141 ], [ 640397.693681690841913, 7159389.498149529099464 ], [ 640416.908126915455796, 7159411.27451379224658 ], [ 640437.403535124845803, 7159434.331840632483363 ], [ 640446.370278399204835, 7159456.108206796459854 ], [ 640446.370285095646977, 7159491.975165578536689 ], [ 640434.841626851819456, 7159526.561163684353232 ], [ 640405.379493533167988, 7159579.080644512549043 ], [ 640387.446019652532414, 7159603.418941301293671 ], [ 640372.074472455773503, 7159634.162051684223115 ], [ 640357.983887523296289, 7159662.343236202374101 ], [ 640349.017157631693408, 7159712.300787609070539 ], [ 640349.01716790557839, 7159767.382188610732555 ], [ 640352.860068325535394, 7159832.711291418410838 ], [ 640366.950667360215448, 7159880.10691293142736 ], [ 640373.355486103217117, 7159907.007130844518542 ], [ 640404.739082198124379, 7159954.402749152854085 ], [ 640420.110639202292077, 7159976.179114146158099 ], [ 640436.763165168929845, 7160031.260512078180909 ], [ 640449.572802424663678, 7160083.779985098168254 ], [ 640457.258588699158281, 7160136.29945907369256 ], [ 640453.415708354208618, 7160178.571232672780752 ], [ 640450.853786688880064, 7160199.066638184711337 ], [ 640461.101494870847091, 7160232.371669467538595 ], [ 640479.034979763673618, 7160266.957662142813206 ], [ 640499.530392304412089, 7160313.072319677099586 ], [ 640499.530402349075302, 7160366.872757909819484 ], [ 640509.778111731633544, 7160406.582603277638555 ], [ 640509.77811842772644, 7160442.449562101624906 ], [ 640524.50919455033727, 7160466.787852857261896 ], [ 640527.071122434921563, 7160479.59748053457588 ], [ 640523.22823563311249, 7160487.283258138224483 ], [ 640510.418610086897388, 7160497.530963039025664 ], [ 640500.170910033280961, 7160507.778667465783656 ], [ 640493.766100128996186, 7160528.274073699489236 ], [ 640496.32802849134896, 7160543.645627008751035 ], [ 640509.137658821768127, 7160559.017178417183459 ], [ 640525.790177393006161, 7160574.3887291084975 ], [ 640546.285586834186688, 7160603.850870059803128 ], [ 640556.533293586922809, 7160629.470124468207359 ], [ 640561.657149358186871, 7160655.089379827491939 ], [ 640561.657154862070456, 7160684.551524585112929 ], [ 640557.814272605115548, 7160716.575595691800117 ], [ 640547.56657494045794, 7160739.632928278297186 ], [ 640530.273582888301462, 7160766.533150619827211 ], [ 640521.306846294319257, 7160780.623743260279298 ], [ 640522.587812869111076, 7160801.119148075580597 ], [ 640532.835518189473078, 7160819.052625595591962 ], [ 640554.61188966606278, 7160844.67187786847353 ], [ 640584.074038102058694, 7160872.853054346516728 ], [ 640598.164632621919736, 7160895.910382417961955 ], [ 640607.131381422746927, 7160947.148893396370113 ], [ 640604.569467897061259, 7161011.197034679353237 ], [ 640587.9169603260234, 7161054.749773524701595 ], [ 640558.454824805026874, 7161095.740589119493961 ], [ 640545.645200683386065, 7161113.67407092731446 ], [ 640536.678466238779947, 7161139.293328920379281 ], [ 640540.521361419348978, 7161176.44124988373369 ], [ 640541.161843270994723, 7161179.003175399266183 ], [ 640546.285699043422937, 7161204.622430775314569 ], [ 640548.847628605901264, 7161226.398798182606697 ], [ 640548.847631477983668, 7161241.770351983606815 ], [ 640542.442820372525603, 7161255.860944153741002 ], [ 640519.385494989110157, 7161277.637316318228841 ], [ 640500.171057606581599, 7161298.132724951952696 ], [ 640495.047209965530783, 7161316.066205335780978 ], [ 640495.047215227968991, 7161344.247387307696044 ], [ 640506.575883302488364, 7161362.180864602327347 ], [ 640525.790329058887437, 7161386.519154554232955 ], [ 640548.847663537599146, 7161413.419369427487254 ], [ 640564.219225360895507, 7161460.81499080080539 ], [ 640570.624044601689093, 7161490.277134401723742 ], [ 640574.466936434851959, 7161509.491575942374766 ], [ 640575.747902532457374, 7161527.425055144354701 ], [ 640579.590793647104874, 7161542.796608237549663 ], [ 640587.27657156996429, 7161550.48238371219486 ], [ 640601.367164187831804, 7161563.292009266093373 ], [ 640641.077012002468109, 7161577.382592877373099 ], [ 640667.336751206312329, 7161592.754141801968217 ], [ 640687.832156129181385, 7161597.877989263273776 ], [ 640704.484671849873848, 7161597.877986169420183 ], [ 640716.013336580479518, 7161597.877984024584293 ], [ 640722.418151038931683, 7161601.720871284604073 ], [ 640727.542004185961559, 7161613.249535689130425 ], [ 640727.542008977150545, 7161638.868792034685612 ], [ 640722.418163733906113, 7161669.611900601536036 ], [ 640721.137203861027956, 7161684.983454648405313 ], [ 640722.418172118836083, 7161714.445599209517241 ], [ 640719.856252371449955, 7161745.188707308843732 ], [ 640723.6991446869215, 7161766.965074488893151 ], [ 640744.194551533204503, 7161782.33662448823452 ], [ 640773.656696657417342, 7161792.584321549162269 ], [ 640809.523656481993385, 7161807.955868687480688 ], [ 640832.580989784328267, 7161828.451269480399787 ], [ 640844.109659793437459, 7161856.632449324242771 ], [ 640855.638335077092052, 7161912.994811158627272 ], [ 640864.605084147071466, 7161965.514285020530224 ], [ 640877.414716907544062, 7161993.695464629679918 ], [ 640877.414721222012304, 7162016.75279535446316 ], [ 640883.819540721829981, 7162047.495901791378856 ], [ 640893.426768529927358, 7162085.924784544855356 ], [ 640902.393512808717787, 7162112.825002055615187 ], [ 640906.236407529679127, 7162147.410997429862618 ], [ 640917.765077307121828, 7162174.311214465647936 ], [ 640926.731822305475362, 7162205.054320434108377 ], [ 640928.012788892490789, 7162225.549725287593901 ], [ 640919.046052528661676, 7162240.921280777081847 ], [ 640881.898137366632, 7162265.259581239894032 ], [ 640840.907330119516701, 7162269.102477324195206 ], [ 640788.387858609785326, 7162275.50730118714273 ], [ 640747.397050881292671, 7162276.788271628320217 ], [ 640710.24913163902238, 7162279.350204171612859 ], [ 640693.596617580158636, 7162288.316946996375918 ], [ 640679.506030214135535, 7162303.688503436744213 ], [ 640683.348921814234927, 7162321.621982179582119 ], [ 640696.158552658511326, 7162339.555459257215261 ], [ 640715.372996049234644, 7162351.08412105217576 ], [ 640737.14936470030807, 7162361.331819551996887 ], [ 640740.992260134429671, 7162399.760703396052122 ], [ 640742.273228155099787, 7162427.941885167732835 ], [ 640743.554203839041293, 7162497.113877138122916 ], [ 640753.801913741393946, 7162539.385648256167769 ], [ 640764.049621247919276, 7162568.847791183739901 ], [ 640764.049623883562163, 7162582.938382188789546 ], [ 640773.65685169340577, 7162621.367264974862337 ], [ 640773.656857444555499, 7162652.110372629016638 ], [ 640768.533014353131875, 7162694.382146611809731 ], [ 640768.533020822098479, 7162728.968142729252577 ], [ 640768.533026333432645, 7162758.430287569761276 ], [ 640771.094956624903716, 7162784.049543478526175 ], [ 640768.533037594519556, 7162818.635540077462792 ], [ 640754.442451419075951, 7162840.411910627037287 ], [ 640732.666091855498962, 7162878.840799257159233 ], [ 640723.699356677592732, 7162900.617168853059411 ], [ 640726.261287207482383, 7162927.517387587577105 ], [ 640736.508994238916785, 7162954.417604891583323 ], [ 640748.037666655262001, 7162995.408412976190448 ], [ 640750.599601500900462, 7163045.365962466225028 ], [ 640744.194795415038243, 7163086.356773889623582 ], [ 640742.913837934960611, 7163114.537956163287163 ], [ 640749.959143841755576, 7163172.181281747296453 ], [ 640775.57840628165286, 7163211.891124403104186 ], [ 640811.445368808810599, 7163241.353262592107058 ], [ 640831.940776654519141, 7163261.848663901910186 ], [ 640840.907523579662666, 7163302.83947247825563 ], [ 640837.064638683921658, 7163320.772952674888074 ], [ 640834.502717497176491, 7163343.830283917486668 ], [ 640824.255017887335271, 7163356.639914024621248 ], [ 640825.535986391012557, 7163387.383021473884583 ], [ 640831.940803502104245, 7163405.316499765962362 ], [ 640843.469472574652173, 7163428.373828387819231 ], [ 640869.088734305696562, 7163464.240782591514289 ], [ 640887.022216417943127, 7163483.455221561715007 ], [ 640899.831846805522218, 7163498.826773023232818 ], [ 640904.95570332580246, 7163528.288916940800846 ], [ 640900.472340172273107, 7163562.874913931824267 ], [ 640894.06752833398059, 7163573.122617687098682 ], [ 640894.0675326512428, 7163596.179948460310698 ], [ 640901.753312515560538, 7163614.113426518626511 ], [ 640924.810646595899016, 7163638.451715821400285 ], [ 640954.27279275492765, 7163653.823264185339212 ], [ 640991.420716862892732, 7163676.880588040687144 ], [ 641018.320940161822364, 7163706.342727908864617 ], [ 641026.006723870639689, 7163744.771611104719341 ], [ 641026.006727711297572, 7163765.267016239464283 ], [ 641033.69250902114436, 7163790.886271227151155 ], [ 641050.345029112300836, 7163813.943598903715611 ], [ 641082.369101985124871, 7163835.719960892572999 ], [ 641099.021622559055686, 7163861.33921421226114 ], [ 641105.426441601710394, 7163889.520395083352923 ], [ 641108.628851842833683, 7163907.453873983584344 ], [ 641093.257300983183086, 7163918.982542240992188 ], [ 641075.323824619175866, 7163930.511210972443223 ], [ 641050.985535455285572, 7163947.163732183165848 ], [ 641040.737836803076789, 7163965.097213592380285 ], [ 641042.018804355175234, 7163990.716469781473279 ], [ 641057.390361218596809, 7164011.211872058920562 ], [ 641068.91902622685302, 7164012.492832731455564 ], [ 641113.752720382297412, 7164000.964158983901143 ], [ 641158.586414537508972, 7163989.435485231690109 ], [ 641191.891442963271402, 7163972.782962342724204 ], [ 641214.948772496194579, 7163972.782958042807877 ], [ 641230.320327442372218, 7163983.03065774589777 ], [ 641241.848995333537459, 7163999.683172272518277 ], [ 641246.972849948215298, 7164018.897613636218011 ], [ 641232.882262560771778, 7164034.269170122221112 ], [ 641216.229749428690411, 7164048.359764264896512 ], [ 641207.263012327603064, 7164059.888431330211461 ], [ 641209.824941197410226, 7164077.821910354308784 ], [ 641221.353612695471384, 7164113.688867205753922 ], [ 641238.006136165000498, 7164154.67967439070344 ], [ 641258.501545728649944, 7164184.141815464943647 ], [ 641277.715994466794655, 7164223.85165935382247 ], [ 641289.244665970560163, 7164259.718616209924221 ], [ 641300.773337474442087, 7164295.585573069751263 ], [ 641316.144894351484254, 7164316.080975352786481 ], [ 641323.830673753633164, 7164331.45252778287977 ], [ 641331.516454356722534, 7164353.22889431938529 ], [ 641327.673569466918707, 7164371.162374543957412 ], [ 641316.144910947768949, 7164404.467410070821643 ], [ 641309.740100312046707, 7164421.119927953928709 ], [ 641308.459141407394782, 7164441.615333344787359 ], [ 641303.335296889301389, 7164476.201330501586199 ], [ 641287.963751311064698, 7164515.911180857568979 ], [ 641270.030281426850706, 7164562.025845808908343 ], [ 641266.187397015979514, 7164582.521251682192087 ], [ 641258.501624103053473, 7164601.735695452429354 ], [ 641245.691999698989093, 7164618.388214534148574 ], [ 641226.477561288513243, 7164633.759771988727152 ], [ 641218.79178597277496, 7164640.164587533101439 ], [ 641211.106011137831956, 7164649.131328726187348 ], [ 641212.386976053356193, 7164660.659993887878954 ], [ 641227.758531252737157, 7164672.188656425103545 ], [ 641257.220675053307787, 7164674.750576573424041 ], [ 641302.05437285406515, 7164682.436345140449703 ], [ 641330.235553422477096, 7164682.436339881271124 ], [ 641369.945396842435002, 7164672.188629885204136 ], [ 641401.969463503919542, 7164660.659958501346409 ], [ 641444.241231464780867, 7164645.288396736606956 ], [ 641473.70337117172312, 7164626.07394889369607 ], [ 641501.884550534188747, 7164619.66912951413542 ], [ 641532.627654437790625, 7164608.140458365902305 ], [ 641540.313427823828533, 7164591.487940237857401 ], [ 641546.718240866088308, 7164587.645050572231412 ], [ 641562.089793659863062, 7164586.364084877073765 ], [ 641582.585199393332005, 7164595.330820797942579 ], [ 641600.518681308371015, 7164613.26429696008563 ], [ 641614.609275447321124, 7164633.759699483402073 ], [ 641614.609280990320258, 7164663.221844399347901 ], [ 641614.609288221690804, 7164701.650729076936841 ], [ 641615.89025796414353, 7164738.798650693148375 ], [ 641629.980855720001273, 7164778.5084955599159 ], [ 641660.723967101424932, 7164806.689671908505261 ], [ 641679.938413223833777, 7164832.308924770914018 ], [ 641697.871898764977232, 7164869.45684327557683 ], [ 641710.681532087503001, 7164900.199948627501726 ], [ 641731.176942654768936, 7164934.785941010341048 ], [ 641761.920052839908749, 7164956.562303243204951 ], [ 641783.69642085605301, 7164962.967113283462822 ], [ 641800.348938101436943, 7164970.652887102216482 ], [ 641822.125308049842715, 7164987.305399723351002 ], [ 641850.306493699317798, 7165014.205613728612661 ], [ 641875.925751669681631, 7165029.577162804082036 ], [ 641915.635597515734844, 7165032.139081008732319 ], [ 641960.469292445806786, 7165024.453295665793121 ], [ 641982.245657324092463, 7165014.205588994547725 ], [ 642020.674536307924427, 7164994.991139441728592 ], [ 642066.148713819799013, 7164993.710168084129691 ], [ 642117.387219127267599, 7164968.0909020062536 ], [ 642148.130321583594196, 7164948.876453889533877 ], [ 642177.592462495551445, 7164936.066820128820837 ], [ 642216.151442922651768, 7164936.286978369578719 ], [ 642240.169494551373646, 7164936.286973857320845 ], [ 642273.794767436338589, 7164939.489374596625566 ], [ 642305.818836577469483, 7164941.090572106651962 ], [ 642345.848922624834813, 7164941.090564580634236 ], [ 642365.063363321940415, 7164937.888153912499547 ], [ 642398.688631058204919, 7164913.87009465508163 ], [ 642406.694644328672439, 7164893.054447276517749 ], [ 642409.897047880338505, 7164875.441207859665155 ], [ 642424.307868857984431, 7164822.601488704793155 ], [ 642440.319900244590826, 7164806.589450407773256 ], [ 642449.927116651204415, 7164784.172599202021956 ], [ 642456.331926780869253, 7164764.95815565623343 ], [ 642467.540346021996811, 7164739.338897092267871 ], [ 642477.147566065425053, 7164736.136488230898976 ], [ 642489.957196022383869, 7164748.946114044636488 ], [ 642499.564423339674249, 7164784.172589858993888 ], [ 642488.356009555398487, 7164838.613511939533055 ], [ 642485.153612068039365, 7164888.250821927562356 ], [ 642475.546395964454859, 7164912.268876667134464 ], [ 642462.736777824466117, 7164961.90618846938014 ], [ 642433.915130413370207, 7165038.763963278383017 ], [ 642416.301898610778153, 7165070.788037169724703 ], [ 642405.09348269412294, 7165114.020534565672278 ], [ 642395.486270218039863, 7165157.25303165987134 ], [ 642395.486278700642288, 7165202.086730482056737 ], [ 642387.480270877480507, 7165251.724041396752 ], [ 642363.46222590317484, 7165286.950523560866714 ], [ 642349.05139915831387, 7165309.367375684902072 ], [ 642334.640575138269924, 7165346.195059573277831 ], [ 642334.640580285573378, 7165373.415519578382373 ], [ 642347.450215398799628, 7165413.445605413988233 ], [ 642353.855035226326436, 7165445.469674807973206 ], [ 642352.25383905088529, 7165483.898559824563563 ], [ 642344.247832131804898, 7165538.33948134817183 ], [ 642323.432199176982976, 7165600.786422937177122 ], [ 642285.803925826679915, 7165640.816518263891339 ], [ 642261.785879018483683, 7165666.435779263265431 ], [ 642228.160606705117971, 7165666.435785581357777 ], [ 642165.713669083546847, 7165648.822558477520943 ], [ 642108.070340888341889, 7165626.405719876289368 ], [ 642071.242657157941721, 7165602.387673832476139 ], [ 642042.420991250080988, 7165581.572033349424601 ], [ 642005.593308732029982, 7165563.958801425993443 ], [ 641975.17044119653292, 7165552.750382421538234 ], [ 641935.140353909344412, 7165546.345575805753469 ], [ 641899.913878158899024, 7165546.345582408830523 ], [ 641879.098237320315093, 7165567.16123220231384 ], [ 641858.282598292571492, 7165597.584103175438941 ], [ 641839.068165119271725, 7165640.816602090373635 ], [ 641839.068171455408446, 7165674.441876227036119 ], [ 641829.46096467319876, 7165748.097240425646305 ], [ 641829.460971611086279, 7165784.924921628087759 ], [ 641805.442932022502646, 7165848.973067352548242 ], [ 641787.8297046974767, 7165905.015194227918983 ], [ 641747.799624930485152, 7165938.640475871041417 ], [ 641699.763525528251193, 7165959.456130765378475 ], [ 641659.733444549608976, 7165986.676598282530904 ], [ 641616.500959390192293, 7166028.30789817776531 ], [ 641563.661255968851037, 7166082.748828116804361 ], [ 641531.637197922100313, 7166140.392161227762699 ], [ 641515.625175517401658, 7166204.440305477008224 ], [ 641496.41074381431099, 7166255.678822078742087 ], [ 641457.181279880343936, 7166364.560669565573335 ], [ 641436.365640511503443, 7166393.382337025366724 ], [ 641428.35963140882086, 7166436.614833883009851 ], [ 641429.960840870626271, 7166468.63890422321856 ], [ 641436.365660668583587, 7166500.662973668426275 ], [ 641460.383719869889319, 7166540.693057486787438 ], [ 641498.812608877546154, 7166574.318324480205774 ], [ 641546.848717657616362, 7166603.139979084953666 ], [ 641606.09325447678566, 7166652.777277510613203 ], [ 641630.111317306174897, 7166712.021803718991578 ], [ 641642.920952102751471, 7166750.450686104595661 ], [ 641650.215828321874142, 7166768.166805565357208 ], [ 641654.129381345119327, 7166777.671144063584507 ], [ 641671.742624372476712, 7166804.891600824892521 ], [ 641689.355864988872781, 7166819.302429324015975 ], [ 641714.975120123941451, 7166819.302424529567361 ], [ 641755.005202351603657, 7166798.486771108582616 ], [ 641812.648520671064034, 7166768.063893193379045 ], [ 641873.494245272711851, 7166734.438607608899474 ], [ 641908.720718060969375, 7166718.426565681584179 ], [ 641964.762831412255764, 7166679.997670395299792 ], [ 642006.394114956608973, 7166647.97359194047749 ], [ 642040.819989338284358, 7166649.574789015576243 ], [ 642088.856098448159173, 7166679.997647119686007 ], [ 642119.278969354578294, 7166708.819304993376136 ], [ 642164.11266855429858, 7166723.230128372088075 ], [ 642215.351180632016622, 7166732.837339945137501 ], [ 642297.01255606173072, 7166731.236121069639921 ], [ 642378.673926947521977, 7166705.616849197074771 ], [ 642453.93048192479182, 7166668.789153793826699 ], [ 642540.395459193969145, 7166622.354235079139471 ], [ 642646.074877796461806, 7166575.919312741607428 ], [ 642783.778361344360746, 7166508.668738432228565 ], [ 642875.046948302304372, 7166459.031411718577147 ], [ 642931.889669083757326, 7166451.025383329950273 ], [ 642965.514941432746127, 7166451.025376981124282 ], [ 643000.741417529527098, 7166452.626573860645294 ], [ 643037.569097680039704, 7166457.430177500471473 ], [ 643079.200387253775261, 7166457.430169634521008 ], [ 643124.034082499332726, 7166451.025347033515573 ], [ 643194.487029516720213, 7166427.007280733436346 ], [ 643221.707483512582257, 7166402.989222604781389 ], [ 643309.773658967926167, 7166329.333843475207686 ], [ 643346.601330575766042, 7166289.303748209029436 ], [ 643353.006140085635707, 7166266.886897556483746 ], [ 643353.006135816802271, 7166244.470048113726079 ], [ 643370.619367914274335, 7166214.04717767983675 ], [ 643397.839820372406393, 7166182.023101892322302 ], [ 643428.262678802479059, 7166145.195414908230305 ], [ 643447.477113727945834, 7166111.570137107744813 ], [ 643460.28673456935212, 7166076.343656995333731 ], [ 643466.691543768742122, 7166052.325602813623846 ], [ 643465.090336662717164, 7166033.111160743050277 ], [ 643441.072279811720364, 7166005.890705265104771 ], [ 643423.459038266213611, 7165986.67626622878015 ], [ 643407.447000773041509, 7165970.664233951829374 ], [ 643404.244591138791293, 7165956.253402778878808 ], [ 643402.6433858651435, 7165946.646181898191571 ], [ 643410.649401254369877, 7165937.038959194906056 ], [ 643429.863841668237001, 7165932.235344961285591 ], [ 643455.483099213452078, 7165945.044968357309699 ], [ 643477.899951092433184, 7165964.259406480006874 ], [ 643510.724623834830709, 7165975.467824975028634 ], [ 643529.939065772807226, 7165978.670228395611048 ], [ 643553.957117435988039, 7165978.670223843306303 ], [ 643597.189610122004524, 7165977.069012111984193 ], [ 643634.017285363865085, 7165956.253359224647284 ], [ 643667.64255066041369, 7165919.425671633332968 ], [ 643710.875039370032027, 7165897.00881399679929 ], [ 643758.911139630246907, 7165880.996769569814205 ], [ 643797.340022284304723, 7165880.99676227197051 ], [ 643854.983349325368181, 7165897.00878662802279 ], [ 643901.418255934724584, 7165932.235255485400558 ], [ 643928.638717545662075, 7165948.24728561937809 ], [ 643955.859178237384185, 7165959.455705162137747 ], [ 643970.270010152831674, 7165964.25931301433593 ], [ 643979.877231124090031, 7165965.860514717176557 ], [ 644011.901298780925572, 7165959.455694504082203 ], [ 644031.115736433188431, 7165940.241248475387692 ], [ 644071.145817324984819, 7165913.020780835300684 ], [ 644095.163868678268045, 7165911.419572732411325 ], [ 644117.580717507051304, 7165914.621975528076291 ], [ 644136.795157914981246, 7165909.818361278623343 ], [ 644156.009594644187018, 7165885.800304656848311 ], [ 644178.42643764463719, 7165858.579840365797281 ], [ 644188.033650639699772, 7165818.549750266596675 ], [ 644188.033642971771769, 7165778.519661999307573 ], [ 644191.236043110955507, 7165743.293183717876673 ], [ 644192.837240113527514, 7165709.66790927387774 ], [ 644216.855283483862877, 7165666.435409376397729 ], [ 644229.664908577571623, 7165653.625778693705797 ], [ 644256.885362818371505, 7165631.20892408490181 ], [ 644271.296191047411412, 7165616.798089566640556 ], [ 644282.504612388438545, 7165602.387255656532943 ], [ 644290.510627456824295, 7165591.178829420357943 ], [ 644288.909417875111103, 7165559.154759122058749 ], [ 644276.099785111146048, 7165531.934301551431417 ], [ 644274.498573075165041, 7165487.100603015162051 ], [ 644272.897359197260812, 7165432.659683303907514 ], [ 644274.498553125537001, 7165383.022373573854566 ], [ 644284.105764881591313, 7165336.587469383142889 ], [ 644308.123811918194406, 7165312.569411860778928 ], [ 644324.135845730779693, 7165309.367001749575138 ], [ 644343.350288272486068, 7165315.771812204271555 ], [ 644364.165933029144071, 7165315.771808234974742 ], [ 644402.594812581432052, 7165299.759765610098839 ], [ 644431.416474549798295, 7165299.759760111570358 ], [ 644460.238134981947951, 7165291.75373696628958 ], [ 644501.869420187547803, 7165269.336879609152675 ], [ 644549.905514856567606, 7165224.503171613439918 ], [ 644570.721157763968222, 7165214.895946461707354 ], [ 644639.572899946011603, 7165184.473066253587604 ], [ 644685.207192514557391, 7165155.651394005864859 ], [ 644707.624030551291071, 7165102.811673255637288 ], [ 644734.844484143424779, 7165077.192411586642265 ], [ 644765.267346774577163, 7165062.781574008986354 ], [ 644766.868545288220048, 7165037.162317239679396 ], [ 644766.86854005290661, 7165009.941857245750725 ], [ 644778.076959219411947, 7164984.322598638944328 ], [ 644789.285377770080231, 7164955.500932976603508 ], [ 644798.892593185184523, 7164928.280471147969365 ], [ 644810.101011733524501, 7164899.458805486559868 ], [ 644813.303415844216943, 7164885.047973116859794 ], [ 644813.303413070971146, 7164870.637141358107328 ], [ 644802.094986514071934, 7164857.827515272423625 ], [ 644776.475728366989642, 7164841.815484886988997 ], [ 644755.660081469221041, 7164830.607064167968929 ], [ 644714.028787981835194, 7164809.791426255367696 ], [ 644698.016750486800447, 7164793.779394030570984 ], [ 644686.808322086930275, 7164771.3625467736274 ], [ 644682.00470375828445, 7164729.731255953200161 ], [ 644682.004697603872046, 7164697.707185387611389 ], [ 644701.219131820136681, 7164660.87950056605041 ], [ 644728.43958170118276, 7164616.045796575024724 ], [ 644746.052810626337305, 7164569.610890892334282 ], [ 644781.279279553680681, 7164534.384406542405486 ], [ 644817.306352049228735, 7164508.76514320448041 ], [ 644886.158097855048254, 7164497.556705334223807 ], [ 644913.378554810537025, 7164489.55068248603493 ], [ 644963.01585778046865, 7164470.336230648681521 ], [ 644995.039923205855303, 7164452.722985710948706 ], [ 645014.254361103055999, 7164435.109743226319551 ], [ 645028.665186516707763, 7164406.288076967000961 ], [ 645028.665177878458053, 7164361.454378192313015 ], [ 645025.46276667714119, 7164339.037529418244958 ], [ 645019.057948595145717, 7164316.620681260712445 ], [ 645020.659148024744354, 7164295.805035099387169 ], [ 645030.266367125557736, 7164287.799015622586012 ], [ 645055.885625569033436, 7164305.412249515764415 ], [ 645092.713311183964834, 7164339.037516534328461 ], [ 645123.136183348251507, 7164374.263988308608532 ], [ 645179.178307480993681, 7164393.478419895283878 ], [ 645248.030061923665926, 7164427.103680770844221 ], [ 645264.042100040358491, 7164446.318120030686259 ], [ 645275.250526908552274, 7164460.728949628770351 ], [ 645294.464970053406432, 7164470.336167109198868 ], [ 645323.286633535870351, 7164478.34217921551317 ], [ 645339.298667946597561, 7164478.342176143079996 ], [ 645350.507090486236848, 7164470.336156349629164 ], [ 645364.917917743790895, 7164451.121711250394583 ], [ 645369.721520334482193, 7164411.091622134670615 ], [ 645369.721513840835541, 7164377.466348054818809 ], [ 645369.721502397675067, 7164318.221817534416914 ], [ 645366.51908376486972, 7164257.376084106974304 ], [ 645364.917865479830652, 7164180.518315106630325 ], [ 645368.120264009339735, 7164137.285819259472191 ], [ 645383.331690506660379, 7164105.261745797470212 ], [ 645394.540108709945343, 7164074.838876632973552 ], [ 645413.754542257403955, 7164034.808784766122699 ], [ 645428.165369814028963, 7164017.195543205365539 ], [ 645436.171383300796151, 7163997.981099346652627 ], [ 645437.772583647631109, 7163981.969063770025969 ], [ 645426.564153380226344, 7163949.944995386525989 ], [ 645404.14730027213227, 7163924.325743267312646 ], [ 645389.736463746754453, 7163895.504082556813955 ], [ 645381.730441290652379, 7163868.283624143339694 ], [ 645373.72441728762351, 7163833.057148097082973 ], [ 645368.920797382248566, 7163783.419839702546597 ], [ 645362.515974346199073, 7163735.38373514264822 ], [ 645354.509950963896699, 7163703.359666157513857 ], [ 645340.099111971445382, 7163661.728377247229218 ], [ 645324.087070776149631, 7163626.501902746036649 ], [ 645299.268412214820273, 7163599.281447568908334 ], [ 645292.863591658184305, 7163564.054971229285002 ], [ 645286.458769864053465, 7163522.423680786974728 ], [ 645291.262371526216157, 7163477.58998114708811 ], [ 645288.059960321174003, 7163455.173132399097085 ], [ 645268.845516274217516, 7163440.762304358184338 ], [ 645236.821445335168391, 7163429.553885823115706 ], [ 645209.600985333323479, 7163421.547873416915536 ], [ 645183.98172815144062, 7163410.339453654363751 ], [ 645166.368489400018007, 7163405.535846453160048 ], [ 645145.552842534845695, 7163394.327425768598914 ], [ 645135.945618815021589, 7163378.315392352640629 ], [ 645135.945616654469632, 7163367.106967676430941 ], [ 645140.749220485566184, 7163333.481692721135914 ], [ 645159.96365155512467, 7163280.641972701996565 ], [ 645159.963644760311581, 7163245.415495147928596 ], [ 645164.767247046576813, 7163203.784202571958303 ], [ 645179.17806903203018, 7163157.349297584965825 ], [ 645179.178061620215885, 7163118.920412985607982 ], [ 645182.380464171408676, 7163096.503563023172319 ], [ 645199.993692720774561, 7163048.467453902587295 ], [ 645224.011734402738512, 7162997.228936503641307 ], [ 645234.419552422128618, 7162974.812085162848234 ], [ 645263.241209973813966, 7162952.39523028768599 ], [ 645316.080913834739476, 7162902.757910884916782 ], [ 645349.706180148059502, 7162872.335037466138601 ], [ 645370.521820814814419, 7162851.51938765309751 ], [ 645394.539867118466645, 7162824.298923127353191 ], [ 645399.343474645866081, 7162809.888090487569571 ], [ 645399.343472171924077, 7162797.078462293371558 ], [ 645392.93865347316023, 7162771.459207136183977 ], [ 645376.926610437571071, 7162726.625511536374688 ], [ 645327.289292752277106, 7162668.98219420388341 ], [ 645295.265214736806229, 7162620.946094635874033 ], [ 645280.854377002920955, 7162585.719619877636433 ], [ 645246.428498782683164, 7162563.302777152508497 ], [ 645201.594795444281772, 7162526.47510471008718 ], [ 645171.171925820759498, 7162504.058261215686798 ], [ 645139.147856159019284, 7162499.254656784236431 ], [ 645105.522583370096982, 7162496.052256184630096 ], [ 645078.302124636713415, 7162494.451057879254222 ], [ 645046.278055594302714, 7162492.849860491231084 ], [ 645022.260002191411331, 7162483.24264395236969 ], [ 645006.247965356102213, 7162470.433018831536174 ], [ 644999.843149141175672, 7162457.623391872271895 ], [ 644999.843146982602775, 7162446.414967207238078 ], [ 645006.247958877007477, 7162436.807744841091335 ], [ 645049.48045073915273, 7162432.004125986248255 ], [ 645116.730997237609699, 7162443.212537759914994 ], [ 645174.374324045726098, 7162459.224561941809952 ], [ 645227.214041472179815, 7162480.040197612717748 ], [ 645259.238112987950444, 7162494.451023178175092 ], [ 645300.869401724776253, 7162491.248608141206205 ], [ 645350.506707954336889, 7162489.647395087406039 ], [ 645406.548825764097273, 7162476.837756135500968 ], [ 645438.572887998539954, 7162443.212475989945233 ], [ 645468.995748653076589, 7162419.194417292252183 ], [ 645497.817407724214718, 7162404.783580042421818 ], [ 645517.031846795231104, 7162393.575151685625315 ], [ 645539.448691191500984, 7162374.360705096274614 ], [ 645545.853499672375619, 7162347.140243969857693 ], [ 645545.85349285940174, 7162311.913766458630562 ], [ 645555.460705735022202, 7162271.883676531724632 ], [ 645563.466717960312963, 7162246.264418624341488 ], [ 645577.877543931361288, 7162220.645159484818578 ], [ 645595.490781727363355, 7162220.645156097598374 ], [ 645622.711241692537442, 7162228.651168474927545 ], [ 645649.931704136659391, 7162249.466809038072824 ], [ 645667.54494503326714, 7162265.478840880095959 ], [ 645701.170217505190521, 7162267.08003792911768 ], [ 645717.182248458033428, 7162249.466796096414328 ], [ 645731.593071630923077, 7162209.436705244705081 ], [ 645760.414727898547426, 7162180.615036283619702 ], [ 645789.236385095748119, 7162156.596977889537811 ], [ 645813.25443136121612, 7162129.376513376832008 ], [ 645825.263449063291773, 7162087.74521947093308 ], [ 645825.263443168718368, 7162057.322352541610599 ], [ 645830.067035789135844, 7161966.053750831633806 ], [ 645830.067027099779807, 7161921.220052203163505 ], [ 645830.067017170949839, 7161869.981539493426681 ], [ 645820.459788181586191, 7161826.749046243727207 ], [ 645809.251348310033791, 7161745.087668780237436 ], [ 645798.042917439131998, 7161709.861193456687033 ], [ 645774.024862811202183, 7161693.849162864498794 ], [ 645738.798386620241217, 7161690.646762603893876 ], [ 645705.173111075651832, 7161673.033530336804688 ], [ 645671.547833360382356, 7161644.211873416788876 ], [ 645633.1189428656362, 7161602.580589247867465 ], [ 645596.291257358621806, 7161568.955322380177677 ], [ 645564.267188043799251, 7161565.752921497449279 ], [ 645541.85033840907272, 7161557.746908199042082 ], [ 645516.231080047320575, 7161540.133674388751388 ], [ 645503.421446067513898, 7161506.508402900770307 ], [ 645500.219032077468, 7161469.680722523480654 ], [ 645504.222029516939074, 7161412.037394987419248 ], [ 645509.025620933272876, 7161314.363979276269674 ], [ 645536.246063521015458, 7161232.702594473958015 ], [ 645552.258089499548078, 7161189.47009633295238 ], [ 645550.656882658251561, 7161171.856857914477587 ], [ 645531.442436187062413, 7161144.636401757597923 ], [ 645513.829188816598617, 7161094.999096005223691 ], [ 645507.424364553764462, 7161040.558177540078759 ], [ 645512.227965254918672, 7160990.92086748406291 ], [ 645531.442395308869891, 7160933.2775370599702 ], [ 645560.264046889264137, 7160880.437815354205668 ], [ 645573.073670638841577, 7160861.223370647989213 ], [ 645571.472462558420375, 7160837.205318156629801 ], [ 645561.865236383746378, 7160808.383656645193696 ], [ 645583.481470339931548, 7160744.335511691868305 ], [ 645591.487481928663328, 7160715.513846796005964 ], [ 645597.892291012685746, 7160691.495792768895626 ], [ 645612.30311664135661, 7160664.275330163538456 ], [ 645615.505520096747205, 7160646.662090832367539 ], [ 645615.505517620476894, 7160633.852462674491107 ], [ 645594.689869275200181, 7160614.638024445623159 ], [ 645564.267000956111588, 7160598.625995100475848 ], [ 645529.040519861970097, 7160569.804338525980711 ], [ 645501.820051290211268, 7160516.964627621695399 ], [ 645444.176719052367844, 7160472.13094016071409 ], [ 645426.563477272749878, 7160451.315297795459628 ], [ 645400.944216166622937, 7160419.291232336312532 ], [ 645376.926155709894374, 7160372.856334896758199 ], [ 645343.30087404511869, 7160323.219032268971205 ], [ 645317.6816132562235, 7160292.796170330606401 ], [ 645290.461153674521483, 7160286.391361481510103 ], [ 645271.246712489286438, 7160286.391365169547498 ], [ 645253.633474119706079, 7160283.188961513340473 ], [ 645229.615421402151696, 7160276.784152046777308 ], [ 645203.996163400937803, 7160260.772121774032712 ], [ 645187.984124447335489, 7160236.754072065465152 ], [ 645171.972083948203363, 7160204.730004765093327 ], [ 645147.954029072774574, 7160187.116770666092634 ], [ 645095.91491043777205, 7160150.289099718444049 ], [ 645031.866766994819045, 7160118.265041626989841 ], [ 644937.395760516519658, 7160097.449413983151317 ], [ 644879.75243081105873, 7160065.425354653969407 ], [ 644858.936780035612173, 7160033.40128827188164 ], [ 644847.728348927339539, 7159996.573609498329461 ], [ 644841.323525335872546, 7159945.335098145529628 ], [ 644804.495836247224361, 7159892.49538909830153 ], [ 644758.060928733204491, 7159850.864106517285109 ], [ 644713.22722681122832, 7159820.441248251125216 ], [ 644673.197132723173127, 7159777.208760926499963 ], [ 644657.185093795531429, 7159753.190711222589016 ], [ 644657.185088254627772, 7159724.369047904387116 ], [ 644679.601928280899301, 7159682.737752163782716 ], [ 644692.411547105293721, 7159637.904051227495074 ], [ 644694.012744685518555, 7159607.481184090487659 ], [ 644694.012740374775603, 7159585.064334848895669 ], [ 644678.000701142242178, 7159559.445081633515656 ], [ 644667.592876073904335, 7159545.034251969307661 ], [ 644645.176028046989813, 7159545.034256253391504 ], [ 644622.75918032869231, 7159546.635464054532349 ], [ 644593.937518579885364, 7159546.635469562374055 ], [ 644569.919466506806202, 7159543.433067116886377 ], [ 644550.705023804912344, 7159535.427053200080991 ], [ 644529.889374595251866, 7159511.409004418179393 ], [ 644510.674926050240174, 7159472.980123676359653 ], [ 644502.668895060080104, 7159400.925966944545507 ], [ 644486.656853070948273, 7159360.89588207937777 ], [ 644470.644811392645352, 7159322.467000734061003 ], [ 644453.031570587772876, 7159306.454968931153417 ], [ 644422.608703574398533, 7159296.847753637470305 ], [ 644387.382223815191537, 7159274.430911125615239 ], [ 644361.762963405693881, 7159245.609252713620663 ], [ 644320.131668703863397, 7159216.787597355432808 ], [ 644267.291950302198529, 7159189.56714765354991 ], [ 644240.071487698936835, 7159167.150303612463176 ], [ 644211.249817680101842, 7159123.91781416349113 ], [ 644163.213705895701423, 7159077.482921347022057 ], [ 644099.165559518150985, 7159029.446828060783446 ], [ 644055.933062020456418, 7159003.827580034732819 ], [ 644031.11440917220898, 7159005.428788275457919 ], [ 644016.703579841181636, 7159013.434808596968651 ], [ 643997.489142979611643, 7159035.851661480031908 ], [ 643987.881926386500709, 7159056.667309015057981 ], [ 643981.477116040419787, 7159074.2805489115417 ], [ 643970.268692952697165, 7159079.084161594510078 ], [ 643959.060269560199231, 7159082.28657075855881 ], [ 643946.250642124097794, 7159082.286573195829988 ], [ 643920.631385108805262, 7159071.0781534537673 ], [ 643899.815735932672396, 7159047.060104670003057 ], [ 643896.613322643795982, 7159013.434831440448761 ], [ 643891.809709292952903, 7158997.422797195613384 ], [ 643880.601280082017183, 7158970.202339554205537 ], [ 643861.386832195799798, 7158934.975865858606994 ], [ 643840.57118088263087, 7158899.749392465688288 ], [ 643800.541086279088631, 7158853.314498116262257 ], [ 643765.314606559230015, 7158830.897655591368675 ], [ 643747.701366700232029, 7158819.6892343275249 ], [ 643738.094143373891711, 7158805.278404511511326 ], [ 643730.088121946551837, 7158782.861556814983487 ], [ 643720.480898314737715, 7158766.849523484706879 ], [ 643722.082084920490161, 7158678.783329834230244 ], [ 643733.290504332864657, 7158654.765274975448847 ], [ 643744.498925884021446, 7158641.95564472489059 ], [ 643757.308551171212457, 7158630.747217684984207 ], [ 643779.725397334666923, 7158621.139992333948612 ], [ 643818.954876740346663, 7158597.121932152658701 ], [ 643849.377740655327216, 7158590.717112310230732 ], [ 643895.812640079064295, 7158590.717103481292725 ], [ 643945.449945747619495, 7158587.514687011949718 ], [ 643979.075216212077066, 7158579.508663039654493 ], [ 643991.884835671866313, 7158537.877369210124016 ], [ 643991.884831075323746, 7158513.859316485002637 ], [ 643966.265567030292004, 7158465.823215913027525 ], [ 643947.051121296943165, 7158441.805166845209897 ], [ 643921.431861240649596, 7158414.584711967967451 ], [ 643891.008989677298814, 7158380.959443943575025 ], [ 643889.407781655085273, 7158356.94139152765274 ], [ 643889.407776144100353, 7158328.119728267192841 ], [ 643913.425823579658754, 7158307.304078010842204 ], [ 643919.830633001052774, 7158284.887227589264512 ], [ 643919.830629938631319, 7158268.875192443840206 ], [ 643911.824608512339182, 7158246.458344766870141 ], [ 643897.413774907123297, 7158232.047515876591206 ], [ 643884.604146260418929, 7158225.642704255878925 ], [ 643878.199331019539386, 7158217.636687902733684 ], [ 643866.990903657162562, 7158200.023451374843717 ], [ 643863.788494046661071, 7158185.61262035369873 ], [ 643858.984877028153278, 7158150.386143956333399 ], [ 643874.996899973251857, 7158091.141610889695585 ], [ 643874.772726703900844, 7158066.098787974566221 ], [ 643871.698411420802586, 7158041.504302583634853 ], [ 643874.772717101383023, 7158015.88504577614367 ], [ 643887.069954913691618, 7157992.315327714197338 ], [ 643897.3176523395814, 7157968.745610042475164 ], [ 643903.46627016691491, 7157951.324514642357826 ], [ 643913.713967984193005, 7157929.804337469860911 ], [ 643923.961665996583179, 7157909.308930546976626 ], [ 643939.333217326086015, 7157901.110765632241964 ], [ 643954.704767087241635, 7157884.714438728988171 ], [ 643961.87815608701203, 7157872.417194381356239 ], [ 643961.878153341123834, 7157858.070410897955298 ], [ 643957.779069823562168, 7157843.723628198727965 ], [ 643933.184579696971923, 7157815.030065914615989 ], [ 643919.862563657923602, 7157796.584203973412514 ], [ 643904.491007820237428, 7157781.212653169408441 ], [ 643892.193763739662245, 7157771.989723270758986 ], [ 643876.822210648562759, 7157770.964955942705274 ], [ 643860.425890498794615, 7157786.336512789130211 ], [ 643847.103880534647033, 7157799.658528553321958 ], [ 643837.880950168822892, 7157806.831922046840191 ], [ 643822.509398448048159, 7157812.980546461418271 ], [ 643807.137846138561144, 7157816.05486012622714 ], [ 643799.9644538074499, 7157810.931010250002146 ], [ 643780.493816612986848, 7157792.485149472020566 ], [ 643747.701166322338395, 7157770.96498048119247 ], [ 643726.180992072215304, 7157769.94021432287991 ], [ 643705.685586449108087, 7157760.717285977676511 ], [ 643678.016788888024166, 7157748.420048250816762 ], [ 643661.620463646715507, 7157737.147578628733754 ], [ 643655.471837791614234, 7157712.553093832917511 ], [ 643641.125052546616644, 7157699.231083327904344 ], [ 643618.580103215761483, 7157672.587061146274209 ], [ 643576.564520610263571, 7157647.992583159357309 ], [ 643554.019572651945055, 7157628.521952717565 ], [ 643534.548936249455437, 7157614.175172933377326 ], [ 643516.103071215329692, 7157605.977014446631074 ], [ 643496.63243715907447, 7157603.927477642893791 ], [ 643476.137032326427288, 7157598.803630288690329 ], [ 643454.616858276189305, 7157598.803634367883205 ], [ 643433.0966824691277, 7157589.580706212669611 ], [ 643416.700358407339081, 7157584.456858078017831 ], [ 643401.328804538934492, 7157579.3330097515136 ], [ 643389.543946539866738, 7157575.233930988237262 ], [ 643383.395324406214058, 7157570.110080915503204 ], [ 643375.19716051989235, 7157557.812839487567544 ], [ 643373.147617009934038, 7157541.416515905410051 ], [ 643369.048534090397879, 7157530.144043952226639 ], [ 643364.949450390413404, 7157514.772491006180644 ], [ 643364.949446289334446, 7157493.252315792255104 ], [ 643358.80082161759492, 7157474.806452492251992 ], [ 643350.602658320101909, 7157465.583521813154221 ], [ 643333.181563483318314, 7157457.385363128036261 ], [ 643320.884320779936388, 7157455.335824959911406 ], [ 643295.265065378975123, 7157452.261519068852067 ], [ 643262.472415311960503, 7157431.766120314598083 ], [ 643230.704535438911989, 7157411.27072136849165 ], [ 643211.233898268896155, 7157392.824860587716103 ], [ 643187.664183059590869, 7157388.725784056819975 ], [ 643171.267860174644738, 7157389.750557405874133 ], [ 643162.04492883128114, 7157391.800099648535252 ], [ 643150.772456713602878, 7157391.800101781263947 ], [ 643139.4999840115197, 7157388.725793169811368 ], [ 643136.425672653247602, 7157384.626712758094072 ], [ 643135.400901486165822, 7157379.502861713990569 ], [ 643141.549519521184266, 7157363.106536582112312 ], [ 643142.574287958210334, 7157353.883604156784713 ], [ 643135.400894271908328, 7157341.586362538859248 ], [ 643111.318790849298239, 7157321.090962134301662 ], [ 643107.219708325341344, 7157311.868030678480864 ], [ 643107.219706376083195, 7157301.620328199118376 ], [ 643107.219705010997131, 7157294.446936463937163 ], [ 643105.170163262053393, 7157287.273545116186142 ], [ 643097.996771134552546, 7157283.174465482123196 ], [ 643091.848149785771966, 7157282.149696396663785 ], [ 643078.526137284818105, 7157282.149698914960027 ], [ 643057.005963244242594, 7157282.149702984839678 ], [ 643047.783031319268048, 7157281.124934481456876 ], [ 643037.53532666573301, 7157266.778152947314084 ], [ 643024.213311243336648, 7157251.406601748429239 ], [ 643008.84175485081505, 7157232.96074019279331 ], [ 642998.594048836966977, 7157211.440566927194595 ], [ 642995.519734753295779, 7157192.99470304697752 ], [ 642989.371109899366274, 7157173.52406950481236 ], [ 642976.049093115958385, 7157150.979126572608948 ], [ 642965.801387687330134, 7157132.533264048397541 ], [ 642939.157355681527406, 7157095.641540169715881 ], [ 642919.686717553529888, 7157072.071828152984381 ], [ 642900.216077478369698, 7157038.25441365968436 ], [ 642886.89406245178543, 7157024.932402957230806 ], [ 642869.472967241075821, 7157014.684703771956265 ], [ 642855.126182995620184, 7157006.486544501967728 ], [ 642843.853708743466996, 7156995.214073907583952 ], [ 642828.482151388423517, 7156971.64436111971736 ], [ 642815.160134222824126, 7156947.049877693876624 ], [ 642806.961969379684888, 7156929.628785035572946 ], [ 642810.548664274509065, 7156925.529703369364142 ], [ 642816.697283673100173, 7156916.306769981980324 ], [ 642816.697282117325813, 7156908.10860800370574 ], [ 642813.622969596879557, 7156897.860906110145152 ], [ 642799.276184965856373, 7156887.613206347450614 ], [ 642777.756007435498759, 7156869.167345955036581 ], [ 642768.53307415288873, 7156860.969185717403889 ], [ 642758.285369901568629, 7156848.671944682486355 ], [ 642742.913813523598947, 7156830.226083132438362 ], [ 642728.567027534125373, 7156812.804991635493934 ], [ 642709.096391752595082, 7156801.532522588968277 ], [ 642693.724838487687521, 7156799.482984994538128 ], [ 642676.303746588411741, 7156806.656380010768771 ], [ 642658.882655661320314, 7156818.953626262024045 ], [ 642634.288171446649358, 7156821.003171391785145 ], [ 642609.693685484933667, 7156813.829784298315644 ], [ 642586.123967966414057, 7156797.433464784175158 ], [ 642568.70287004520651, 7156772.838982135057449 ], [ 642557.430393469985574, 7156749.26926857419312 ], [ 642530.786363439285196, 7156722.625247171148658 ], [ 642487.746009567286819, 7156691.882147861644626 ], [ 642470.324913592776284, 7156677.53536768630147 ], [ 642466.225829527364112, 7156660.114274257794023 ], [ 642466.225826808949932, 7156645.767490801401436 ], [ 642465.201053708326072, 7156630.395937290042639 ], [ 642460.07720158516895, 7156624.247316773049533 ], [ 642455.978120626881719, 7156623.222547296434641 ], [ 642448.804729867144488, 7156626.296859387308359 ], [ 642433.433178352774121, 7156633.470254011452198 ], [ 642426.259788370225579, 7156640.643647089600563 ], [ 642418.061628197669052, 7156647.817040362395346 ], [ 642409.863466858980246, 7156648.841812151484191 ], [ 642393.467143793590367, 7156648.841815236024559 ], [ 642375.02127821254544, 7156637.569345992058516 ], [ 642346.327710717567243, 7156626.296878673136234 ], [ 642314.559834394021891, 7156624.247344156727195 ], [ 642284.841497095650993, 7156615.024417523294687 ], [ 642263.321320362505503, 7156600.677638111636043 ], [ 642244.363067749654874, 7156579.157466491684318 ], [ 642233.090593125438318, 7156565.835455399006605 ], [ 642221.818121214397252, 7156566.860227767378092 ], [ 642213.619959488278255, 7156565.835459061898291 ], [ 642207.471336596179754, 7156556.612527996301651 ], [ 642191.075010822620243, 7156542.265747619792819 ], [ 642172.629143890808336, 7156523.819886644370854 ], [ 642165.455752358655445, 7156522.795117745175958 ], [ 642157.257589859189466, 7156517.671268051490188 ], [ 642144.960345433210023, 7156506.398797646164894 ], [ 642134.712641777121462, 7156497.175867352634668 ], [ 642120.365855420008302, 7156477.705235358327627 ], [ 642104.994298484525643, 7156456.185063064098358 ], [ 642083.47411924332846, 7156428.516270443797112 ], [ 642067.077793473843485, 7156414.169490071944892 ], [ 642057.854859043494798, 7156399.82270834967494 ], [ 642044.532844816101715, 7156390.599778631702065 ], [ 642031.210831363219768, 7156385.475929899141192 ], [ 642031.210829041898251, 7156373.178686939179897 ], [ 642030.186058076680638, 7156369.079606143757701 ], [ 642037.359448447241448, 7156363.955753564834595 ], [ 642056.830081497202627, 7156360.881439168937504 ], [ 642083.474107047892176, 7156363.955744906328619 ], [ 642092.697038768790662, 7156363.955743173137307 ], [ 642095.77134876139462, 7156360.881431858055294 ], [ 642097.820887594716623, 7156352.683269499801099 ], [ 642102.944733904441819, 7156328.088782619684935 ], [ 642104.994269640184939, 7156303.494296318851411 ], [ 642106.019034217111766, 7156273.77595897950232 ], [ 642109.093339563696645, 7156246.107161748223007 ], [ 642111.142874718876556, 7156218.438364708796144 ], [ 642115.241951609728858, 7156197.942959013395011 ], [ 642116.266718121478334, 7156178.47232413943857 ], [ 642123.952492617303506, 7156168.22462023422122 ], [ 642134.200194526230916, 7156168.224618308246136 ], [ 642156.745139886741526, 7156174.373235548846424 ], [ 642172.116696237353608, 7156192.819097095169127 ], [ 642194.661644310224801, 7156213.314497787505388 ], [ 642228.479062743252143, 7156224.586964139714837 ], [ 642259.22216847143136, 7156224.586958361789584 ], [ 642260.246936336392537, 7156212.289715211838484 ], [ 642260.246934786671773, 7156204.091553241014481 ], [ 642258.197392078582197, 7156191.794310670346022 ], [ 642244.875375334522687, 7156169.249367754906416 ], [ 642198.612111193011515, 7156094.911432070657611 ], [ 642179.532010785071179, 7156092.041780098341405 ], [ 642112.211985341273248, 7156035.271777262911201 ], [ 642066.215582592994906, 7155975.443107470870018 ], [ 642037.363311131950468, 7155938.104886336252093 ], [ 642011.905424683587626, 7155905.858240915462375 ], [ 641967.778430458158255, 7155897.372288615442812 ], [ 641921.954242608742788, 7155880.400376055389643 ], [ 641886.061899276683107, 7155841.061766775324941 ], [ 641843.491877941647545, 7155777.201757363975048 ], [ 641808.911864376510493, 7155745.281755154952407 ], [ 641761.021854430320673, 7155747.941764852032065 ], [ 641710.47184640658088, 7155763.901778667233884 ], [ 641675.881840362446383, 7155771.88178732059896 ], [ 641641.301837825914845, 7155798.49180104304105 ], [ 641601.391836626920849, 7155838.391819378361106 ], [ 641548.18183152040001, 7155872.981838760897517 ], [ 641492.311826827586628, 7155912.891860082745552 ], [ 641428.451816881075501, 7155934.171877823770046 ], [ 641389.035959538538009, 7155946.590968349948525 ], [ 641338.120200091507286, 7155953.379746325314045 ], [ 641253.260603030445054, 7155975.443259679712355 ], [ 641198.95046271791216, 7155999.203959441743791 ], [ 641136.154358459985815, 7156002.598355390131474 ], [ 641053.321752899326384, 7156029.951973960734904 ], [ 640978.831741606700234, 7156056.561995099298656 ], [ 640899.011728641577065, 7156080.502016497775912 ], [ 640880.391729554277845, 7156107.112027221359313 ], [ 640875.071731878910214, 7156125.732033291831613 ], [ 640872.411735782166943, 7156149.682040318846703 ], [ 640914.971761038294062, 7156234.81205562595278 ], [ 640949.561780572519638, 7156298.662066612392664 ], [ 640981.491796536953188, 7156346.552073739469051 ], [ 641061.301822994835675, 7156394.442071944475174 ], [ 641132.481881279032677, 7156417.40642989706248 ], [ 641143.781846054363996, 7156421.052063830196857 ], [ 641186.351860373863019, 7156447.652063153684139 ], [ 641226.251879104645923, 7156500.86207024846226 ], [ 641226.251883102115244, 7156522.152076065540314 ], [ 641196.991882678354159, 7156554.07209025323391 ], [ 641133.141874669934623, 7156586.002110895700753 ], [ 641098.551875568227842, 7156631.232129713520408 ], [ 641093.231879390776157, 7156657.832137979567051 ], [ 641095.891886461642571, 7156692.42214694712311 ], [ 641103.871899689780548, 7156753.612162199802697 ], [ 641103.871907675056718, 7156796.182173849083483 ], [ 641111.851915916777216, 7156830.772181827574968 ], [ 641133.141926081501879, 7156860.032185865566134 ], [ 641133.141933569917455, 7156899.942196795716882 ], [ 641101.211937532527372, 7156958.472218777984381 ], [ 641082.591937931138091, 7156982.422228812240064 ], [ 641045.341939719161019, 7157035.632250335067511 ], [ 641018.731938354671001, 7157059.572261855006218 ], [ 640989.471937904134393, 7157091.502276057377458 ], [ 640965.521936124772765, 7157110.12228562310338 ], [ 640944.241933437646367, 7157120.762292506173253 ], [ 640885.711924546863884, 7157142.052309240214527 ], [ 640845.801921244012192, 7157171.31232469342649 ], [ 640821.861927431076765, 7157232.512345931492746 ], [ 640808.551935954601504, 7157293.702365193516016 ], [ 640795.251939994981512, 7157330.94237788580358 ], [ 640787.271942221093923, 7157352.232385212555528 ], [ 640752.681941072107293, 7157386.822401141747832 ], [ 640700.461934969411232, 7157415.722418786026537 ], [ 640691.181933917105198, 7157421.032421968877316 ], [ 640662.221938050584868, 7157477.272442795336246 ], [ 640656.901943344157189, 7157511.862453281879425 ], [ 640648.921947056660429, 7157541.132462805137038 ], [ 640614.341945892432705, 7157575.712478732690215 ], [ 640590.391944588394836, 7157597.002489034086466 ], [ 640550.481940254219808, 7157620.942503022029996 ], [ 640526.541934971697628, 7157620.94250746909529 ], [ 640444.061917762854137, 7157626.262524245306849 ], [ 640404.151912432862446, 7157644.892536772415042 ], [ 640393.511919021140784, 7157692.782551907934248 ], [ 640369.571922174887732, 7157738.002568781375885 ], [ 640342.961924238945358, 7157780.572585421614349 ], [ 640311.04192760924343, 7157836.442606709897518 ], [ 640257.831926763406955, 7157894.972632675431669 ], [ 640233.88193138781935, 7157948.182651757262647 ], [ 640233.881941804196686, 7158004.062667140737176 ], [ 640217.921945710782893, 7158043.962681081146002 ], [ 640183.331945989863016, 7158086.53269921336323 ], [ 640146.081944686593488, 7158123.78271637391299 ], [ 640111.501945951604284, 7158171.672735970467329 ], [ 640100.8619549915893, 7158232.862754801288247 ], [ 640084.891966315452009, 7158312.682779762893915 ], [ 640082.231975634465925, 7158365.892794928513467 ], [ 640058.291978251072578, 7158408.452811097726226 ], [ 640021.041975933127105, 7158440.382826801389456 ], [ 639952.611965675838292, 7158466.812846750020981 ], [ 639919.171961826388724, 7158485.992858225479722 ], [ 639885.32430780492723, 7158536.506421159952879 ], [ 639863.260815202491358, 7158556.872730698436499 ], [ 639846.562539795064367, 7158560.003660703077912 ], [ 639850.081956219859421, 7158569.682050796225667 ], [ 639865.453514132183045, 7158596.582267005927861 ], [ 639874.420258332509547, 7158623.48248440399766 ], [ 639879.544114544056356, 7158651.663665322586894 ], [ 639891.072783992509358, 7158677.282919434830546 ], [ 639903.882414517225698, 7158693.935433624312282 ], [ 639925.658783528837375, 7158706.745057721622288 ], [ 639943.592261928599328, 7158706.7450544051826 ], [ 639969.211515834438615, 7158701.621198418550193 ], [ 640005.078472396009602, 7158700.340228971093893 ], [ 640020.45002531085629, 7158700.34022612683475 ] ] ] ] } }
]
}
