{
"type": "FeatureCollection",
"name": "rio_miringuava_mirim",
"crs": { "type": "name", "properties": { "name": "urn:ogc:def:crs:EPSG::31982" } },
"features": [
{ "type": "Feature", "properties": { "AREA": 114604282.87445, "PERIMETER": 61718.70303, "BACIAS1_": 23, "BACIAS1_ID": 0, "NOME_BACIA": "RIO MIRINGUAVA-MIRIM", "SUB_AREA": 114.6, "SUBCODIGO": 22, "BACCODIGO": 2, "SUBNOME": "RIO MIRINGUAVA-MIRIM", "SUBBAC_DAT": "2002-01-03", "SUBBAC_POP": 5531, "SUBBAC_P_1": 6567, "SUBBAC_DEN": 57.3, "SUBBAC_D_1": 48.27 }, "geometry": { "type": "MultiPolygon", "coordinates": [ [ [ [ 681531.325214520446025, 7167338.53038926422596 ], [ 681537.860342295491137, 7167400.613962713629007 ], [ 681539.494137832662091, 7167472.500207081437111 ], [ 681544.395480709266849, 7167506.809549998492002 ], [ 681568.902159242308699, 7167529.682440184056759 ], [ 681595.042610459495336, 7167529.682433916255832 ], [ 681630.985729307867587, 7167523.147312136366963 ], [ 681681.632849597139284, 7167506.809517085552216 ], [ 681742.082639092346653, 7167490.471719676628709 ], [ 681773.124423727625981, 7167485.570377357304096 ], [ 681820.50399392680265, 7167495.373035721480846 ], [ 681853.17956663062796, 7167531.316150261089206 ], [ 681869.517354955663905, 7167557.45659897942096 ], [ 681872.784917674027383, 7167583.597050841897726 ], [ 681879.320038373349234, 7167616.272615077905357 ], [ 681898.925382315530442, 7167639.145506435073912 ], [ 681918.530724285054021, 7167653.849506339989603 ], [ 681938.136065465514548, 7167665.285949664190412 ], [ 681964.276516687474214, 7167665.285943381488323 ], [ 681987.149410718004219, 7167662.018381305038929 ], [ 682018.191191014484502, 7167639.145477776415646 ], [ 682036.162742536980659, 7167603.202351067215204 ], [ 682050.866739631514065, 7167575.428116597235203 ], [ 682072.105853086221032, 7167562.357885169796646 ], [ 682093.344970096368343, 7167563.991658352315426 ], [ 682119.485424082027748, 7167575.428100098855793 ], [ 682134.189427892910317, 7167575.428096560761333 ], [ 682150.527204765938222, 7167554.188974859192967 ], [ 682157.062311245128512, 7167528.04852064140141 ], [ 682165.231197506305762, 7167508.443179193884134 ], [ 682202.80809019994922, 7167483.936495802365243 ], [ 682224.047205230919644, 7167477.401377530768514 ], [ 682332.693455992615782, 7167479.035129668191075 ], [ 682358.83390364726074, 7167464.331118762493134 ], [ 682398.044571364764124, 7167426.754208648577332 ], [ 682430.720122317317873, 7167372.839517209678888 ], [ 682451.959226652397774, 7167322.192385107278824 ], [ 682468.296998757869005, 7167281.347923927940428 ], [ 682489.536104672122747, 7167237.235904989764094 ], [ 682505.873877567239106, 7167199.65900039114058 ], [ 682535.281878834357485, 7167173.518540671095252 ], [ 682587.562776490231045, 7167153.913188594393432 ], [ 682638.209897132124752, 7167139.209171775728464 ], [ 682680.688128753448837, 7167132.674048371613026 ], [ 682736.236585976439528, 7167126.138921810314059 ], [ 682811.390380806755275, 7167116.33623393625021 ], [ 682880.009064421406947, 7167113.068660789169371 ], [ 682960.064196234219708, 7167113.068641448393464 ], [ 683015.61265623185318, 7167117.969962893053889 ], [ 683076.062449640012346, 7167117.969948282465339 ], [ 683121.808237657300197, 7167111.434824062511325 ], [ 683168.370908413082361, 7167078.759247014299035 ], [ 683178.173573638312519, 7167062.421461751684546 ], [ 683194.511345699080266, 7167021.577000571414828 ], [ 683220.651789343683049, 7166990.535206752829254 ], [ 683245.158455581753515, 7166962.760969910770655 ], [ 683268.031330890022218, 7166882.705828217789531 ], [ 683272.932655147276819, 7166840.227591522037983 ], [ 683272.93264559970703, 7166801.016912594437599 ], [ 683261.496184679563157, 7166745.468453549779952 ], [ 683258.228619530214928, 7166709.52533199172467 ], [ 683261.496167575824074, 7166675.215987145900726 ], [ 683284.369053613161668, 7166639.272859267890453 ], [ 683351.353945056325756, 7166578.823046386241913 ], [ 683408.536178440786898, 7166564.119027942419052 ], [ 683457.549523217487149, 7166559.217681204900146 ], [ 683495.126422193134204, 7166560.851450389251113 ], [ 683516.365538383135572, 7166559.217666953802109 ], [ 683532.703315592720173, 7166539.61232353746891 ], [ 683542.505976022686809, 7166503.669198824092746 ], [ 683549.041076468885876, 7166453.022070312872529 ], [ 683554.759281438775361, 7166376.234489399939775 ], [ 683559.660609659855254, 7166350.094035608693957 ], [ 683584.167276262771338, 7166323.953577065840364 ], [ 683608.673944060807116, 7166302.714453384280205 ], [ 683633.180617037578486, 7166302.714447440579534 ], [ 683644.617063628742471, 7166299.446888092905283 ], [ 683657.687287622946315, 7166292.91177177336067 ], [ 683672.391287821577862, 7166278.207763617858291 ], [ 683672.391283036558889, 7166258.602424168027937 ], [ 683667.489940468105488, 7166225.926859607920051 ], [ 683649.518372713355348, 7166194.885076506994665 ], [ 683623.377910779905505, 7166150.773069091141224 ], [ 683608.673899026820436, 7166118.09750691242516 ], [ 683600.504997276351787, 7166073.985495141707361 ], [ 683611.941437887959182, 7166046.211261488497257 ], [ 683620.110325688263401, 7166033.141033213585615 ], [ 683646.250771672464907, 7166011.901909141801298 ], [ 683674.024995454121381, 7165989.029006389901042 ], [ 683690.36277025565505, 7165959.620993262156844 ], [ 683696.897875072318129, 7165926.945425942540169 ], [ 683695.264091291930526, 7165904.072530322708189 ], [ 683688.728972919518128, 7165881.199635894037783 ], [ 683664.222287996206433, 7165832.186293242499232 ], [ 683642.983163856086321, 7165801.144510951824486 ], [ 683629.912935089319944, 7165788.074287828058004 ], [ 683621.744039319688454, 7165768.468950374051929 ], [ 683633.180480720824562, 7165743.962273305281997 ], [ 683652.785814703442156, 7165725.990707399323583 ], [ 683670.757372480700724, 7165716.188033324666321 ], [ 683704.249821137171239, 7165698.216464050114155 ], [ 683730.390267504728399, 7165678.611118271946907 ], [ 683751.62937010882888, 7165621.428873103111982 ], [ 683771.234689724631608, 7165544.641288904473186 ], [ 683795.741335548111238, 7165433.544359521940351 ], [ 683812.079098761663772, 7165356.756776133552194 ], [ 683848.022201123647392, 7165283.236744564026594 ], [ 683872.528866884531453, 7165253.828729476779699 ], [ 683903.570651015383191, 7165247.293608794920146 ], [ 683924.809765968937427, 7165240.758490497246385 ], [ 683962.386663682642393, 7165237.490924797020853 ], [ 683975.456884858896956, 7165219.519360483624041 ], [ 683975.45687647187151, 7165185.210016496479511 ], [ 683967.287980300257914, 7165163.97090077586472 ], [ 683957.485306331771426, 7165144.365563735365868 ], [ 683955.851523345685564, 7165124.760224712081254 ], [ 683957.485295152408071, 7165098.619771755300462 ], [ 683957.485289163305424, 7165074.113097482360899 ], [ 683963.20350006967783, 7165021.832190978340805 ], [ 683981.17504664324224, 7164966.283724933862686 ], [ 684012.216815183870494, 7164896.031251152977347 ], [ 684038.357258720090613, 7164864.98945739492774 ], [ 684051.427474694093689, 7164825.778775391168892 ], [ 684053.061244100099429, 7164789.835652738809586 ], [ 684053.061236909125, 7164760.427643625065684 ], [ 684051.427450723014772, 7164727.752078339457512 ], [ 684054.695003516040742, 7164713.048072988167405 ], [ 684061.230114299687557, 7164704.879179979674518 ], [ 684072.666562064085156, 7164706.512955483049154 ], [ 684113.511018537799828, 7164713.048058688640594 ], [ 684141.285249452339485, 7164719.583165070042014 ], [ 684164.158144182991236, 7164719.583159504458308 ], [ 684208.270153049845248, 7164709.780479069799185 ], [ 684221.340374609804712, 7164693.44269304908812 ], [ 684260.551045691361651, 7164670.569787532091141 ], [ 684285.057713816175237, 7164650.964442159049213 ], [ 684307.930601741420105, 7164623.190205764956772 ], [ 684307.930594939389266, 7164595.415974939242005 ], [ 684312.831923122284934, 7164569.275521205738187 ], [ 684330.803476863307878, 7164543.135064288973808 ], [ 684360.21147876419127, 7164520.262161157093942 ], [ 684378.183029699372128, 7164482.685256257653236 ], [ 684378.183022895478643, 7164454.91102543566376 ], [ 684373.281669100746512, 7164376.489669026806951 ], [ 684376.549206677125767, 7164299.702088916674256 ], [ 684381.450529651832767, 7164252.322517510503531 ], [ 684387.985634022741579, 7164218.013171978294849 ], [ 684412.492302528116852, 7164200.041604893282056 ], [ 684454.97053036512807, 7164178.802476868033409 ], [ 684490.913650229922496, 7164177.168689826503396 ], [ 684520.321657318854704, 7164175.534904378466308 ], [ 684554.630994581850246, 7164155.929556619375944 ], [ 684575.870105892885476, 7164134.690433765761554 ], [ 684608.545661753043532, 7164102.014860142022371 ], [ 684633.052331452607177, 7164088.944627903401852 ], [ 684654.291442357935011, 7164066.07172676641494 ], [ 684664.094105507014319, 7164041.565050134435296 ], [ 684668.995434074662626, 7164017.058374700136483 ], [ 684668.995428863912821, 7163995.819257028400898 ], [ 684670.629204250173643, 7163984.382808650843799 ], [ 684678.798094015335664, 7163979.481471810489893 ], [ 684688.600763977621682, 7163982.749025985598564 ], [ 684704.938549921265803, 7163999.086804823949933 ], [ 684711.473668310092762, 7164021.959699185565114 ], [ 684713.107450513402, 7164038.297481613233685 ], [ 684716.375010508578271, 7164053.001485357992351 ], [ 684714.741239532479085, 7164082.409494846127927 ], [ 684714.741249155835249, 7164121.62017363216728 ], [ 684719.64259296131786, 7164159.197072941809893 ], [ 684737.614160312572494, 7164188.605077650398016 ], [ 684768.65594920492731, 7164201.675296338275075 ], [ 684794.796406325418502, 7164226.181964202784002 ], [ 684801.331524716923013, 7164249.054858569987118 ], [ 684796.430196553352289, 7164275.195312296971679 ], [ 684784.993756414623931, 7164304.603324186056852 ], [ 684757.219538745703176, 7164351.982901178300381 ], [ 684724.543984484742396, 7164391.193587952293456 ], [ 684716.375103536527604, 7164432.038047030568123 ], [ 684714.741333763347939, 7164466.347391384653747 ], [ 684722.910234760958701, 7164507.191846480593085 ], [ 684727.811578167020343, 7164543.134967524558306 ], [ 684744.149366128724068, 7164567.641637796536088 ], [ 684767.022266069659963, 7164588.880749903619289 ], [ 684783.360050824936479, 7164600.317193903028965 ], [ 684809.50050916231703, 7164629.72519663348794 ], [ 684834.00719010992907, 7164662.400756329298019 ], [ 684869.950312806526199, 7164672.203417257405818 ], [ 684912.428543867194094, 7164664.034515464678407 ], [ 684945.104103752528317, 7164647.696724643930793 ], [ 684967.976992458337918, 7164623.190044797025621 ], [ 684971.244540816871449, 7164590.514478322118521 ], [ 684972.878309375606477, 7164551.303799109533429 ], [ 684984.314747903961688, 7164515.360674074850976 ], [ 685008.821412389515899, 7164481.051324130035937 ], [ 685034.14496114931535, 7164427.136634584516287 ], [ 685070.088072587037459, 7164391.193503562361002 ], [ 685110.932523830328137, 7164376.489489028230309 ], [ 685138.706753132515587, 7164376.489482237026095 ], [ 685171.382318225805648, 7164381.390809093602002 ], [ 685192.621437566354871, 7164392.82725188229233 ], [ 685223.66322969191242, 7164418.967696823179722 ], [ 685271.042806982295588, 7164458.178364036604762 ], [ 685316.788595221471041, 7164453.277017990127206 ], [ 685355.999268267652951, 7164438.573003839701414 ], [ 685390.308605119818822, 7164417.333877753466368 ], [ 685424.617941163713112, 7164392.827195098623633 ], [ 685457.293500621803105, 7164374.855625977739692 ], [ 685516.109515618067235, 7164374.855611570179462 ], [ 685592.897091557970271, 7164378.123149316757917 ], [ 685648.445555000682361, 7164397.728475097566843 ], [ 685699.092685475829057, 7164423.868915213271976 ], [ 685788.950499881058931, 7164479.417354807257652 ], [ 685831.428738587303087, 7164502.290240352973342 ], [ 685901.681208218913525, 7164531.698232213035226 ], [ 685947.427004936034791, 7164561.106230086646974 ], [ 686029.115922344848514, 7164592.147997410967946 ], [ 686092.833275577635504, 7164606.851986307650805 ], [ 686138.579065033118241, 7164606.851975062862039 ], [ 686182.691072655026801, 7164592.147959660738707 ], [ 686230.070633431430906, 7164564.373717183247209 ], [ 686259.478636489366181, 7164546.402148826047778 ], [ 686301.956865102984011, 7164528.430577254854143 ], [ 686354.237758837640285, 7164494.121220428496599 ], [ 686364.040426387451589, 7164487.586104883812368 ], [ 686391.814648008206859, 7164456.54431065544486 ], [ 686408.152423073421232, 7164428.770075812004507 ], [ 686424.490192068507895, 7164376.489166719838977 ], [ 686440.827959845308214, 7164319.306922778487206 ], [ 686457.165726811625063, 7164258.857122275978327 ], [ 686535.587056641001254, 7164164.097962542437017 ], [ 686576.431502982508391, 7164129.788608537055552 ], [ 686620.543506112764589, 7164097.113032007589936 ], [ 686651.585290577844717, 7164092.211689509451389 ], [ 686700.598636389710009, 7164092.211677422747016 ], [ 686746.344426219700836, 7164093.845444422215223 ], [ 686779.019993742229417, 7164108.549440906383097 ], [ 686818.230674043647014, 7164123.253435775637627 ], [ 686868.877798051340505, 7164123.253423278219998 ], [ 686921.158695788122714, 7164105.281849261373281 ], [ 686966.904479531454854, 7164082.408942004665732 ], [ 686996.312482146779075, 7164062.803595348261297 ], [ 687030.621816499624401, 7164031.761799501255155 ], [ 687055.128488997113891, 7164030.128015167079866 ], [ 687081.268939282745123, 7164026.860452140681446 ], [ 687112.310723743750714, 7164021.959109622053802 ], [ 687138.451174841145985, 7164021.959103161469102 ], [ 687177.661851078970358, 7164020.325315183028579 ], [ 687198.900966375949793, 7164015.423975086770952 ], [ 687243.829865480074659, 7164010.52262912876904 ], [ 687294.476986228488386, 7163997.452390337362885 ], [ 687340.222773206187412, 7163987.649709323421121 ], [ 687363.095663441345096, 7163969.678142555058002 ], [ 687379.433433171594515, 7163920.664790036156774 ], [ 687389.236091349157505, 7163876.552773986011744 ], [ 687397.404972958262078, 7163838.975871473550797 ], [ 687402.306294926442206, 7163788.328743509016931 ], [ 687403.940056439489126, 7163721.343833541497588 ], [ 687402.306257499032654, 7163638.0211415681988 ], [ 687392.5035769501701, 7163592.275352107360959 ], [ 687408.841352775227278, 7163567.768673835322261 ], [ 687426.812908416730352, 7163549.797108288854361 ], [ 687469.291134504601359, 7163522.022866984829307 ], [ 687503.600472478778102, 7163505.685075672343373 ], [ 687536.27602818433661, 7163473.009501948952675 ], [ 687583.655583139741793, 7163422.362363487482071 ], [ 687637.570249227574095, 7163365.180110279470682 ], [ 687698.020031742868014, 7163322.701859986409545 ], [ 687751.934705966617912, 7163298.195172399282455 ], [ 687796.04671511251945, 7163290.026270053349435 ], [ 687841.79250367404893, 7163286.758702140301466 ], [ 687881.003181097446941, 7163290.026248973794281 ], [ 687902.242299632634968, 7163298.195135105401278 ], [ 687925.115197992417961, 7163312.899133959785104 ], [ 687939.819206617539749, 7163332.504469681531191 ], [ 687956.156995067489333, 7163358.644918125122786 ], [ 687983.931228822446428, 7163376.616472321562469 ], [ 688028.043240011436865, 7163376.616461367346346 ], [ 688075.42280472710263, 7163365.180001627653837 ], [ 688125.253039587521926, 7163365.179989248514175 ], [ 688157.928605883265845, 7163374.982650816440582 ], [ 688170.998834279831499, 7163386.419095534831285 ], [ 688180.801507109776139, 7163401.123097630217671 ], [ 688200.406851953594014, 7163427.263545257970691 ], [ 688226.547309568966739, 7163453.40399126149714 ], [ 688254.321542926249094, 7163469.741767171770334 ], [ 688269.025547883589752, 7163474.64309835806489 ], [ 688296.799773475853726, 7163459.939086916856468 ], [ 688316.405103199998848, 7163425.629738131538033 ], [ 688329.475320969708264, 7163394.587947535328567 ], [ 688337.644204571959563, 7163365.179936438798904 ], [ 688376.854866868583485, 7163307.997686843387783 ], [ 688416.065540615003556, 7163296.56122911721468 ], [ 688443.839770697522908, 7163299.828778766095638 ], [ 688484.684227545047179, 7163307.997660003602505 ], [ 688510.824678617529571, 7163307.997653493657708 ], [ 688543.500239592627622, 7163296.561197388917208 ], [ 688577.809573437436484, 7163263.885623224079609 ], [ 688592.513568158494309, 7163227.942497378215194 ], [ 688599.048673555953428, 7163198.534486694261432 ], [ 688602.316220521344803, 7163160.957585421390831 ], [ 688602.316213560989127, 7163133.183354647830129 ], [ 688610.485099197132513, 7163111.94423496350646 ], [ 688621.921538757975213, 7163080.902444781735539 ], [ 688628.456644970923662, 7163054.76199066452682 ], [ 688631.724193164147437, 7163022.086424238979816 ], [ 688646.428190334467217, 7162995.945968085899949 ], [ 688672.568635661969893, 7162973.073065646924078 ], [ 688701.976636551087722, 7162946.93260582908988 ], [ 688725.666417455999181, 7162935.496151963248849 ], [ 688755.074423669371754, 7162930.594809791073203 ], [ 688779.581096537411213, 7162930.594803679734468 ], [ 688820.42555131833069, 7162930.594793491065502 ], [ 688859.636227908078581, 7162930.594783712178469 ], [ 688892.311789681902155, 7162922.425884157419205 ], [ 688923.353572855005041, 7162912.623206730000675 ], [ 688959.296689369250089, 7162897.919193238019943 ], [ 688996.873588587273844, 7162901.186740417033434 ], [ 689023.014040466048755, 7162904.454290449619293 ], [ 689037.718044597888365, 7162906.08806505985558 ], [ 689073.661165214143693, 7162907.721834363415837 ], [ 689107.970509280916303, 7162915.890717194415629 ], [ 689132.477187487063929, 7162937.129828717559576 ], [ 689163.518973532947712, 7162938.763599241152406 ], [ 689189.659423359669745, 7162933.862257868051529 ], [ 689205.997202808270231, 7162924.05958410166204 ], [ 689212.532309000147507, 7162897.919129984453321 ], [ 689219.067409853218123, 7162850.539558226242661 ], [ 689220.701176129165106, 7162803.159987695515156 ], [ 689222.33494281815365, 7162757.414195447228849 ], [ 689232.137599227484316, 7162706.767066319473088 ], [ 689253.376706668641418, 7162670.823938855901361 ], [ 689266.446930138277821, 7162662.655044190585613 ], [ 689302.390047867782414, 7162652.852365521714091 ], [ 689325.262940071173944, 7162643.049690125510097 ], [ 689362.839838453917764, 7162643.049680726602674 ], [ 689404.501186016248539, 7162657.753674821928144 ], [ 689425.740304139442742, 7162664.288782626390457 ], [ 689461.683425156748854, 7162667.556330191902816 ], [ 689500.894101732876152, 7162667.556320376694202 ], [ 689528.668326860060915, 7162651.218530626967549 ], [ 689558.076326061040163, 7162618.542957669124007 ], [ 689600.554547077743337, 7162571.163376925513148 ], [ 689616.892319926177152, 7162535.220250682905316 ], [ 689643.032761915121228, 7162499.277121987193823 ], [ 689667.539428180782124, 7162473.136663377285004 ], [ 689688.778540124883875, 7162455.16509698331356 ], [ 689708.383875522995368, 7162443.728644115850329 ], [ 689741.059438503580168, 7162440.461079369299114 ], [ 689755.763440979877487, 7162435.55974084418267 ], [ 689806.410557044437155, 7162404.517940843477845 ], [ 689832.551002316642553, 7162381.64503837749362 ], [ 689857.057667336892337, 7162350.603244931437075 ], [ 689878.296778446179815, 7162329.364121975377202 ], [ 689909.338559931959026, 7162313.026331402361393 ], [ 689925.676341007463634, 7162309.758770743384957 ], [ 689951.816791633376852, 7162308.124985907226801 ], [ 689968.154575182124972, 7162314.660094921477139 ], [ 689977.957247622078285, 7162327.730318694375455 ], [ 689977.95725339546334, 7162350.603214600123465 ], [ 689973.05592583771795, 7162378.377446574158967 ], [ 689964.887040248606354, 7162399.616566251963377 ], [ 689964.887048495700583, 7162432.292131836526096 ], [ 689974.689724650350399, 7162460.066360123455524 ], [ 689994.295069532818161, 7162486.206807672977448 ], [ 690017.167970385518856, 7162510.713476124219596 ], [ 690046.575982350157574, 7162528.685029814019799 ], [ 690087.420441649621353, 7162546.656580632552505 ], [ 690128.264896409120411, 7162546.65657037589699 ], [ 690174.010684916051105, 7162543.38900232501328 ], [ 690216.488913736306131, 7162527.051208857446909 ], [ 690247.530694810673594, 7162509.079639984294772 ], [ 690263.868470517918468, 7162484.572961688041687 ], [ 690273.671133049530908, 7162458.432506754994392 ], [ 690276.938680341816507, 7162422.489383788779378 ], [ 690278.572445726254955, 7162371.842256724834442 ], [ 690285.924431469058618, 7162308.124901994131505 ], [ 690294.09331787424162, 7162290.153338871896267 ], [ 690315.332425665226765, 7162255.8439896767959 ], [ 690352.90931369853206, 7162214.999523255974054 ], [ 690393.753760587307625, 7162183.957725688815117 ], [ 690426.429316938272677, 7162154.54970845580101 ], [ 690447.668426373158582, 7162126.775472374632955 ], [ 690460.738644032971933, 7162095.733681795187294 ], [ 690460.738639070652425, 7162076.128342452459037 ], [ 690460.738632454071194, 7162049.987889997661114 ], [ 690460.738625010941178, 7162020.579880986362696 ], [ 690460.738618809264153, 7161996.073206812143326 ], [ 690462.37238707265351, 7161956.862527722492814 ], [ 690468.907491972204298, 7161925.820738794282079 ], [ 690475.442596456967294, 7161893.145171588286757 ], [ 690481.977697633672506, 7161847.399378159083426 ], [ 690488.512804185971618, 7161822.89270234387368 ], [ 690496.681685616611503, 7161785.315799897536635 ], [ 690504.850565806031227, 7161742.837562618777156 ], [ 690504.850555466022342, 7161701.993105676956475 ], [ 690504.850545952911489, 7161664.416205291636288 ], [ 690497.498534178361297, 7161625.205528481863439 ], [ 690499.132292926544324, 7161548.41794903203845 ], [ 690504.033619217458181, 7161515.742382254451513 ], [ 690515.470059089944698, 7161486.334370385855436 ], [ 690541.610502239316702, 7161455.292576542124152 ], [ 690572.652279536938295, 7161422.617003185674548 ], [ 690603.694060142268427, 7161403.011656045913696 ], [ 690629.834506183164194, 7161383.406310137361288 ], [ 690654.341171136824414, 7161352.364516703411937 ], [ 690680.481610963935964, 7161308.252496646717191 ], [ 690721.326056132791564, 7161270.675585990771651 ], [ 690768.705614875303581, 7161236.366230241023004 ], [ 690804.648726304061711, 7161202.056877374649048 ], [ 690843.859394102124497, 7161167.747523682191968 ], [ 690889.605174646480009, 7161133.438168339431286 ], [ 690912.478056418942288, 7161082.791036006994545 ], [ 690941.886052594752982, 7161038.679015127941966 ], [ 690963.125161565840244, 7161009.271000800654292 ], [ 690987.631828981335275, 7160988.031877025961876 ], [ 691013.772278315620497, 7160981.496757324784994 ], [ 691043.180284438189119, 7160976.595415076240897 ], [ 691082.390960926190019, 7160976.595405178144574 ], [ 691131.404306122800335, 7160974.961614527739584 ], [ 691180.417652977397665, 7160979.862936979159713 ], [ 691231.88166130206082, 7160961.891362940892577 ], [ 691266.19099949253723, 7160947.187349788844585 ], [ 691310.303003894281574, 7160921.046886224299669 ], [ 691334.809670050395653, 7160894.90642761439085 ], [ 691354.415001229615882, 7160867.132191969081759 ], [ 691369.118999509257264, 7160845.893070667050779 ], [ 691385.456774312187918, 7160818.118835847824812 ], [ 691390.358105132356286, 7160803.414830127730966 ], [ 691390.358100975630805, 7160787.077047368511558 ], [ 691398.526988169411197, 7160772.373040824197233 ], [ 691424.667434997390956, 7160756.035251457244158 ], [ 691450.807875590282492, 7160715.190787957049906 ], [ 691463.8780969256768, 7160698.853001896291971 ], [ 691476.948317011352628, 7160677.613881010562181 ], [ 691481.849646165501326, 7160656.374762187711895 ], [ 691491.652310293749906, 7160636.769420403987169 ], [ 691499.821198730263859, 7160626.966748686507344 ], [ 691514.525201575364918, 7160623.699188416823745 ], [ 691525.961649294476956, 7160625.332963798195124 ], [ 691545.566988777602091, 7160630.234293661080301 ], [ 691574.974997794488445, 7160636.769399320706725 ], [ 691606.016786247491837, 7160648.205839390866458 ], [ 691633.791018328396603, 7160659.642280286177993 ], [ 691677.90302935813088, 7160659.642269117757678 ], [ 691707.311035464983433, 7160654.740926843136549 ], [ 691730.183927158825099, 7160643.304473120719194 ], [ 691757.958154244697653, 7160635.135574709624052 ], [ 691775.92971221182961, 7160626.966678780503571 ], [ 691803.703940963489003, 7160625.332893466576934 ], [ 691826.576835570391268, 7160625.332887670025229 ], [ 691855.984838339849375, 7160607.361319188028574 ], [ 691878.857727948343381, 7160587.755974086932838 ], [ 691896.829281746875495, 7160563.249295400455594 ], [ 691918.068394833593629, 7160550.179063815623522 ], [ 691949.11017745139543, 7160538.742608019150794 ], [ 691967.081733747618273, 7160524.038598984479904 ], [ 691976.884397444082424, 7160502.799478923901916 ], [ 691994.855953322025016, 7160486.461691614240408 ], [ 692019.362624444183894, 7160479.926572297699749 ], [ 692047.136851519928314, 7160471.757673875428736 ], [ 692063.474631294840947, 7160463.588778356090188 ], [ 692076.544852194259875, 7160445.617214014753699 ], [ 692076.544848857447505, 7160432.546987812966108 ], [ 692063.474617949454114, 7160411.307873559184372 ], [ 692050.404389126226306, 7160398.237650675699115 ], [ 692040.601718343910761, 7160391.702540064230561 ], [ 692032.432824079063721, 7160378.632315937429667 ], [ 692030.799041723366827, 7160362.294533604755998 ], [ 692030.799036302254535, 7160341.055416034534574 ], [ 692037.334143623826094, 7160319.816296803764999 ], [ 692049.587473344057798, 7160293.675841301679611 ], [ 692052.855025961995125, 7160278.971836001612246 ], [ 692057.756353011820465, 7160249.563825815916061 ], [ 692057.756345088128, 7160218.522038604132831 ], [ 692047.953669721027836, 7160194.01536697242409 ], [ 692033.249661882640794, 7160177.677587960846722 ], [ 692028.348321072058752, 7160153.170915089547634 ], [ 692031.615872439462692, 7160133.565574969165027 ], [ 692039.784758360940032, 7160113.960233606398106 ], [ 692047.953642196953297, 7160086.186000872403383 ], [ 692057.756303800852038, 7160056.777989450842142 ], [ 692069.192742338986136, 7160022.468642793595791 ], [ 692083.896736826747656, 7159986.525517033413053 ], [ 692095.333170356112532, 7159932.610831096768379 ], [ 692108.403387908241712, 7159901.569040575996041 ], [ 692108.403381233569235, 7159875.428588196635246 ], [ 692108.403375392663293, 7159852.555692365393043 ], [ 692101.868255146662705, 7159823.147685101255774 ], [ 692101.86824763705954, 7159793.739676176570356 ], [ 692103.502021233318374, 7159775.768114753067493 ], [ 692134.543797141988762, 7159738.191206586547196 ], [ 692165.585571378469467, 7159694.079185324721038 ], [ 692188.458460531313904, 7159672.84006196539849 ], [ 692203.162461267900653, 7159661.403610317967832 ], [ 692235.838017438538373, 7159631.995593100786209 ], [ 692247.274458883097395, 7159609.122694374993443 ], [ 692246.457566034630872, 7159594.41869012452662 ], [ 692236.65489025041461, 7159568.278240244835615 ], [ 692236.654880648828112, 7159530.701339966617525 ], [ 692248.091319587081671, 7159498.025771602988243 ], [ 692274.23176301328931, 7159468.617756051011384 ], [ 692306.907320841914043, 7159445.744851931929588 ], [ 692334.681545371073298, 7159427.773283874616027 ], [ 692380.427332425722852, 7159419.604380884207785 ], [ 692431.074451523134485, 7159401.632807010784745 ], [ 692457.214896192075685, 7159377.126126272603869 ], [ 692488.256669140537269, 7159328.112770202569664 ], [ 692491.524218819104135, 7159301.972317012026906 ], [ 692491.524211294483393, 7159272.564308110624552 ], [ 692486.622871311497875, 7159251.325191816315055 ], [ 692473.552640828769654, 7159231.719855872914195 ], [ 692460.482411600882187, 7159217.015854747034609 ], [ 692424.5392869731877, 7159199.044302891008556 ], [ 692382.061050449963659, 7159184.340309240855277 ], [ 692364.089484588126652, 7159161.467417999170721 ], [ 692349.385473003028892, 7159130.425634566694498 ], [ 692349.385463395854458, 7159092.848734308965504 ], [ 692357.554346375050955, 7159061.806945066899061 ], [ 692375.525900537264533, 7159038.934044692665339 ], [ 692395.131234135827981, 7159020.962478719651699 ], [ 692409.83523276692722, 7159001.357135720551014 ], [ 692413.10277994023636, 7158965.414012912660837 ], [ 692406.56765801704023, 7158929.47089259698987 ], [ 692388.596087981830351, 7158890.26021864823997 ], [ 692382.060966895660385, 7158857.584654878824949 ], [ 692390.229850286617875, 7158828.17664391733706 ], [ 692401.666292132576928, 7158806.937523482367396 ], [ 692419.637846705270931, 7158785.69840138591826 ], [ 692431.0742843701737, 7158748.121498240157962 ], [ 692426.172943555749953, 7158723.61482541821897 ], [ 692391.86359044816345, 7158679.502820821478963 ], [ 692354.286683070240542, 7158643.559708409011364 ], [ 692293.836884908960201, 7158622.320606250315905 ], [ 692269.330203411984257, 7158588.011268788948655 ], [ 692267.696417297003791, 7158556.969482056796551 ], [ 692275.865301525220275, 7158530.829027649015188 ], [ 692289.752413146314211, 7158519.392576226964593 ], [ 692324.061750785796903, 7158503.054784800857306 ], [ 692360.004867439391091, 7158489.984549500979483 ], [ 692389.412870113970712, 7158472.012981049716473 ], [ 692404.116864556563087, 7158436.069855358451605 ], [ 692405.750636051641777, 7158409.929402614012361 ], [ 692418.8208564898232, 7158390.32406004704535 ], [ 692428.623523489339277, 7158382.155166203156114 ], [ 692443.327527121873572, 7158382.155162464827299 ], [ 692462.932866969960742, 7158388.690270557999611 ], [ 692500.509765562717803, 7158390.324039271101356 ], [ 692538.086660390486941, 7158377.253803551197052 ], [ 692554.424439278081991, 7158365.817351501435041 ], [ 692575.663548526004888, 7158338.043115500360727 ], [ 692609.972877365769818, 7158287.395980392582715 ], [ 692657.35243709012866, 7158257.987959468737245 ], [ 692699.830660174950026, 7158220.411048439331353 ], [ 692734.13999486155808, 7158192.63680911436677 ], [ 692753.745325498981401, 7158163.228795260190964 ], [ 692766.815543410484679, 7158133.820783073082566 ], [ 692791.322203563991934, 7158084.807428736239672 ], [ 692789.688416171818972, 7158048.864307218231261 ], [ 692788.054632129031233, 7158025.991411859169602 ], [ 692794.589738572016358, 7158001.484736151061952 ], [ 692804.392404724028893, 7157990.048285767436028 ], [ 692828.899076177272946, 7157985.146944714710116 ], [ 692858.307075049728155, 7157952.471371829509735 ], [ 692871.377298818668351, 7157945.936255421489477 ], [ 692902.419085085391998, 7157949.203804049640894 ], [ 692930.193317506578751, 7157962.274023121222854 ], [ 692966.136438735062256, 7157967.175348768010736 ], [ 692985.741781510529108, 7157985.146904733963311 ], [ 693031.487583981826901, 7158037.42779769282788 ], [ 693069.064490103977732, 7158068.469575231894851 ], [ 693090.303613582858816, 7158096.243800397962332 ], [ 693113.176514405291528, 7158120.750468609854579 ], [ 693136.049411034444347, 7158128.919354123994708 ], [ 693165.457415773533285, 7158119.116676999256015 ], [ 693185.062748489086516, 7158097.87755448371172 ], [ 693199.76674414484296, 7158066.835763607174158 ], [ 693214.470741896657273, 7158043.962864076718688 ], [ 693234.076074190204963, 7158021.089963294565678 ], [ 693260.216520882677287, 7158004.752173924818635 ], [ 693284.723190653836355, 7157993.315719778649509 ], [ 693319.032529927324504, 7157983.513041397556663 ], [ 693348.440537177724764, 7157983.513033884577453 ], [ 693387.651214350829832, 7157986.780580405145884 ], [ 693421.96055908431299, 7157998.217019524425268 ], [ 693435.030788730131462, 7158014.554798878729343 ], [ 693439.932131674955599, 7158047.230363018810749 ], [ 693444.83347377856262, 7158076.638370621949434 ], [ 693451.368593223392963, 7158102.778821269050241 ], [ 693470.973936435300857, 7158122.384155493229628 ], [ 693498.748169291880913, 7158137.088152821175754 ], [ 693526.522399628651328, 7158141.989480530843139 ], [ 693546.127737799659371, 7158141.989475516602397 ], [ 693565.733075549826026, 7158140.355692231096327 ], [ 693598.408637907356024, 7158135.454349063336849 ], [ 693647.421982072526589, 7158130.553001713007689 ], [ 693699.702883860794827, 7158130.552988335490227 ], [ 693725.843336439458653, 7158137.088094722479582 ], [ 693774.856681866571307, 7158137.088082175701857 ], [ 693807.532244642730802, 7158133.82051726616919 ], [ 693835.306471613235772, 7158125.651618802919984 ], [ 693853.278030340676196, 7158120.750279391184449 ], [ 693867.982031441992149, 7158110.947606006637216 ], [ 693877.784690842265263, 7158073.370703287422657 ], [ 693881.0522392046405, 7158042.328915326856077 ], [ 693879.418451759265736, 7158006.385793812572956 ], [ 693858.179326149402186, 7157970.442677321843803 ], [ 693850.010424722218886, 7157929.598222678527236 ], [ 693848.376638964284211, 7157900.190214246511459 ], [ 693881.052193307434209, 7157864.24708394985646 ], [ 693903.925084042479284, 7157849.543073665350676 ], [ 693925.164197859587148, 7157839.740398609079421 ], [ 693964.374872921267524, 7157834.83905375096947 ], [ 694018.289551184861921, 7157828.303926853463054 ], [ 694070.57044241623953, 7157787.459456719458103 ], [ 694113.048667090130039, 7157756.417658710852265 ], [ 694153.893118641222827, 7157744.981200348585844 ], [ 694198.005129502736963, 7157744.981189031153917 ], [ 694247.018471108749509, 7157730.277172029949725 ], [ 694263.356245735776611, 7157702.502937264740467 ], [ 694271.525128197157755, 7157669.827369788661599 ], [ 694271.525122711551376, 7157648.588252292945981 ], [ 694261.72244392929133, 7157611.011354627087712 ], [ 694238.849536756752059, 7157561.998012437485158 ], [ 694222.511741883587092, 7157511.350890304893255 ], [ 694198.005057381582446, 7157465.605105075985193 ], [ 694185.751710491371341, 7157424.760651510208845 ], [ 694184.117923877201974, 7157392.085086565464735 ], [ 694206.99080615665298, 7157344.705510914325714 ], [ 694233.131245210417546, 7157298.959712699055672 ], [ 694257.637910304241814, 7157269.551697582937777 ], [ 694300.116136628668755, 7157245.045012658461928 ], [ 694316.453911666409113, 7157218.90455617569387 ], [ 694331.157903881859966, 7157174.792539166286588 ], [ 694327.890335283358581, 7157127.412970242090523 ], [ 694327.890323888510466, 7157083.300957016646862 ], [ 694329.524091937812045, 7157044.09027817286551 ], [ 694357.298310840851627, 7157004.879592622630298 ], [ 694378.537419562693685, 7156975.471578352153301 ], [ 694401.410307304584421, 7156949.331120198592544 ], [ 694412.846746108029038, 7156916.655551918782294 ], [ 694434.085852289223112, 7156877.444868046790361 ], [ 694445.522290246444754, 7156841.501743230968714 ], [ 694478.197839869768359, 7156787.587052022106946 ], [ 694515.774724444141611, 7156735.306137824431062 ], [ 694530.478711989591829, 7156673.222559907473624 ], [ 694543.548917973879725, 7156598.068756281398237 ], [ 694551.717796608689241, 7156550.689184453338385 ], [ 694558.252898331498727, 7156508.210947846993804 ], [ 694564.788000475615263, 7156467.366489509120584 ], [ 694587.660884393379092, 7156426.522026972845197 ], [ 694610.533767460496165, 7156382.410007904283702 ], [ 694626.87154246866703, 7156356.269551445730031 ], [ 694643.209320857422426, 7156343.199321115389466 ], [ 694661.180877843871713, 7156331.762868631631136 ], [ 694669.349762386875227, 7156307.256192540749907 ], [ 694677.518640163354576, 7156256.609064197167754 ], [ 694688.955081481020898, 7156233.736165534704924 ], [ 694711.827972150291316, 7156219.032155258581042 ], [ 694742.869750316604041, 7156191.257916752249002 ], [ 694757.573747563641518, 7156166.75123898498714 ], [ 694777.179080605739728, 7156147.145894750952721 ], [ 694796.784417879185639, 7156143.878333171829581 ], [ 694823.914267539628781, 7156139.33340741507709 ], [ 694803.489361798623577, 7156131.066547201015055 ], [ 694780.391574688255787, 7156123.367291021160781 ], [ 694746.172627798165195, 7156100.269513456150889 ], [ 694704.254408574779518, 7156036.10900654643774 ], [ 694671.683467125054449, 7155969.270062120631337 ], [ 694665.96345477248542, 7155926.380051868036389 ], [ 694674.543439631350338, 7155860.620031690225005 ], [ 694651.663416128605604, 7155789.140018047764897 ], [ 694605.923393547651358, 7155740.53001653868705 ], [ 694548.733362554805353, 7155669.050011729821563 ], [ 694511.563344080233946, 7155629.020010360516608 ], [ 694451.523318398860283, 7155580.420012529939413 ], [ 694408.633305334020406, 7155566.120019649155438 ], [ 694391.483297156635672, 7155548.97001937776804 ], [ 694374.323284543585032, 7155514.660014427267015 ], [ 694360.023272554855794, 7155480.350008741952479 ], [ 694337.153254264499992, 7155428.880000581033528 ], [ 694298.403043084545061, 7155367.828067537397146 ], [ 694237.083195508923382, 7155285.919987314380705 ], [ 694177.043164704111405, 7155217.299984031356871 ], [ 694131.293142187292688, 7155168.68998253531754 ], [ 694091.263123136130162, 7155128.659981906414032 ], [ 694065.533093187375925, 7155034.30996282491833 ], [ 694051.233073109178804, 7154968.549948601052165 ], [ 694054.093059714417905, 7154914.219933090731502 ], [ 694074.103041934780777, 7154828.449904639273882 ], [ 694068.393031840096228, 7154794.139896777458489 ], [ 694056.953024926246144, 7154776.979895049706101 ], [ 694016.923011802602559, 7154759.829900655895472 ], [ 693982.612995497416705, 7154725.519900126382709 ], [ 693948.302977721206844, 7154685.489898050203919 ], [ 693911.132944579934701, 7154588.269881174899638 ], [ 693856.812913629109971, 7154513.939874919131398 ], [ 693802.482881947071292, 7154436.739867890253663 ], [ 693756.732858028961346, 7154382.409864868037403 ], [ 693716.702828728361055, 7154302.349853409454226 ], [ 693696.692808929248713, 7154242.309842256829143 ], [ 693708.170381592470221, 7154193.685422540642321 ], [ 693704.911769274971448, 7154179.564784991554916 ], [ 693685.252786570577882, 7154165.109824264422059 ], [ 693676.682773671811447, 7154122.22981484234333 ], [ 693710.342752128723077, 7154056.823849987238646 ], [ 693748.359836040297523, 7153989.47925721667707 ], [ 693808.100986481527798, 7153955.806950397789478 ], [ 693822.221620731637813, 7153942.772511355578899 ], [ 693835.256048447685316, 7153915.617434214800596 ], [ 693835.256042009335943, 7153890.634766316972673 ], [ 693817.876789564616047, 7153866.738305826671422 ], [ 693795.066524055087939, 7153848.272861487232149 ], [ 693775.514866387238726, 7153826.548807457089424 ], [ 693757.049408253980801, 7153791.790317724458873 ], [ 693748.16269486118108, 7153756.249697495251894 ], [ 693749.445959461387247, 7153680.997618587687612 ], [ 693765.738990257726982, 7153632.11848159134388 ], [ 693773.342397071537562, 7153579.980737968347967 ], [ 693767.911368895554915, 7153526.756794733926654 ], [ 693748.162626356701367, 7153490.339625643566251 ], [ 693708.132608888903633, 7153456.029626632109284 ], [ 693672.325486953603104, 7153420.308929974213243 ], [ 693628.072569546406157, 7153370.259623974561691 ], [ 693594.118865289958194, 7153368.171208331361413 ], [ 693558.274168451898731, 7153362.740202743560076 ], [ 693522.429470495088026, 7153352.964385353028774 ], [ 693493.10199073003605, 7153346.447175145149231 ], [ 693469.205523192416877, 7153331.240339942276478 ], [ 693447.481466188211925, 7153334.49895435012877 ], [ 693419.240189875359647, 7153330.154149767011404 ], [ 693405.119549205177464, 7153318.20592091511935 ], [ 693407.29195051942952, 7153300.82667313888669 ], [ 693421.412580573931336, 7153271.499189849942923 ], [ 693455.084856256144121, 7153217.189033687114716 ], [ 693465.102479265769944, 7153155.819607831537724 ], [ 693462.242469087708741, 7153118.649598544463515 ], [ 693447.942452772869729, 7153067.179588329046965 ], [ 693447.942441004095599, 7153021.429576003924012 ], [ 693439.36240900773555, 7152904.209546627476811 ], [ 693442.222386086592451, 7152812.709521267563105 ], [ 693446.395102357841097, 7152708.846055004745722 ], [ 693438.791653899592347, 7152599.139558978378773 ], [ 693382.309082058025524, 7152515.501946266740561 ], [ 693345.012270381907001, 7152443.869446953758597 ], [ 693319.282256049918942, 7152409.559444312006235 ], [ 693282.112239270587452, 7152375.249444598332047 ], [ 693259.232224085251801, 7152335.229439698159695 ], [ 693233.502209026250057, 7152298.059436292387545 ], [ 693213.492190783028491, 7152243.729426825419068 ], [ 693206.344132797094062, 7152200.503135796636343 ], [ 693239.222169104148634, 7152137.939391871914268 ], [ 693259.23216677014716, 7152112.209379859268665 ], [ 693313.562167359516025, 7152069.31935447640717 ], [ 693345.378064236952923, 7152050.607093254104257 ], [ 693373.619334914139472, 7152033.227838845923543 ], [ 693397.515795985469595, 7152023.452006192877889 ], [ 693414.895039155730046, 7152011.503769309259951 ], [ 693435.53289406967815, 7152011.503764031454921 ], [ 693458.343154762638733, 7152011.503758197650313 ], [ 693472.463790379231796, 7152003.900333940982819 ], [ 693471.377584694651887, 7151993.038304727524519 ], [ 693443.248943505110219, 7151981.892033232375979 ], [ 693406.324127949774265, 7151967.260184632614255 ], [ 693379.32214465062134, 7151926.359299356117845 ], [ 693379.322127004386857, 7151857.739280973561108 ], [ 693370.742111937026493, 7151806.269269382581115 ], [ 693359.302099938271567, 7151769.099262354895473 ], [ 693327.852083671255969, 7151731.929260443896055 ], [ 693310.702068256330676, 7151686.189252585172653 ], [ 693285.636790244840086, 7151603.091493539512157 ], [ 693293.240190647658892, 7151525.971082244068384 ], [ 693319.282018629601225, 7151486.039196863770485 ], [ 693322.142008947441354, 7151446.009185431525111 ], [ 693310.702002837788314, 7151431.719184536486864 ], [ 693282.111993075581267, 7151417.41918802075088 ], [ 693239.221979538910091, 7151400.269194396212697 ], [ 693213.49197038821876, 7151385.969197145663202 ], [ 693179.181960880989209, 7151377.389203617349267 ], [ 693127.711944789043628, 7151357.379211415536702 ], [ 693061.951919783838093, 7151314.489216745831072 ], [ 693010.481904433574528, 7151297.339225298725069 ], [ 692999.05190420220606, 7151305.909230504184961 ], [ 692993.331908123800531, 7151325.929237311705947 ], [ 692987.611914243781939, 7151354.519246404990554 ], [ 692987.611934058601037, 7151431.719267034903169 ], [ 692981.499961642548442, 7151527.057364787906408 ], [ 692976.06895973731298, 7151575.936498859897256 ], [ 692964.741988617810421, 7151663.309334794990718 ], [ 692947.582005502888933, 7151743.369360597804189 ], [ 692904.692011758219451, 7151803.409387608990073 ], [ 692876.102006389759481, 7151806.269395664334297 ], [ 692804.621991869993508, 7151809.129414653405547 ], [ 692736.001978694926947, 7151814.849433671683073 ], [ 692673.101968203554861, 7151826.289452757686377 ], [ 692615.911965520936064, 7151863.45947727560997 ], [ 692550.151961002033204, 7151900.629503972828388 ], [ 692498.691948550171219, 7151894.90951553825289 ], [ 692435.781929996679537, 7151874.88952618278563 ], [ 692358.581908397609368, 7151854.879540460184216 ], [ 692298.541891196393408, 7151837.71955112926662 ], [ 692244.221872292808257, 7151809.129557279869914 ], [ 692161.416837813914753, 7151752.987786889076233 ], [ 692112.537698059924878, 7151714.970696094445884 ], [ 692063.658549710409716, 7151643.281313891522586 ], [ 692015.865603426820599, 7151568.333322567865252 ], [ 691970.245064596179873, 7151499.902548388577998 ], [ 691887.693638345575891, 7151473.833698572590947 ], [ 691861.62477232562378, 7151486.868140565231442 ], [ 691835.555902703199536, 7151485.781944228336215 ], [ 691808.400824648560956, 7151462.971689198166132 ], [ 691767.125103495549411, 7151418.437378777191043 ], [ 691678.101634886232205, 7151351.659578603692353 ], [ 691632.435913939028978, 7151295.696479758247733 ], [ 691588.987792284460738, 7151271.800025904551148 ], [ 691532.505239007296041, 7151259.851807778701186 ], [ 691468.419268828351051, 7151260.938026949763298 ], [ 691406.471561811980791, 7151291.619631350971758 ], [ 691360.721560814301483, 7151325.929652087390423 ], [ 691325.040515382424928, 7151370.644560998305678 ], [ 691280.671572877443396, 7151440.299702889285982 ], [ 691234.921576226130128, 7151491.759728208184242 ], [ 691163.441576268174686, 7151551.799762327224016 ], [ 691068.69669009919744, 7151593.316230222582817 ], [ 691001.352117567555979, 7151619.385117996484041 ], [ 690972.024643134791404, 7151633.505763733759522 ], [ 690961.162619755137712, 7151655.229825446382165 ], [ 690986.077412546728738, 7151710.388562649488449 ], [ 690996.260582742514089, 7151781.670628594234586 ], [ 690979.288685865700245, 7151873.319006698206067 ], [ 690969.10554972034879, 7151936.115117259323597 ], [ 690960.619601276819594, 7151981.939306318759918 ], [ 690957.225228019757196, 7152024.369109878316522 ], [ 690960.619632309069857, 7152104.137138113379478 ], [ 690904.612314304336905, 7152177.116412909701467 ], [ 690845.210611394490115, 7152246.701304348185658 ], [ 690768.836992613738403, 7152333.258121160790324 ], [ 690704.343714920338243, 7152407.93459021858871 ], [ 690667.005499587394297, 7152443.575633919797838 ], [ 690634.758865033858456, 7152497.885789539664984 ], [ 690594.461703630397096, 7152532.510168756358325 ], [ 690554.43170156981796, 7152558.24018575437367 ], [ 690517.261706643505022, 7152609.71020894870162 ], [ 690491.531709817005321, 7152644.020224649459124 ], [ 690485.81172235077247, 7152698.340240694582462 ], [ 690485.81173393863719, 7152744.090252999216318 ], [ 690508.681744639179669, 7152766.960253393277526 ], [ 690511.541751049924642, 7152789.840258826501667 ], [ 690502.961752828909084, 7152804.130264831706882 ], [ 690462.941750755417161, 7152829.870281836017966 ], [ 690434.341753302142024, 7152864.180298266932368 ], [ 690397.171759073156863, 7152918.500322243198752 ], [ 690394.311770041938871, 7152964.250335279852152 ], [ 690388.601784013677388, 7153024.290352888405323 ], [ 690368.58178477815818, 7153044.310363318771124 ], [ 690345.711784201674163, 7153061.460373691283166 ], [ 690298.714996417984366, 7153093.600304727442563 ], [ 690271.559930565650575, 7153119.05819321796298 ], [ 690231.341781308874488, 7153147.240425573661923 ], [ 690185.591787373647094, 7153210.140454031527042 ], [ 690099.82178987422958, 7153293.060497946105897 ], [ 689994.031780094373971, 7153344.520538402721286 ], [ 689933.981778714456595, 7153390.27056582365185 ], [ 689893.951786693651229, 7153456.030593618750572 ], [ 689856.781792398542166, 7153510.36061761341989 ], [ 689782.451782143791206, 7153533.230642439797521 ], [ 689716.681770846713334, 7153544.670662024989724 ], [ 689659.5017599578714, 7153550.390677906572819 ], [ 689572.508779113413766, 7153546.02164900302887 ], [ 689465.07172810845077, 7153590.410737430676818 ], [ 689379.301711767213419, 7153598.99076122418046 ], [ 689313.541697581182234, 7153598.990777680650353 ], [ 689276.371686682570726, 7153587.550783891230822 ], [ 689224.901657594833523, 7153516.070777464658022 ], [ 689147.701633758842945, 7153487.480789052322507 ], [ 689061.462107230210677, 7153460.194110912270844 ], [ 688981.871597292949446, 7153484.620829723775387 ], [ 688887.521585569251329, 7153518.930862546898425 ], [ 688834.038392434711568, 7153522.990275837481022 ], [ 688781.42543515143916, 7153504.321175741031766 ], [ 688695.95153278845828, 7153473.190898004919291 ], [ 688570.151492048753425, 7153418.860914710909128 ], [ 688281.371412644279189, 7153350.240968122147024 ], [ 688202.68292092194315, 7153361.757182585075498 ], [ 688153.464356620679609, 7153378.729115939699113 ], [ 688119.520523883169517, 7153409.278582382947206 ], [ 688097.45703612617217, 7153443.222430094145238 ], [ 688065.210387338534929, 7153441.525245998986065 ], [ 687976.95638325845357, 7153365.151622926816344 ], [ 687903.875157328438945, 7153335.709148344583809 ], [ 687734.284790545934811, 7153277.691435191780329 ], [ 687682.961400585132651, 7153302.237421303987503 ], [ 687633.869462626753375, 7153326.783406857401133 ], [ 687578.083166981698014, 7153344.6350376913324 ], [ 687544.611394712352194, 7153375.875375745818019 ], [ 687522.296884131385013, 7153413.810067407786846 ], [ 687442.340922688483261, 7153466.983282250352204 ], [ 687389.727977285161614, 7153495.835561177693307 ], [ 687335.417840703506954, 7153528.082224747166038 ], [ 687294.685237314202823, 7153548.448540169745684 ], [ 687262.438588948221877, 7153548.448548152111471 ], [ 687231.889130064984784, 7153538.265403043478727 ], [ 687182.670551367453299, 7153497.532804548740387 ], [ 687128.360388596425764, 7153424.553557196632028 ], [ 687099.508123851264827, 7153422.856372220441699 ], [ 687067.261477599386126, 7153431.342340752482414 ], [ 687048.592368768295273, 7153444.919882256537676 ], [ 687014.648536826483905, 7153478.863732876256108 ], [ 686989.190662447945215, 7153502.624428728595376 ], [ 686968.824367077439092, 7153538.265468103811145 ], [ 686939.97210401610937, 7153543.357051566243172 ], [ 686916.2114111057017, 7153524.687944211997092 ], [ 686873.781601770431735, 7153489.046920352615416 ], [ 686819.471455469727516, 7153482.258165321312845 ], [ 686691.651110714068636, 7153513.221406068652868 ], [ 686614.451101165963337, 7153541.811432832852006 ], [ 686545.831094170804136, 7153573.261458248831332 ], [ 686488.651084675453603, 7153584.701475435867906 ], [ 686451.481076659052633, 7153584.701484594494104 ], [ 686405.731058994773775, 7153553.241487375460565 ], [ 686362.841047622379847, 7153544.671495627611876 ], [ 686302.801034675445408, 7153544.67151041328907 ], [ 686208.451011498807929, 7153533.231530555523932 ], [ 686128.390986454440281, 7153501.781541766598821 ], [ 686028.320961346384138, 7153487.481562522239983 ], [ 685956.840943819843233, 7153478.911577781662345 ], [ 685867.090923390351236, 7153474.52159865014255 ], [ 685800.570908231311478, 7153471.191614095121622 ], [ 685687.50087729212828, 7153444.581634674221277 ], [ 685604.360856916755438, 7153434.611652385443449 ], [ 685507.920845981105231, 7153474.521686809137464 ], [ 685456.626274157431908, 7153522.991111308336258 ], [ 685424.379625374218449, 7153521.293927099555731 ], [ 685398.170828884816729, 7153501.12172088958323 ], [ 685351.610804096213542, 7153441.261716144159436 ], [ 685315.030781462672167, 7153381.401708958670497 ], [ 685255.170753005309962, 7153318.211706576868892 ], [ 685201.960735814413056, 7153294.931713326834142 ], [ 685163.011997587163933, 7153290.475863996893167 ], [ 685122.279396658181213, 7153321.02533196285367 ], [ 685076.455218835384585, 7153348.180416950955987 ], [ 685022.145077157067135, 7153360.060775011777878 ], [ 684976.320888055837713, 7153341.391672996804118 ], [ 684932.193896820303053, 7153346.483260117471218 ], [ 684900.005704960320145, 7153383.041060969233513 ], [ 684936.932454952504486, 7153428.541335295885801 ], [ 684936.932459371164441, 7153446.512896150350571 ], [ 684933.664908655220643, 7153469.385792579501867 ], [ 684923.862244853866287, 7153490.624912347644567 ], [ 684914.059578642132692, 7153502.061362558975816 ], [ 684879.750244688475505, 7153533.103157876990736 ], [ 684837.272021082462743, 7153569.046289965510368 ], [ 684791.526242737192661, 7153611.524535892531276 ], [ 684749.048019523150288, 7153649.101446241140366 ], [ 684713.104906181339175, 7153675.241907173767686 ], [ 684696.767129285610281, 7153694.847250281833112 ], [ 684662.457801331183873, 7153750.39571949467063 ], [ 684615.078248402918689, 7153807.577970162034035 ], [ 684575.867578304954804, 7153832.084653630852699 ], [ 684543.192019286216237, 7153850.056222463026643 ], [ 684512.967129528522491, 7153876.196682000532746 ], [ 684486.826685596490279, 7153903.970918800681829 ], [ 684444.348463153815828, 7153944.815385667607188 ], [ 684419.841804200434126, 7154000.363852497190237 ], [ 684396.968924616230652, 7154060.813653714954853 ], [ 684375.729818395804614, 7154101.658115411177278 ], [ 684367.560939150396734, 7154149.037686966359615 ], [ 684364.29339682252612, 7154206.219926895573735 ], [ 684365.927184606087394, 7154245.430604763329029 ], [ 684365.927200225181878, 7154309.147956947796047 ], [ 684365.927215845324099, 7154372.865309135988355 ], [ 684378.997454443131573, 7154426.77998858038336 ], [ 684382.265018798992969, 7154459.455553011968732 ], [ 684392.067700653220527, 7154511.736454997211695 ], [ 684392.067709465045482, 7154547.679576753638685 ], [ 684390.43393850105349, 7154577.087585864588618 ], [ 684372.462384606711566, 7154601.594264172017574 ], [ 684349.589493787381798, 7154616.298274103552103 ], [ 684315.280158557812683, 7154642.438734652474523 ], [ 684287.505936019355431, 7154668.579193610697985 ], [ 684245.027717122575268, 7154724.127664866857231 ], [ 684218.887281155446544, 7154784.57746693212539 ], [ 684197.64817890455015, 7154841.759711285121739 ], [ 684192.746853586519137, 7154879.336612515151501 ], [ 684179.676643000100739, 7154939.786411412060261 ], [ 684169.873989558429457, 7155003.503766043111682 ], [ 684158.4375615415629, 7155081.925125442445278 ], [ 684143.733565174858086, 7155111.333137752488256 ], [ 684137.19846327661071, 7155155.445152444764972 ], [ 684140.466030425741337, 7155199.557164754718542 ], [ 684127.395824628416449, 7155279.612302836030722 ], [ 684104.522953378851525, 7155374.371447682380676 ], [ 684073.481182452989742, 7155433.187472727149725 ], [ 684060.410970247001387, 7155487.102158609777689 ], [ 684053.875864343368448, 7155514.876390684396029 ], [ 684022.834089009556919, 7155555.720854832790792 ], [ 683996.693643403006718, 7155576.959978622384369 ], [ 683981.989640626125038, 7155580.227538726292551 ], [ 683932.976298566791229, 7155593.297776754945517 ], [ 683903.568306191358715, 7155653.747579673305154 ], [ 683841.484751901123673, 7155720.732503594830632 ], [ 683828.414532485650852, 7155745.239180736243725 ], [ 683803.907871830277145, 7155794.252534622326493 ], [ 683777.767428603488952, 7155825.2943279966712 ], [ 683772.86609966494143, 7155848.167224891483784 ], [ 683779.401217157603242, 7155867.772562480531633 ], [ 683802.274115211796016, 7155882.476561307907104 ], [ 683821.879454919137061, 7155889.011669603176415 ], [ 683848.019906531786546, 7155892.279219780117273 ], [ 683888.864362126914784, 7155897.180544649250805 ], [ 683926.441262168809772, 7155905.349426840431988 ], [ 683968.919495541835204, 7155908.616973044350743 ], [ 684008.130174162564799, 7155918.419633096083999 ], [ 684029.369294047588482, 7155933.123632315546274 ], [ 684042.439524251269177, 7155952.728968314826488 ], [ 684042.439528248971328, 7155969.066750962287188 ], [ 684042.439532645861618, 7155987.038311876356602 ], [ 684042.439537443220615, 7156006.643651055172086 ], [ 684039.171985088498332, 7156022.981434499844909 ], [ 684039.171989885973744, 7156042.586773678660393 ], [ 684051.425327805336565, 7156049.121883759275079 ], [ 684056.326672328286804, 7156089.966339195147157 ], [ 684069.39690893352963, 7156135.712127439677715 ], [ 684080.833364565391093, 7156170.021468229591846 ], [ 684084.100928513798863, 7156201.063254475593567 ], [ 684082.467155935242772, 7156223.936150587163866 ], [ 684069.396933720563538, 7156237.006379891186953 ], [ 684048.157820222317241, 7156248.442832916975021 ], [ 684017.116038464009762, 7156263.146844855509698 ], [ 683982.806701948167756, 7156284.385970650240779 ], [ 683945.229805481503718, 7156290.921092849224806 ], [ 683912.5542455422692, 7156305.625105181708932 ], [ 683894.582691188901663, 7156328.498005267232656 ], [ 683889.681363050127402, 7156354.638458710163832 ], [ 683888.047594458679669, 7156393.849137483164668 ], [ 683883.146273905411363, 7156451.031377980485559 ], [ 683879.878725939313881, 7156485.340722359716892 ], [ 683879.878730332711712, 7156503.312283287756145 ], [ 683870.076067657675594, 7156529.452737927436829 ], [ 683848.836955747334287, 7156547.4243040131405 ], [ 683812.893839839613065, 7156563.762095406651497 ], [ 683765.51427708636038, 7156581.733667843043804 ], [ 683693.628053242107853, 7156647.084815949201584 ], [ 683662.586277044494636, 7156684.661723612807691 ], [ 683631.544497253373265, 7156707.534626875072718 ], [ 683595.601381731685251, 7156725.506196528673172 ], [ 683559.65826501219999, 7156738.576431381516159 ], [ 683549.85559873690363, 7156750.012881623581052 ], [ 683535.151600319542922, 7156771.252002656459808 ], [ 683523.715159054263495, 7156795.758679430931807 ], [ 683504.109824107494205, 7156808.82891031820327 ], [ 683476.335595084470697, 7156808.828917052596807 ], [ 683458.364035128615797, 7156808.828921410255134 ], [ 683430.589808893972076, 7156820.265376011840999 ], [ 683424.054700166219845, 7156836.603160262107849 ], [ 683425.688482725876383, 7156854.574720799922943 ], [ 683435.491155379801057, 7156869.278722825460136 ], [ 683456.730279662646353, 7156901.954283013939857 ], [ 683489.405856773024425, 7156957.502736169844866 ], [ 683499.208533812779933, 7156990.178299132734537 ], [ 683513.912546982639469, 7157029.388973978348076 ], [ 683515.546333928825334, 7157065.332095460966229 ], [ 683515.546340306522325, 7157091.472547738812864 ], [ 683515.546345487702638, 7157112.711665213108063 ], [ 683525.34902133513242, 7157140.485893381759524 ], [ 683538.419251546263695, 7157160.091229422017932 ], [ 683554.757040109718218, 7157187.865456005558372 ], [ 683564.559716756688431, 7157218.907240711152554 ], [ 683577.629950958071277, 7157254.850359429605305 ], [ 683575.996178760309704, 7157279.357033843174577 ], [ 683564.55974306887947, 7157326.736606381833553 ], [ 683544.954426845884882, 7157416.594415875151753 ], [ 683523.715320482151583, 7157457.438877725973725 ], [ 683504.109991496545263, 7157495.015782650560141 ], [ 683463.265550959156826, 7157552.198031944222748 ], [ 683456.730448998743668, 7157596.310046773403883 ], [ 683443.660236710100435, 7157650.224732801318169 ], [ 683443.660245473962277, 7157686.167854713276029 ], [ 683433.857585956458934, 7157725.378535537049174 ], [ 683386.478029096149839, 7157767.856782007031143 ], [ 683375.041591394226998, 7157807.067463230341673 ], [ 683352.168707228032872, 7157849.545703765936196 ], [ 683330.929603228578344, 7157900.192835250869393 ], [ 683326.028274660347961, 7157924.699510473757982 ], [ 683329.295836196979508, 7157945.938627183437347 ], [ 683353.802514476003125, 7157968.811517015099525 ], [ 683396.280753140104935, 7157993.318180760368705 ], [ 683433.857656866894104, 7158016.191067423671484 ], [ 683472.251456858240999, 7158068.471962738782167 ], [ 683478.786578346858732, 7158104.415083082392812 ], [ 683478.786583925713785, 7158127.287978856824338 ], [ 683472.251477179117501, 7158151.794654484838247 ], [ 683451.012367999181151, 7158181.202668488025665 ], [ 683426.505701661342755, 7158207.343126743100584 ], [ 683395.463925783988088, 7158246.553812744095922 ], [ 683388.928820228436962, 7158275.961823184043169 ], [ 683382.393717062077485, 7158315.172503245994449 ], [ 683369.323509533074684, 7158388.692528570070863 ], [ 683343.183076948160306, 7158463.846335334703326 ], [ 683325.211524915299378, 7158496.521905094385147 ], [ 683313.775087994756177, 7158539.000142896547914 ], [ 683297.437311751302332, 7158561.873042641207576 ], [ 683276.198200165876187, 7158581.478387031704187 ], [ 683258.226643748348579, 7158596.18239582143724 ], [ 683230.452418240834959, 7158610.886406982317567 ], [ 683178.171520402655005, 7158627.224202344194055 ], [ 683152.031072675832547, 7158640.294434836134315 ], [ 683124.256848754244857, 7158661.533559076488018 ], [ 683088.313736307318322, 7158692.57535491976887 ], [ 683055.638181016198359, 7158726.884706511162221 ], [ 683021.328847143799067, 7158759.560280227102339 ], [ 682970.681731842923909, 7158793.869636164046824 ], [ 682944.541285298764706, 7158811.841203466057777 ], [ 682913.499504207167774, 7158829.812771951779723 ], [ 682890.626610449515283, 7158833.080334022641182 ], [ 682848.148380489903502, 7158844.516792183741927 ], [ 682800.768821540754288, 7158878.826147323474288 ], [ 682758.29060070659034, 7158927.839505720883608 ], [ 682717.446158049162477, 7158976.852863725274801 ], [ 682699.474607165786438, 7159014.429768308997154 ], [ 682679.869274132535793, 7159035.668890571221709 ], [ 682655.36260853195563, 7159065.076905374415219 ], [ 682642.292385845794342, 7159076.513356431387365 ], [ 682629.222163953119889, 7159091.217364029958844 ], [ 682606.349278911715373, 7159130.428048072382808 ], [ 682606.349284859490581, 7159154.934722147881985 ], [ 682619.41951389121823, 7159169.638723441399634 ], [ 682640.658635030151345, 7159189.244057578966022 ], [ 682647.193749745725654, 7159197.412947360426188 ], [ 682652.095091037452221, 7159225.187176803126931 ], [ 682642.292436613235623, 7159285.636975234374404 ], [ 682635.757338157854974, 7159344.452994609251618 ], [ 682621.053347594221123, 7159398.36768114566803 ], [ 682599.814244294422679, 7159452.282369256950915 ], [ 682588.377804147079587, 7159481.690380921587348 ], [ 682570.406254434608854, 7159524.168620346114039 ], [ 682544.26581063028425, 7159553.576635560020804 ], [ 682513.224033064092509, 7159586.252208499237895 ], [ 682482.182259458233602, 7159635.265564171597362 ], [ 682426.633822594420053, 7159723.489604303613305 ], [ 682408.662275638896972, 7159777.404291648417711 ], [ 682378.437394278473221, 7159839.48787331674248 ], [ 682373.53607437829487, 7159899.937670612707734 ], [ 682365.367204444366507, 7159986.527921079657972 ], [ 682353.930786055512726, 7160105.793737821280956 ], [ 682357.19836737238802, 7160208.721768297255039 ], [ 682340.860614423756488, 7160327.987586257979274 ], [ 682321.255295200739056, 7160406.408948154188693 ], [ 682303.283749408903532, 7160465.224970370531082 ], [ 682286.945977446390316, 7160506.069431172683835 ], [ 682259.171756597934291, 7160540.378781633451581 ], [ 682215.059754677582532, 7160577.955692578107119 ], [ 682174.215303981793113, 7160594.293485160917044 ], [ 682126.835740541690029, 7160610.631279310211539 ], [ 682076.188624284928665, 7160641.673078721389174 ], [ 682030.442845743964426, 7160685.785103154368699 ], [ 681981.429506083251908, 7160710.291789068840444 ], [ 681934.049939471296966, 7160713.559357009828091 ], [ 681886.670370487961918, 7160707.024255293421447 ], [ 681844.192138433689252, 7160710.291822052560747 ], [ 681800.080132140312344, 7160729.897171951830387 ], [ 681759.235683401930146, 7160754.403855889104307 ], [ 681708.588573827059008, 7160813.219885963946581 ], [ 681675.91301917086821, 7160850.796794144436717 ], [ 681636.702352946740575, 7160893.275038719177246 ], [ 681576.252570288372226, 7160935.753288391977549 ], [ 681515.802787625230849, 7160978.231538061052561 ], [ 681440.648999695433304, 7161014.174678146839142 ], [ 681404.705883914604783, 7161032.146247798576951 ], [ 681383.466770635219291, 7161045.216479094699025 ], [ 681386.734331734711304, 7161064.821817623451352 ], [ 681399.804558806936257, 7161071.356927594169974 ], [ 681440.649013879243284, 7161072.990696081891656 ], [ 681491.296138072153553, 7161074.624462215229869 ], [ 681523.971703783608973, 7161082.793345759622753 ], [ 681571.351274364744313, 7161095.863560603931546 ], [ 681617.097068730508909, 7161117.102667218074203 ], [ 681625.265971891349182, 7161167.749791819602251 ], [ 681633.434878602158278, 7161233.10092091280967 ], [ 681626.899783599772491, 7161306.620944919995964 ], [ 681626.899797796388157, 7161365.436962878331542 ], [ 681641.603812923422083, 7161412.816529374569654 ], [ 681664.476717808283865, 7161455.294759081676602 ], [ 681690.617174732498825, 7161479.801426962949336 ], [ 681728.194075816427357, 7161491.237865878269076 ], [ 681772.306086498079821, 7161489.604077011346817 ], [ 681824.586985750356689, 7161478.167616514489055 ], [ 681852.361212180927396, 7161466.731161905452609 ], [ 681896.473217331571504, 7161442.224477153271437 ], [ 681937.317665313603356, 7161414.450236630626023 ], [ 681987.964782419148833, 7161386.675993750803173 ], [ 682051.682123045669869, 7161350.732856342568994 ], [ 682097.42791230219882, 7161350.732845338061452 ], [ 682125.202141887624748, 7161352.366616932675242 ], [ 682146.441261887433939, 7161367.070616312325001 ], [ 682152.976378989638761, 7161385.042175780981779 ], [ 682151.342606733436696, 7161409.548850327730179 ], [ 682146.441278498386964, 7161435.689303936436772 ], [ 682133.37106169515755, 7161471.632429173216224 ], [ 682118.667065515182912, 7161502.674219973385334 ], [ 682099.06173833005596, 7161548.420016447082162 ], [ 682090.892854900448583, 7161579.461805677041411 ], [ 682090.892863204120658, 7161613.7711494974792 ], [ 682083.540877170744352, 7161679.122282357886434 ], [ 682083.540892588673159, 7161742.839635176584125 ], [ 682080.273359140148386, 7161837.598776062950492 ], [ 682077.005810668226331, 7161870.274342405609787 ], [ 682060.668037871597335, 7161907.851246724836528 ], [ 682037.79514678393025, 7161922.55525672622025 ], [ 681967.542686635977589, 7161930.724165008403361 ], [ 681900.557784838252701, 7161947.06196388695389 ], [ 681858.079556662356481, 7161966.667313428595662 ], [ 681823.770216666278429, 7161974.836213057860732 ], [ 681794.362210448249243, 7161979.737554957158864 ], [ 681769.855542347300798, 7161999.342900179326534 ], [ 681727.377316533820704, 7162028.750919383019209 ], [ 681676.730203714687377, 7162074.496723329648376 ], [ 681629.350645294645801, 7162112.073635101318359 ], [ 681599.942642618203536, 7162131.678981496021152 ], [ 681585.238646010635421, 7162161.086994033306837 ], [ 681577.069764524349011, 7162200.297674676403403 ], [ 681565.63332665793132, 7162239.508356103673577 ], [ 681550.929333199281245, 7162281.986594875343144 ], [ 681521.521331696887501, 7162306.493276108056307 ], [ 681475.775546323275194, 7162322.831069866195321 ], [ 681448.001317885005847, 7162326.098633079789579 ], [ 681413.691975898575038, 7162326.09864130243659 ], [ 681364.678631386021152, 7162330.999987883493304 ], [ 681305.862622457556427, 7162355.506676156073809 ], [ 681284.623510712292045, 7162375.112020589411259 ], [ 681248.680394470109604, 7162391.449811984784901 ], [ 681199.667050345451571, 7162397.984936834312975 ], [ 681140.851036292617209, 7162401.252507468685508 ], [ 681086.936358775710687, 7162412.688968319445848 ], [ 681042.007463268237188, 7162432.294318413361907 ], [ 680979.923898334032856, 7162458.434785723686218 ], [ 680930.91055930883158, 7162486.20902818441391 ], [ 680873.728326580487192, 7162502.5468246396631 ], [ 680792.039423353387974, 7162528.687296621501446 ], [ 680738.124743074760772, 7162528.687309496104717 ], [ 680684.2100627978798, 7162528.687322365120053 ], [ 680636.830499986885116, 7162548.292673025280237 ], [ 680609.056272712303326, 7162556.461571048945189 ], [ 680569.84560555475764, 7162595.672259105369449 ], [ 680546.972717551980168, 7162623.446495309472084 ], [ 680538.803834047983401, 7162654.488284567371011 ], [ 680540.437617725692689, 7162677.361180091276765 ], [ 680551.874070547288284, 7162700.234073275700212 ], [ 680564.944301559589803, 7162723.106966074556112 ], [ 680576.38075673498679, 7162755.782528938725591 ], [ 680589.450988926226273, 7162783.55675657466054 ], [ 680613.140785240218975, 7162835.837655876763165 ], [ 680622.943459483678453, 7162857.076771177351475 ], [ 680644.182582632405683, 7162884.850996867753565 ], [ 680699.731053288560361, 7162935.498110292479396 ], [ 680727.505291954148561, 7162974.708782385103405 ], [ 680755.279534546541981, 7163030.257237282581627 ], [ 680787.955107400659472, 7163067.834129925817251 ], [ 680787.955112895113416, 7163090.70702585298568 ], [ 680779.7862293953076, 7163121.748815132305026 ], [ 680773.25113075633999, 7163180.564834794029593 ], [ 680786.321365709532984, 7163219.775510407984257 ], [ 680796.124045457574539, 7163263.887521648779511 ], [ 680797.75783071340993, 7163293.295530313625932 ], [ 680817.363175298436545, 7163319.435978125780821 ], [ 680845.95430033095181, 7163347.210202071815729 ], [ 680845.954304649028927, 7163365.18176316190511 ], [ 680834.517862015869468, 7163384.787105267867446 ], [ 680810.011193060316145, 7163401.124893931671977 ], [ 680782.236968895886093, 7163422.364018219523132 ], [ 680772.434304060880095, 7163440.335581653751433 ], [ 680769.166755523416214, 7163473.011148057878017 ], [ 680769.166760233812965, 7163492.616487432271242 ], [ 680770.800544704543427, 7163518.756939545273781 ], [ 680782.236999509390444, 7163549.798724161460996 ], [ 680836.151703805895522, 7163649.459186458960176 ], [ 680850.855721673346125, 7163708.27520108781755 ], [ 680873.728626973810606, 7163752.387209232896566 ], [ 680876.996193176833913, 7163793.231665501371026 ], [ 680876.996201816014946, 7163829.174787706695497 ], [ 680865.559761532233097, 7163858.582799515686929 ], [ 680842.686872716760263, 7163883.089479213580489 ], [ 680800.208648329135031, 7163919.032611565664411 ], [ 680788.772207648260519, 7163946.806845096871257 ], [ 680780.603326885495335, 7163989.285082388669252 ], [ 680769.166886595427059, 7164018.693094201385975 ], [ 680768.35000574006699, 7164053.002438332885504 ], [ 680774.885123614687473, 7164074.241554445587099 ], [ 680781.420240706764162, 7164092.213113992474973 ], [ 680790.406031760503538, 7164137.958903763443232 ], [ 680790.406036077765748, 7164155.930464874953032 ], [ 680783.870929188327864, 7164180.437140677124262 ], [ 680752.82914782280568, 7164198.408709200099111 ], [ 680703.815809067804366, 7164227.816729992628098 ], [ 680685.844256386626512, 7164258.858521657064557 ], [ 680684.210487214848399, 7164296.435422557406127 ], [ 680700.548282884294167, 7164353.617658568546176 ], [ 680710.350966955418698, 7164415.701230993494391 ], [ 680710.350976763642393, 7164456.545688077807426 ], [ 680713.618541390402243, 7164490.855031250976026 ], [ 680723.4212172270054, 7164518.629259730689228 ], [ 680754.4630099858623, 7164548.037261426448822 ], [ 680782.237244004732929, 7164567.642594197764993 ], [ 680808.377699435455725, 7164585.614149076864123 ], [ 680831.250598085462116, 7164601.951926451176405 ], [ 680875.362616804777645, 7164632.993703303858638 ], [ 680901.503072240273468, 7164650.965258181095123 ], [ 680929.277307051932439, 7164673.838147519156337 ], [ 680935.812426114222035, 7164699.97859850153327 ], [ 680942.347545572556555, 7164727.752827766351402 ], [ 680973.389337956439704, 7164755.527051175944507 ], [ 681018.318255216930993, 7164825.779506655409932 ], [ 681024.853371141245589, 7164838.849731367081404 ], [ 681052.627605962916277, 7164861.722620705142617 ], [ 681093.472068313509226, 7164892.764398340135813 ], [ 681121.246299600461498, 7164900.933283118531108 ], [ 681155.555644063511863, 7164910.735944615676999 ], [ 681191.498767116456293, 7164922.172384007833898 ], [ 681209.470331985503435, 7164941.777719117701054 ], [ 681211.104118049144745, 7164974.453284420073032 ], [ 681207.836566377314739, 7164994.05862461682409 ], [ 681201.30145792174153, 7165012.03018731251359 ], [ 681170.259677317342721, 7165033.26931244134903 ], [ 681149.020563133410178, 7165043.071987232193351 ], [ 681132.682784321252257, 7165056.142217418178916 ], [ 681126.147673504077829, 7165064.311110405251384 ], [ 681127.781458777026273, 7165093.71911914087832 ], [ 681140.851704789558426, 7165178.675586830824614 ], [ 681155.555718777235597, 7165221.153818725608289 ], [ 681184.963733385666274, 7165250.561820820905268 ], [ 681204.569074493949302, 7165261.998264125548303 ], [ 681250.31486634677276, 7165271.800922884605825 ], [ 681294.426881186314858, 7165286.504916893318295 ], [ 681379.38335605233442, 7165322.448018822818995 ], [ 681428.396709424210712, 7165353.489794502034783 ], [ 681464.339832108234987, 7165363.29245559964329 ], [ 681495.381626112270169, 7165397.601792154833674 ], [ 681503.550522609963082, 7165420.474686193279922 ], [ 681503.55053009535186, 7165451.516473619267344 ], [ 681500.282976853428409, 7165464.586700688116252 ], [ 681488.029647470684722, 7165493.994712769985199 ], [ 681476.593204426113516, 7165511.966276653110981 ], [ 681448.818978626746684, 7165526.670287882909179 ], [ 681394.904302071779966, 7165543.008083660155535 ], [ 681358.96118528523948, 7165557.712096842005849 ], [ 681339.35585282696411, 7165582.218775826506317 ], [ 681329.55319151841104, 7165614.894343892112374 ], [ 681326.285644964780658, 7165655.738801825791597 ], [ 681321.384313915157691, 7165670.442807573825121 ], [ 681313.215429225936532, 7165696.583262109197676 ], [ 681293.610097157419659, 7165722.723719382658601 ], [ 681270.73720829852391, 7165747.230399153195322 ], [ 681226.625205235206522, 7165781.539753725752234 ], [ 681179.245645377784967, 7165814.215330790728331 ], [ 681151.47142152802553, 7165837.088233447633684 ], [ 681138.401202239096165, 7165863.228689160197973 ], [ 681140.034985154285096, 7165882.834028206765652 ], [ 681151.471438435371965, 7165907.340699769556522 ], [ 681166.175445358618163, 7165920.410922545939684 ], [ 681184.14700828504283, 7165931.847366251051426 ], [ 681198.851017963606864, 7165956.354037032462656 ], [ 681207.019914458389394, 7165979.226931091398001 ], [ 681210.287476360681467, 7166002.099826326593757 ], [ 681211.92126124468632, 7166029.874056811444461 ], [ 681218.456378756789491, 7166049.479394690133631 ], [ 681229.892828895128332, 7166060.915839962661266 ], [ 681269.920401432085782, 7166088.69006125908345 ], [ 681287.891967906733043, 7166114.83050954900682 ], [ 681299.328421981655993, 7166142.604737693443894 ], [ 681302.595987428794615, 7166180.181637515313923 ], [ 681309.131107305875048, 7166209.589645123109221 ], [ 681325.468895192956552, 7166234.096315519884229 ], [ 681340.172900944249704, 7166242.26520343311131 ], [ 681374.48224310844671, 7166242.265195217914879 ], [ 681405.524028876330703, 7166242.265187779441476 ], [ 681431.664482412626967, 7166252.067851241677999 ], [ 681441.467155146528967, 7166266.771853479556739 ], [ 681441.467159084510058, 7166283.109636353328824 ], [ 681439.833388368831947, 7166314.151424208655953 ], [ 681418.594278088770807, 7166340.291881898418069 ], [ 681392.453835575142875, 7166376.235010487027466 ], [ 681390.820069974754006, 7166428.515916087664664 ], [ 681389.186300831963308, 7166466.092817097902298 ], [ 681372.848525535431691, 7166493.867051906883717 ], [ 681333.637856635148637, 7166526.542627057060599 ], [ 681297.694745308719575, 7166564.1195362880826 ], [ 681271.55430002626963, 7166588.626216867938638 ], [ 681238.878738799365237, 7166600.062672706320882 ], [ 681216.005846371408552, 7166609.865347908809781 ], [ 681180.06272677727975, 7166613.132913085632026 ], [ 681127.781822048127651, 7166603.330255864188075 ], [ 681088.571144875953905, 7166601.69648695550859 ], [ 681060.796917064697482, 7166608.231606749817729 ], [ 681044.459140967577696, 7166632.738284980878234 ], [ 681031.388922840240411, 7166663.780075581744313 ], [ 681029.755154070211574, 7166702.990754893049598 ], [ 681033.022719898726791, 7166742.201433032751083 ], [ 681044.459174368763342, 7166771.609439492225647 ], [ 681065.698296855436638, 7166796.116108741611242 ], [ 681082.036086710868403, 7166828.791670607402921 ], [ 681086.937429956626147, 7166864.734791786409914 ], [ 681062.430768358404748, 7166912.114368019625545 ], [ 681031.388993564643897, 7166957.860167531296611 ], [ 681016.68500076700002, 7167003.605963137000799 ], [ 681019.952561487792991, 7167021.577523536980152 ], [ 681044.459238024661317, 7167036.281522279605269 ], [ 681075.501023825490847, 7167036.281514857895672 ], [ 681124.5143698254833, 7167036.281503135338426 ], [ 681173.527719365549274, 7167050.985496011562645 ], [ 681212.738402066053823, 7167075.492160964757204 ], [ 681245.413970396388322, 7167093.463714327663183 ], [ 681335.271771798259579, 7167095.097471103072166 ], [ 681369.581110457889736, 7167080.393458283506334 ], [ 681400.622889174032025, 7167050.985441640950739 ], [ 681415.326889824005775, 7167037.915211807005107 ], [ 681446.368676412617788, 7167041.182760948315263 ], [ 681495.382022019592114, 7167039.548970912583172 ], [ 681542.761589820496738, 7167039.54895955696702 ], [ 681562.366932555567473, 7167057.520516034215689 ], [ 681575.437164461822249, 7167083.660965527407825 ], [ 681573.803394143236801, 7167116.336531704291701 ], [ 681564.000730458647013, 7167139.209430106915534 ], [ 681539.494063758989796, 7167165.349888611584902 ], [ 681505.184730614069849, 7167202.926797492429614 ], [ 681503.55096265533939, 7167245.40503341332078 ], [ 681511.719861930585466, 7167279.714375536888838 ], [ 681531.325214520446025, 7167338.53038926422596 ] ] ] ] } }
]
}
