{
"type": "FeatureCollection",
"name": "rio_itaqui_sjp",
"crs": { "type": "name", "properties": { "name": "urn:ogc:def:crs:EPSG::31982" } },
"features": [
{ "type": "Feature", "properties": { "AREA": 45994319.725790001, "PERIMETER": 57795.18, "BACIAS1_": 20, "BACIAS1_ID": 0, "NOME_BACIA": "RIO ITAQUI_SJP", "SUB_AREA": 45.99, "SUBCODIGO": 19, "BACCODIGO": 2, "SUBNOME": "RIO ITAQUI", "SUBBAC_DAT": "2002-01-03", "SUBBAC_POP": 22546, "SUBBAC_P_1": 29812, "SUBBAC_DEN": 648.17, "SUBBAC_D_1": 490.2 }, "geometry": { "type": "MultiPolygon", "coordinates": [ [ [ [ 687751.183453188510612, 7181428.72314777970314 ], [ 687753.783023469848558, 7181407.926542292349041 ], [ 687751.18343958503101, 7181374.132060067728162 ], [ 687727.787248437292874, 7181326.039917171001434 ], [ 687704.391061179921962, 7181293.545227901078761 ], [ 687682.294662302127108, 7181263.650113916024566 ], [ 687649.799960607197136, 7181229.855639100074768 ], [ 687635.50229135574773, 7181212.958401208743453 ], [ 687616.005468269111589, 7181184.363074384629726 ], [ 687613.405886010848917, 7181157.067531179636717 ], [ 687614.70566953450907, 7181140.170289430767298 ], [ 687629.003329719766043, 7181120.673468859866261 ], [ 687639.40162930067163, 7181111.574951669201255 ], [ 687662.797804898349568, 7181097.277280053123832 ], [ 687673.196105125709437, 7181090.778338469564915 ], [ 687709.59015802887734, 7181076.480663632974029 ], [ 687748.583786717266776, 7181063.482775952666998 ], [ 687779.778689664904959, 7181053.084465810097754 ], [ 687810.973592289839871, 7181041.386367861181498 ], [ 687865.564674067310989, 7181029.688264114782214 ], [ 687898.059365391847678, 7181021.889529250562191 ], [ 687924.055116766132414, 7181008.891644783318043 ], [ 687955.25001517101191, 7180980.29630540497601 ], [ 687981.2457600570051, 7180941.302664903923869 ], [ 688007.24150331877172, 7180895.810085390694439 ], [ 688028.038095006137155, 7180847.717931568622589 ], [ 688050.134476042934693, 7180806.124716434627771 ], [ 688086.528521787375212, 7180763.231709951534867 ], [ 688109.924673675443046, 7180654.049528822302818 ], [ 688137.220191666739993, 7180556.565436953678727 ], [ 688167.1152990689734, 7180514.972219894640148 ], [ 688206.108921874547377, 7180478.578151781111956 ], [ 688233.404460304416716, 7180462.980691391974688 ], [ 688267.198936408385634, 7180443.483865983784199 ], [ 688307.492353108711541, 7180431.785765763372183 ], [ 688372.481727247824892, 7180382.393813179805875 ], [ 688385.479599344776943, 7180361.597205135039985 ], [ 688407.57598392397631, 7180334.301655825227499 ], [ 688434.871518117259257, 7180301.806954018771648 ], [ 688503.110354081960395, 7180222.519881210289896 ], [ 688523.90694962174166, 7180190.025181021541357 ], [ 688570.699297793558799, 7180149.731747565791011 ], [ 688613.592285050777718, 7180118.536829682067037 ], [ 688652.585912696551532, 7180101.639578569680452 ], [ 688700.678054445423186, 7180084.742325191386044 ], [ 688739.67168013448827, 7180060.04634727537632 ], [ 688779.965090294368565, 7180022.352491032332182 ], [ 688824.157861028797925, 7179974.260331415571272 ], [ 688846.254240692825988, 7179927.467965105548501 ], [ 688870.950191901996732, 7179865.078144546598196 ], [ 688881.348469619289972, 7179768.89384476467967 ], [ 688890.446973290177993, 7179727.300632901489735 ], [ 688893.046535711968318, 7179675.309120267629623 ], [ 688895.646102696075104, 7179641.514636827632785 ], [ 688902.145029279403389, 7179593.422486624680459 ], [ 688909.943744894815609, 7179550.529487296007574 ], [ 688916.312694660387933, 7179510.236063927412033 ], [ 688919.432180513627827, 7179491.519118838943541 ], [ 688931.910132794640958, 7179452.005566628649831 ], [ 688947.507579012890346, 7179426.009806756861508 ], [ 688963.105024185380898, 7179395.854725925251842 ], [ 688997.419410291477107, 7179356.341168273240328 ], [ 689007.817707419046201, 7179337.624221375212073 ], [ 689014.05668173043523, 7179310.588633597828448 ], [ 689025.494807474315166, 7179285.63270500395447 ], [ 689049.410897489869967, 7179268.995415212586522 ], [ 689063.968518736772239, 7179263.796260382980108 ], [ 689082.685460189823061, 7179256.51744404155761 ], [ 689097.243078826344572, 7179240.919986821711063 ], [ 689111.800693806959316, 7179210.764906255528331 ], [ 689124.278645289945416, 7179168.131863340735435 ], [ 689142.995583608397283, 7179148.37508412823081 ], [ 689222.542575820116326, 7179081.82592897862196 ], [ 689228.78155299287755, 7179066.228473836556077 ], [ 689273.494239845429547, 7179022.55559263844043 ], [ 689302.609475792385638, 7178986.161527007818222 ], [ 689331.724713305244222, 7178956.006442811340094 ], [ 689361.879779429640621, 7178919.612376923672855 ], [ 689385.795863676001318, 7178880.098821876570582 ], [ 689405.552628762088716, 7178846.824249302968383 ], [ 689426.349219060502946, 7178793.79290194157511 ], [ 689427.389039045665413, 7178753.239522380754352 ], [ 689427.389028846984729, 7178712.686143081635237 ], [ 689423.229700278840028, 7178681.491236968897283 ], [ 689412.831389053491876, 7178644.05735098849982 ], [ 689401.393243986996822, 7178592.065841934643686 ], [ 689389.955103626241907, 7178558.791277170181274 ], [ 689377.477132042055018, 7178521.357391715049744 ], [ 689375.397464099456556, 7178491.202315330505371 ], [ 689381.636438650661148, 7178465.20655781775713 ], [ 689405.552526019047946, 7178438.170965652912855 ], [ 689428.428784249932505, 7178415.294694699347019 ], [ 689450.265211254125461, 7178388.259103054180741 ], [ 689471.061790812760592, 7178292.594715969637036 ], [ 689485.619402360869572, 7178248.921842341311276 ], [ 689514.734634344116785, 7178196.930323176085949 ], [ 689549.049021673970856, 7178162.615916750393808 ], [ 689612.478655368089676, 7178133.50065422989428 ], [ 689645.753217222401872, 7178117.903192337602377 ], [ 689685.26676330040209, 7178114.783691737800837 ], [ 689710.222688683774322, 7178118.943006441928446 ], [ 689750.776065989397466, 7178119.9828265234828 ], [ 689781.970968528534286, 7178108.544686099514365 ], [ 689807.966716756578535, 7178083.58875388931483 ], [ 689821.484502290608361, 7178056.553164327517152 ], [ 689847.480251039960422, 7178033.676892591640353 ], [ 689880.754808691097423, 7178001.442146893590689 ], [ 689905.7107254199218, 7177971.287063756026328 ], [ 689927.547151870909147, 7177942.171811635605991 ], [ 689938.985277300002053, 7177916.176052837632596 ], [ 689961.341616999590769, 7177879.781988929957151 ], [ 689982.13821326289326, 7177850.666737074032426 ], [ 689999.81532213173341, 7177834.029448846355081 ], [ 690027.890730703016743, 7177809.073516113683581 ], [ 690049.727153469109908, 7177765.400640679523349 ], [ 690052.846632728469558, 7177720.687939704395831 ], [ 690047.647465302143246, 7177655.178636078722775 ], [ 690043.48813067865558, 7177600.067634565755725 ], [ 690044.527946690563112, 7177543.916801517829299 ], [ 690068.444028234807774, 7177494.004944155924022 ], [ 690093.39994651300367, 7177470.088842452503741 ], [ 690126.67450780433137, 7177452.411720080301166 ], [ 690165.148220516857691, 7177436.814256876707077 ], [ 690182.825332258827984, 7177431.615101255476475 ], [ 690197.382954249624163, 7177429.535437129437923 ], [ 690221.299049169872887, 7177432.654921839013696 ], [ 690232.73718193534296, 7177435.774409675970674 ], [ 690247.294805500190705, 7177439.933726966381073 ], [ 690262.372345732990652, 7177450.332025548443198 ], [ 690288.368103639921173, 7177463.849812096916139 ], [ 690308.124879419687204, 7177473.208279266953468 ], [ 690334.120634175953455, 7177474.24810297600925 ], [ 690347.638424935983494, 7177468.009118157438934 ], [ 690381.952815875061788, 7177448.252335040830076 ], [ 690404.829076937981881, 7177436.814196690917015 ], [ 690419.386697877082042, 7177430.575211612507701 ], [ 690452.661259945831262, 7177416.01757993735373 ], [ 690476.57734987186268, 7177399.380290141329169 ], [ 690491.134966865647584, 7177377.543851513415575 ], [ 690498.41377260023728, 7177355.707414716482162 ], [ 690502.573087532655336, 7177332.831148467957973 ], [ 690507.772233959869482, 7177315.154033141210675 ], [ 690517.130702683702111, 7177303.715898185968399 ], [ 690534.807811001432128, 7177284.998949486762285 ], [ 690547.28576736827381, 7177262.122681146487594 ], [ 690559.763723208685406, 7177237.166752337478101 ], [ 690588.878957445267588, 7177194.533705327659845 ], [ 690605.516234790557064, 7177172.697266177274287 ], [ 690623.193342049373314, 7177149.820996534079313 ], [ 690629.432316810591146, 7177124.865069296211004 ], [ 690641.910274486988783, 7177107.187952140346169 ], [ 690658.547554460004903, 7177095.749815356917679 ], [ 690671.025516085210256, 7177093.670151745900512 ], [ 690681.423819193150848, 7177098.869300309568644 ], [ 690694.941613630042411, 7177107.18793879635632 ], [ 690705.339917791076005, 7177116.546408304944634 ], [ 690712.618731151684187, 7177124.865048363804817 ], [ 690725.096695146989077, 7177132.143856877461076 ], [ 690731.335677538998425, 7177137.343006486073136 ], [ 690734.455167812760919, 7177136.303175466135144 ], [ 690746.933126540738158, 7177122.785379255190492 ], [ 690759.411082899197936, 7177099.909110916778445 ], [ 690765.650059762177989, 7177083.271825568750501 ], [ 690773.968696454074234, 7177064.55487922206521 ], [ 690785.926738512818702, 7177044.798101725056767 ], [ 690796.325035825720988, 7177027.120985094457865 ], [ 690800.484351011924446, 7177005.284549091011286 ], [ 690800.484344953671098, 7176981.36845366191119 ], [ 690804.643657240783796, 7176948.093885064125061 ], [ 690814.002120160148479, 7176913.779484920203686 ], [ 690830.639394858037122, 7176881.544743419624865 ], [ 690864.953781277406961, 7176844.110846286639571 ], [ 690884.710544663132168, 7176804.59729235060513 ], [ 690908.626629289472476, 7176767.163397837430239 ], [ 690940.861354024498723, 7176724.530350052751601 ], [ 690962.697778550558724, 7176688.136286304332316 ], [ 690990.773182037868537, 7176643.423579098656774 ], [ 691007.41045935859438, 7176621.587139958515763 ], [ 691019.88841860066168, 7176610.14900422282517 ], [ 691035.485871015116572, 7176609.109170055016875 ], [ 691056.282475378247909, 7176612.22865551803261 ], [ 691079.158740361686796, 7176616.387970691546798 ], [ 691098.915516128297895, 7176625.746437828987837 ], [ 691113.47314126836136, 7176636.1447365116328 ], [ 691122.831615249509923, 7176645.503206270746887 ], [ 691133.229919411125593, 7176654.861675770021975 ], [ 691147.787545078550465, 7176667.339634921401739 ], [ 691154.026527734473348, 7176673.578614762052894 ], [ 691165.464661281788722, 7176679.817593289539218 ], [ 691192.500246191280894, 7176680.857416704297066 ], [ 691212.25701932166703, 7176679.817581484094262 ], [ 691238.252773261279799, 7176677.737914451397955 ], [ 691249.170989609556273, 7176675.658251225948334 ], [ 691278.28623144235462, 7176663.180281049571931 ], [ 691311.560792668606155, 7176645.503158645704389 ], [ 691346.915013722027652, 7176625.746375242248178 ], [ 691379.149745296686888, 7176610.148913568817079 ], [ 691412.424308368936181, 7176599.750602807849646 ], [ 691457.137002347968519, 7176585.192968215793371 ], [ 691499.770036495989189, 7176572.714994616806507 ], [ 691525.765787521610036, 7176559.197194986045361 ], [ 691553.841199432383291, 7176547.75905530154705 ], [ 691580.876779047539458, 7176528.002273991703987 ], [ 691607.912361836060882, 7176520.72345550917089 ], [ 691621.430154684814624, 7176522.803112561814487 ], [ 691633.908118943567388, 7176531.121751287020743 ], [ 691641.186935482313856, 7176551.91835415456444 ], [ 691641.186943419277668, 7176583.11326121725142 ], [ 691641.186951885931194, 7176616.387828754261136 ], [ 691643.266619914211333, 7176646.542905056849122 ], [ 691648.465774776181206, 7176662.140357277356088 ], [ 691669.262380731292069, 7176671.498824135400355 ], [ 691693.178475104039535, 7176672.538648322224617 ], [ 691719.174228247487918, 7176667.339490567333996 ], [ 691744.130148829426616, 7176652.781860955059528 ], [ 691754.528445851523429, 7176634.064914083108306 ], [ 691751.408950021024793, 7176613.268310163170099 ], [ 691744.130133212776855, 7176591.431877058930695 ], [ 691738.930976761272177, 7176569.595443429425359 ], [ 691738.93096961453557, 7176541.520027073100209 ], [ 691742.050452473340556, 7176511.364949458278716 ], [ 691743.090272594476119, 7176471.851400252431631 ], [ 691743.090264916769229, 7176441.696323428303003 ], [ 691747.24957980774343, 7176418.820057201199234 ], [ 691747.769485102733597, 7176380.346338367089629 ], [ 691770.645742140361108, 7176353.310746462084353 ], [ 691799.760977334575728, 7176314.837020393460989 ], [ 691807.039782491163351, 7176290.920923143625259 ], [ 691807.039777990779839, 7176273.24380914773792 ], [ 691804.960114721092395, 7176261.805677091702819 ], [ 691803.920277923811227, 7176235.80992147885263 ], [ 691808.079596252879128, 7176226.451448310166597 ], [ 691830.955853019026108, 7176198.37602617777884 ], [ 691852.792281195055693, 7176176.539585715159774 ], [ 691865.270235650474206, 7176146.384505745023489 ], [ 691879.827853637863882, 7176128.707388063892722 ], [ 691902.704114107764326, 7176115.189589219167829 ], [ 691923.500715546077117, 7176106.87094207201153 ], [ 691939.61807826871518, 7176087.114163530059159 ], [ 691957.295184932881966, 7176062.158233417198062 ], [ 691971.852800530963577, 7176035.12264362629503 ], [ 691977.051943999016657, 7176006.007395737804472 ], [ 691977.051936843781732, 7175977.931979401037097 ], [ 691977.051931542227976, 7175957.135374709963799 ], [ 691982.251076334971003, 7175933.219277996569872 ], [ 691991.609543958096765, 7175917.62182210944593 ], [ 692032.162910015322268, 7175874.988772217184305 ], [ 692069.596789779723622, 7175848.993006866425276 ], [ 692109.110326446942054, 7175809.47944794036448 ], [ 692139.265393635607325, 7175778.284533264115453 ], [ 692185.017910300754011, 7175734.611651817336679 ], [ 692215.172978809918277, 7175708.615888312458992 ], [ 692244.28822059056256, 7175696.137918115593493 ], [ 692263.005161924869753, 7175688.859101725742221 ], [ 692292.120406889705919, 7175688.859094337560236 ], [ 692321.235651853960007, 7175688.859086947515607 ], [ 692343.072085577528924, 7175688.859081405214965 ], [ 692364.908519299933687, 7175688.859075861051679 ], [ 692403.382234533899464, 7175683.659914921969175 ], [ 692434.577138258493505, 7175677.420925591140985 ], [ 692454.333909501321614, 7175669.102278703823686 ], [ 692475.13051118736621, 7175661.823461778461933 ], [ 692488.648300834698603, 7175651.425156001932919 ], [ 692506.325410127523355, 7175636.867528233677149 ], [ 692526.082180304685608, 7175624.389560404233634 ], [ 692546.878782785963267, 7175620.230234181508422 ], [ 692566.635556419729255, 7175621.270059396512806 ], [ 692575.994028546614572, 7175623.349717486649752 ], [ 692585.352501204703003, 7175627.509036043658853 ], [ 692595.750804039649665, 7175631.668354336172342 ], [ 692609.268598205642775, 7175638.947162540629506 ], [ 692623.826221484690905, 7175642.066649542190135 ], [ 692644.622823966084979, 7175637.907323317602277 ], [ 692661.260105206514709, 7175631.66833768133074 ], [ 692678.937215559650213, 7175621.270030845887959 ], [ 692701.813476531184278, 7175609.83189245313406 ], [ 692725.729565817513503, 7175591.114942155778408 ], [ 692758.484211875707842, 7175573.437819842249155 ], [ 692786.559619206353091, 7175544.322566146031022 ], [ 692804.236726361443289, 7175521.446296500042081 ], [ 692822.953663691761903, 7175498.570026589557528 ], [ 692840.63077004707884, 7175472.574266243726015 ], [ 692873.905326390871778, 7175436.180199584923685 ], [ 692899.901071494910866, 7175399.786134781315923 ], [ 692916.538350064191036, 7175383.148846806026995 ], [ 692926.936650500865653, 7175377.94969298876822 ], [ 692948.773084216285497, 7175377.949687426909804 ], [ 692972.689180149114691, 7175385.228492974303663 ], [ 692993.485786618315615, 7175396.666620250791311 ], [ 693017.401882818434387, 7175404.985256027430296 ], [ 693031.959507427527569, 7175413.303894190117717 ], [ 693052.236198276630603, 7175422.66236112639308 ], [ 693088.63025473698508, 7175423.702182088047266 ], [ 693135.422612700145692, 7175423.70217015966773 ], [ 693177.015818443382159, 7175418.503008387982845 ], [ 693223.808173738885671, 7175408.104694116860628 ], [ 693245.644604254513979, 7175395.626725742593408 ], [ 693294.516614829655737, 7175365.471636495552957 ], [ 693325.71151639893651, 7175350.914005262777209 ], [ 693355.866588590783067, 7175339.475864998064935 ], [ 693408.897924940101802, 7175329.077549124136567 ], [ 693445.291980596142821, 7175326.997879363596439 ], [ 693473.36739456851501, 7175323.878381494432688 ], [ 693507.681787999346852, 7175314.519900629296899 ], [ 693528.478387794457376, 7175299.962272045202553 ], [ 693538.876686891075224, 7175289.563967051915824 ], [ 693548.235155809554271, 7175279.165662324056029 ], [ 693561.752945702057332, 7175269.807186767458916 ], [ 693576.310567375039682, 7175266.687692346982658 ], [ 693626.222416927921586, 7175270.847000528126955 ], [ 693660.536815166706219, 7175280.205463862046599 ], [ 693689.652065196540207, 7175299.962230859324336 ], [ 693710.448673546779901, 7175318.679169749841094 ], [ 693720.846980130067095, 7175337.396111297421157 ], [ 693734.364779382012784, 7175364.431693920865655 ], [ 693741.643595703411847, 7175384.188466501422226 ], [ 693753.081733265309595, 7175406.024898486211896 ], [ 693759.320717538008466, 7175418.502859696745872 ], [ 693766.599530916428193, 7175426.821499708108604 ], [ 693779.077492236741818, 7175423.702005815692246 ], [ 693786.356300266459584, 7175411.22404114715755 ], [ 693790.515614284784533, 7175385.228284236043692 ], [ 693790.515608131070621, 7175361.31218885909766 ], [ 693793.63509277603589, 7175338.435922918841243 ], [ 693799.874069288372993, 7175320.758807349950075 ], [ 693809.232537133502774, 7175306.201181681826711 ], [ 693821.190577744389884, 7175281.24525301437825 ], [ 693844.066837620455772, 7175265.647793657146394 ], [ 693860.704117503250018, 7175254.209656829945743 ], [ 693878.381228366051801, 7175245.891010438092053 ], [ 693900.217661274131387, 7175242.77151414938271 ], [ 693926.213415960082784, 7175243.811337729915977 ], [ 693942.850700393668376, 7175250.050314872525632 ], [ 693954.288832337595522, 7175250.05031194537878 ], [ 693985.483737371047027, 7175249.010473724454641 ], [ 694014.598982051480561, 7175247.970636036247015 ], [ 694039.554906025528908, 7175246.930799409747124 ], [ 694073.869298642268404, 7175234.45282781869173 ], [ 694085.307427637977526, 7175223.014692320488393 ], [ 694101.42478814185597, 7175194.939271883107722 ], [ 694119.101897123502567, 7175179.341813853010535 ], [ 694135.739174590446055, 7175158.545204917900264 ], [ 694140.938320380402729, 7175138.788429150357842 ], [ 694143.017975641065277, 7175119.031654180027544 ], [ 694143.01796840399038, 7175090.956237877719104 ], [ 694139.898472246015444, 7175069.119803776033223 ], [ 694135.739144839346409, 7175043.124049006961286 ], [ 694129.50015922402963, 7175025.446936639025807 ], [ 694125.340835302486084, 7175012.968974903225899 ], [ 694106.623885694425553, 7174988.013054101727903 ], [ 694095.185748127987608, 7174966.176622132770717 ], [ 694089.986591887543909, 7174945.380018800497055 ], [ 694089.986586527200416, 7174924.583414135500789 ], [ 694100.384881053934805, 7174896.507995177060366 ], [ 694112.862837808672339, 7174875.711387317627668 ], [ 694131.579775620135479, 7174854.914777860045433 ], [ 694152.376374319195747, 7174836.197828336618841 ], [ 694163.814499554806389, 7174810.202069576829672 ], [ 694166.414069633930922, 7174789.405464250594378 ], [ 694177.852194332634099, 7174761.330045029520988 ], [ 694188.250490194419399, 7174738.453777238726616 ], [ 694203.8479374719318, 7174717.65716858394444 ], [ 694216.325892342603765, 7174689.581749096512794 ], [ 694230.883504079421982, 7174647.988536052405834 ], [ 694265.197888084687293, 7174602.235997011885047 ], [ 694296.39278718852438, 7174578.319893660023808 ], [ 694335.906326089054346, 7174548.164806778542697 ], [ 694365.021564300754108, 7174522.169043492525816 ], [ 694387.897826555767097, 7174515.930056228302419 ], [ 694418.052899236558005, 7174506.571576396003366 ], [ 694436.769840519526042, 7174499.292759963311255 ], [ 694458.606271524098702, 7174488.894452033564448 ], [ 694487.721513758180663, 7174478.496142234653234 ], [ 694507.478285215911455, 7174471.217325535602868 ], [ 694531.394378181546926, 7174467.057998463511467 ], [ 694556.350302128004842, 7174466.018161822110415 ], [ 694578.186735010705888, 7174462.898665515705943 ], [ 694599.503248774912208, 7174444.181715857237577 ], [ 694613.021036758786067, 7174427.54442866332829 ], [ 694622.379504846292548, 7174414.026633236557245 ], [ 694627.578650887007825, 7174395.309687716886401 ], [ 694640.056602782686241, 7174355.796135678887367 ], [ 694642.136258833343163, 7174339.158851427957416 ], [ 694647.335404067416675, 7174317.322415211237967 ], [ 694651.494721006369218, 7174302.764790888875723 ], [ 694658.773527933633886, 7174286.127505302429199 ], [ 694665.012507104547694, 7174278.848692074418068 ], [ 694672.291316720307805, 7174272.609708809293807 ], [ 694681.649787491420284, 7174269.49021570943296 ], [ 694691.00825853284914, 7174267.410552838817239 ], [ 694703.486220099264756, 7174265.330889167264104 ], [ 694713.884521853644401, 7174265.330886494368315 ], [ 694734.681126973591745, 7174271.569862542673945 ], [ 694749.23875158012379, 7174279.88850065972656 ], [ 694780.433657648973167, 7174283.007983336225152 ], [ 694803.309922852902673, 7174288.207128616049886 ], [ 694823.06669887539465, 7174298.605425858870149 ], [ 694840.743812933331355, 7174302.76474224217236 ], [ 694859.46075609093532, 7174302.764737428165972 ], [ 694874.018378009204753, 7174300.685073220171034 ], [ 694910.412434418220073, 7174301.724894089624286 ], [ 694947.846317504299805, 7174289.246921670623124 ], [ 694971.762407769681886, 7174274.689292263239622 ], [ 694988.399686536518857, 7174259.091834498569369 ], [ 695007.116624308866449, 7174238.295225034467876 ], [ 695024.793729480472393, 7174208.140143750235438 ], [ 695053.908969541545957, 7174189.423192075453699 ], [ 695089.783106548478827, 7174173.825729355216026 ], [ 695119.938180821947753, 7174170.706230893731117 ], [ 695153.212745621334761, 7174167.586731625720859 ], [ 695196.885613250313327, 7174168.626550605520606 ], [ 695224.961029330617748, 7174173.825694533064961 ], [ 695249.916956232511438, 7174184.223990423604846 ], [ 695270.71356297377497, 7174196.701947847381234 ], [ 695289.430506666772999, 7174198.781603490002453 ], [ 695332.06354358443059, 7174197.741762266494334 ], [ 695347.660997832543217, 7174203.980739638209343 ], [ 695359.099132728297263, 7174215.418869243003428 ], [ 695389.254213477019221, 7174237.255296343937516 ], [ 695412.130481651984155, 7174253.892574159428477 ], [ 695439.166069178958423, 7174265.33069974090904 ], [ 695465.161823562928475, 7174265.33069303445518 ], [ 695489.077915438101627, 7174257.012045006267726 ], [ 695503.635536273475736, 7174250.773059856146574 ], [ 695526.51179635245353, 7174236.215430699288845 ], [ 695543.149075378663838, 7174221.657803155481815 ], [ 695564.985503930016421, 7174201.901023106649518 ], [ 695582.66260961862281, 7174173.825602275319397 ], [ 695611.77784372237511, 7174132.232385470531881 ], [ 695615.937160911620595, 7174118.714591380208731 ], [ 695624.25579691096209, 7174097.917984591796994 ], [ 695637.7735832456965, 7174075.041715993545949 ], [ 695649.211709228577092, 7174052.165447937324643 ], [ 695664.809156181057915, 7174030.329009037464857 ], [ 695684.565922484034672, 7174003.29341790266335 ], [ 695699.123540069907904, 7173984.576469969004393 ], [ 695705.882430803379975, 7173963.779863584786654 ], [ 695722.519703063182533, 7173923.22648024559021 ], [ 695736.037485338398255, 7173884.752758176997304 ], [ 695736.037479391903616, 7173861.876493077725172 ], [ 695746.435771409422159, 7173824.442602050490677 ], [ 695752.67474786308594, 7173806.765486499294639 ], [ 695780.750156635185704, 7173783.889214147813618 ], [ 695794.267945663304999, 7173771.411247873678803 ], [ 695817.144206531811506, 7173759.973109414801002 ], [ 695841.060298657044768, 7173752.694291611202061 ], [ 695861.85690025659278, 7173745.415474613197148 ], [ 695886.812821203609928, 7173732.937505383044481 ], [ 695914.888232132536359, 7173718.379874881356955 ], [ 695981.437355461996049, 7173688.224780954420567 ], [ 696025.110215756576508, 7173661.189183637499809 ], [ 696051.105965788592584, 7173644.551893207244575 ], [ 696080.22120796807576, 7173634.15358335711062 ], [ 696116.615262452629395, 7173627.914592547342181 ], [ 696144.690677164355293, 7173627.914585281163454 ], [ 696163.40762030496262, 7173627.914580434560776 ], [ 696177.965243559796363, 7173631.03406735882163 ], [ 696189.403377377078868, 7173638.312876015901566 ], [ 696202.921173980692402, 7173654.950156219303608 ], [ 696210.199990078224801, 7173673.667098497971892 ], [ 696218.518637977540493, 7173698.623021900653839 ], [ 696222.677963280817494, 7173716.300134760327637 ], [ 696235.155930254841223, 7173735.017075695097446 ], [ 696250.75338775140699, 7173753.734015824273229 ], [ 696265.311012636288069, 7173763.092484137043357 ], [ 696282.988125605741516, 7173763.092479555867612 ], [ 696294.426257798681036, 7173764.132306825369596 ], [ 696305.864391075563617, 7173769.331455020233989 ], [ 696325.621166563825682, 7173777.650091752409935 ], [ 696354.736413081991486, 7173783.889065595343709 ], [ 696384.891488691675477, 7173785.968718242831528 ], [ 696395.289790439768694, 7173785.968715547583997 ], [ 696416.086393391480669, 7173783.889049692079425 ], [ 696429.604185121366754, 7173781.809385725297034 ], [ 696454.560107687138952, 7173775.570397865027189 ], [ 696473.277050833334215, 7173775.570393009111285 ], [ 696485.755014826660044, 7173782.849201394245028 ], [ 696508.631284368690103, 7173804.685630327090621 ], [ 696524.228742417064495, 7173825.482230913825333 ], [ 696538.266455748351291, 7173848.358492368832231 ], [ 696564.262218939024024, 7173882.152968158945441 ], [ 696588.958191698533483, 7173905.549141965806484 ], [ 696635.750552284996957, 7173915.947432139888406 ], [ 696643.549278596998192, 7173915.947430117055774 ], [ 696682.542909477488138, 7173913.34784441255033 ], [ 696712.438026665826328, 7173912.048048861324787 ], [ 696755.331023078528233, 7173918.546976671554148 ], [ 696774.827841574908234, 7173928.945273925550282 ], [ 696791.725086673744954, 7173947.14229859597981 ], [ 696813.821486043627374, 7173978.337199810892344 ], [ 696833.318307260866277, 7173999.133799385279417 ], [ 696864.513212510850281, 7173999.133791279047728 ], [ 696887.259495890582912, 7173992.634846417233348 ], [ 696914.555033567594364, 7173975.737598055973649 ], [ 696945.749934738967568, 7173960.140136467292905 ], [ 696978.244621245888993, 7173935.444160011596978 ], [ 697005.540160279138945, 7173923.746062806807458 ], [ 697038.034852905897424, 7173922.446266565471888 ], [ 697066.630184416775592, 7173928.945198077708483 ], [ 697096.525304666371085, 7173939.343492617830634 ], [ 697126.420422197435983, 7173939.343484841287136 ], [ 697153.71596156747546, 7173928.945175420492887 ], [ 697194.009374039364047, 7173902.949409137479961 ], [ 697234.302788551547565, 7173884.752369591966271 ], [ 697290.19365874864161, 7173878.25341609120369 ], [ 697330.487078024540097, 7173878.253405595198274 ], [ 697381.178799390443601, 7173879.553180180490017 ], [ 697425.371584888547659, 7173891.25125877186656 ], [ 697465.665009618503973, 7173912.047852907329798 ], [ 697509.857798530138098, 7173936.743809392675757 ], [ 697537.153345054830424, 7173953.641043544746935 ], [ 697556.650161858648062, 7173957.540401831269264 ], [ 697583.945703952689655, 7173957.540394712239504 ], [ 697601.492835426004604, 7173947.142087815329432 ], [ 697609.291550483438186, 7173904.24908871948719 ], [ 697597.593449761741795, 7173861.356094708666205 ], [ 697585.895351769751869, 7173828.861403017304838 ], [ 697583.295769511605613, 7173802.865647902712226 ], [ 697605.392153563327156, 7173775.570098558440804 ], [ 697624.888965929043479, 7173762.572215577587485 ], [ 697649.584929848904721, 7173752.173906818032265 ], [ 697687.278770951204933, 7173741.775594666600227 ], [ 697719.773460156749934, 7173727.477920503355563 ], [ 697763.966236777836457, 7173705.381516547873616 ], [ 697791.261773399310187, 7173684.584904789924622 ], [ 697831.555184812983498, 7173654.689775113016367 ], [ 697870.54880816291552, 7173623.494857987388968 ], [ 697903.043498383834958, 7173613.096547183580697 ], [ 697938.137764723738655, 7173605.297811280936003 ], [ 697961.533943309215829, 7173603.998017378151417 ], [ 697978.431186036439613, 7173613.096527487039566 ], [ 698003.127155756577849, 7173624.794611135497689 ], [ 698016.125037039280869, 7173640.392061211168766 ], [ 698051.869204757967964, 7173661.188656495884061 ], [ 698084.363897372619249, 7173659.888860210776329 ], [ 698105.160500865080394, 7173659.888854773715138 ], [ 698141.554550477536395, 7173635.192877256311476 ], [ 698157.151997280190699, 7173613.096480758860707 ], [ 698188.3468953325646, 7173585.800929022952914 ], [ 698202.644557495019399, 7173575.402622970752418 ], [ 698222.141366081079468, 7173548.10707429703325 ], [ 698235.139237102586776, 7173524.710890689864755 ], [ 698249.43689584126696, 7173501.314706745557487 ], [ 698278.032219818211161, 7173479.218306845985353 ], [ 698296.229241709574126, 7173455.822121881879866 ], [ 698320.925206294399686, 7173448.023388681933284 ], [ 698330.02372031880077, 7173448.023386300541461 ], [ 698400.212258796556853, 7173454.522306866943836 ], [ 698434.006743571255356, 7173470.119751483201981 ], [ 698467.801228689728305, 7173487.016983889043331 ], [ 698496.396564307622612, 7173509.113368810154498 ], [ 698513.293809780152515, 7173528.610181219875813 ], [ 698528.891267194296233, 7173546.807206182740629 ], [ 698549.687874109251425, 7173559.805078623816371 ], [ 698580.882777971564792, 7173554.605919289402664 ], [ 698605.578742215060629, 7173545.507398292422295 ], [ 698618.576616652659141, 7173535.109092570841312 ], [ 698631.574488005368039, 7173513.01269674859941 ], [ 698644.572358327917755, 7173487.016937557607889 ], [ 698667.968532107071951, 7173467.520114586688578 ], [ 698686.16555741475895, 7173457.121807502582669 ], [ 698701.763010029448196, 7173457.121803411282599 ], [ 698714.760888921562582, 7173463.620738947764039 ], [ 698719.960043910541572, 7173479.218191051855683 ], [ 698719.960051113390364, 7173506.513734621927142 ], [ 698719.960057629272342, 7173531.209702615626156 ], [ 698718.660277113784105, 7173558.505246529355645 ], [ 698713.461133101140149, 7173584.501003677025437 ], [ 698714.760929050855339, 7173615.695910280570388 ], [ 698718.660299065639265, 7173641.691665045917034 ], [ 698725.159240742446855, 7173653.389753442257643 ], [ 698740.756697134929709, 7173667.687415035441518 ], [ 698766.752452185610309, 7173670.286983793601394 ], [ 698795.347780957818031, 7173666.387612922117114 ], [ 698814.194698754814453, 7173650.790154505521059 ], [ 698853.188324810005724, 7173629.993539639748633 ], [ 698902.580252264859155, 7173607.897134255617857 ], [ 698941.573883465724066, 7173606.597336227074265 ], [ 698959.770914609427564, 7173618.295421553775668 ], [ 698963.67028154223226, 7173632.593086211942136 ], [ 698963.670287036686204, 7173653.389690840616822 ], [ 698958.471141658141278, 7173674.186296836473048 ], [ 698955.871576523408294, 7173713.17993120290339 ], [ 698961.070733920903876, 7173737.87589783873409 ], [ 698975.368404317530803, 7173758.672498714178801 ], [ 699010.462678554351442, 7173780.768881920725107 ], [ 699046.856742227333598, 7173809.364203730598092 ], [ 699072.852504844078794, 7173840.559103854000568 ], [ 699094.948908085585572, 7173886.051670687273145 ], [ 699107.946794894756749, 7173922.445725385099649 ], [ 699120.944677581544966, 7173943.24232660792768 ], [ 699146.940438141580671, 7173966.638499993830919 ], [ 699161.238107516663149, 7173983.535737505182624 ], [ 699176.835565641988069, 7174004.33233804255724 ], [ 699219.728564146440476, 7174018.629992453381419 ], [ 699244.424534931196831, 7174034.227439438924193 ], [ 699279.518807124812156, 7174048.525095901452005 ], [ 699305.514562189695425, 7174051.124664641916752 ], [ 699328.910740442457609, 7174048.525082908570766 ], [ 699349.707342569949105, 7174043.325926274061203 ], [ 699371.803729661740363, 7174027.728466980159283 ], [ 699387.40117678209208, 7174006.931858234107494 ], [ 699423.795226026093587, 7173980.936092855408788 ], [ 699456.939808379975148, 7173964.038842861540616 ], [ 699482.935563789098524, 7173967.938199386000633 ], [ 699503.732167977606878, 7173970.537769488990307 ], [ 699520.629410732421093, 7173979.636279569938779 ], [ 699563.522406140808016, 7173982.235843852162361 ], [ 699589.518163272063248, 7173992.634139321744442 ], [ 699602.516044594231062, 7174008.231589380651712 ], [ 699610.314777108142152, 7174031.627767546102405 ], [ 699618.113513068296015, 7174068.021823614835739 ], [ 699628.511823778506368, 7174101.816303417086601 ], [ 699650.608223616960458, 7174134.310992347076535 ], [ 699683.102925552870147, 7174168.105466330423951 ], [ 699703.899537331424654, 7174199.300367817282677 ], [ 699719.497000991832465, 7174240.89357299823314 ], [ 699737.694035955821164, 7174266.889324008487165 ], [ 699767.589159360621125, 7174288.985708566382527 ], [ 699792.285130165168084, 7174304.583155540749431 ], [ 699835.178130076965317, 7174324.079961085692048 ], [ 699863.773460939526558, 7174327.979316912591457 ], [ 699894.968362754792906, 7174314.981430778279901 ], [ 699914.465171645162627, 7174288.985669823363423 ], [ 699926.163255598046817, 7174268.189062088727951 ], [ 699933.961976738180965, 7174248.692243173718452 ], [ 699946.959837020724081, 7174185.002638015896082 ], [ 699956.058342427597381, 7174152.507940855808556 ], [ 699969.05621547694318, 7174136.910483943298459 ], [ 700001.550901205511764, 7174109.614931771531701 ], [ 700050.942826587124728, 7174079.719799553975463 ], [ 700080.837937216740102, 7174053.724035858176649 ], [ 700141.927954826387577, 7174034.227202869951725 ], [ 700167.273812579805963, 7174023.828893854282796 ], [ 700199.768504861043766, 7174021.229309686459601 ], [ 700236.162557188537903, 7174006.931634379550815 ], [ 700256.959156888420694, 7173992.633963191881776 ], [ 700279.055540849338286, 7173965.338413761928678 ], [ 700293.35320195381064, 7173951.040744291618466 ], [ 700329.74725462088827, 7173938.042856771498919 ], [ 700364.841518876259215, 7173922.445394011214375 ], [ 700397.336205964093097, 7173900.348992988467216 ], [ 700422.032164317322895, 7173869.154079498723149 ], [ 700446.728121284861118, 7173832.760014852508903 ], [ 700467.52471855271142, 7173809.363829135894775 ], [ 700489.621104231569916, 7173788.567218653857708 ], [ 700514.317064307746477, 7173763.871244113892317 ], [ 700542.912386151961982, 7173733.976117385551333 ], [ 700576.706863367464393, 7173720.97823054343462 ], [ 700568.160742787993513, 7173659.628249140456319 ], [ 700568.160730672185309, 7173614.135676514357328 ], [ 700568.160722017753869, 7173581.640981780365109 ], [ 700574.659650655346923, 7173544.272081116214395 ], [ 700581.158576694899239, 7173497.154772039502859 ], [ 700587.657505332725123, 7173459.785871381871402 ], [ 700587.65749408013653, 7173417.542768239043653 ], [ 700603.904829733190127, 7173376.924395531415939 ], [ 700610.403760964865796, 7173349.303903293795884 ], [ 700605.529555291403085, 7173342.804965641349554 ], [ 700594.156411030562595, 7173336.306029710918665 ], [ 700573.034864511922933, 7173350.928647926077247 ], [ 700543.789647354278713, 7173375.299676710739732 ], [ 700503.171290257479995, 7173409.419116922654212 ], [ 700472.301337582408451, 7173430.540676662698388 ], [ 700439.806651555118151, 7173456.53644104115665 ], [ 700423.559304215130396, 7173453.286975867114961 ], [ 700408.936686767963693, 7173432.165428163483739 ], [ 700397.563534725108184, 7173396.421266974881291 ], [ 700378.066708583384752, 7173357.427638464607298 ], [ 700361.819355195621029, 7173331.431886984035373 ], [ 700352.070939531899057, 7173302.186664313077927 ], [ 700337.448324250523001, 7173289.18879029341042 ], [ 700313.07729892747011, 7173268.067245172336698 ], [ 700298.454679757356644, 7173240.446758527308702 ], [ 700278.957855784450658, 7173209.576803700998425 ], [ 700252.962098411400802, 7173198.203667422756553 ], [ 700228.591074388474226, 7173181.956326508894563 ], [ 700213.968456952599809, 7173160.834778808988631 ], [ 700192.034531014272943, 7173129.964824626222253 ], [ 700185.535582493059337, 7173092.595927426591516 ], [ 700175.787169431918301, 7173073.099113177508116 ], [ 700185.535569104249589, 7173042.229150627739727 ], [ 700203.407644168124534, 7173019.482859609648585 ], [ 700229.403392464155331, 7172996.736566442064941 ], [ 700231.028121494106017, 7172975.615014454349875 ], [ 700216.405508812400512, 7172972.365548849105835 ], [ 700175.78714567667339, 7172983.738702730275691 ], [ 700138.418254856485873, 7173006.48499889858067 ], [ 700099.424619889352471, 7172993.487131318077445 ], [ 700049.057849735952914, 7173008.109757237136364 ], [ 699988.942681626416743, 7173060.101284642703831 ], [ 699974.320070671150461, 7173063.350757971405983 ], [ 699951.573783031199127, 7173053.602355564013124 ], [ 699951.573774403892457, 7173021.107660856097937 ], [ 699951.573763617547229, 7172980.489292472600937 ], [ 699951.573753264732659, 7172941.49565882794559 ], [ 699938.575870056636631, 7172918.749375965446234 ], [ 699920.703783339471556, 7172897.627829126082361 ], [ 699894.708024686784483, 7172881.380488632246852 ], [ 699849.215451145311818, 7172868.382622757926583 ], [ 699821.594953540363349, 7172835.887935344129801 ], [ 699821.594949228572659, 7172819.640587992966175 ], [ 699865.462775182211772, 7172783.896412253379822 ], [ 699907.705870369914919, 7172762.774849554523826 ], [ 699945.074759461102076, 7172733.529614467173815 ], [ 699967.821037167333998, 7172705.909117972478271 ], [ 699977.569436843972653, 7172675.039155442267656 ], [ 699988.942565124598332, 7172621.422906197607517 ], [ 700000.315694697783329, 7172572.680861162021756 ], [ 700037.684579458786175, 7172527.18827873468399 ], [ 700037.684572119964287, 7172499.567788248881698 ], [ 700016.563015690888278, 7172476.821507547982037 ], [ 699990.567256619688123, 7172458.949432335793972 ], [ 699967.820967704057693, 7172444.326825734227896 ], [ 699951.573620819952339, 7172442.702095288783312 ], [ 699914.204724844777957, 7172445.95157462079078 ], [ 699876.835828865878284, 7172449.201053949072957 ], [ 699842.7164004559163, 7172445.951593482866883 ], [ 699810.22170668898616, 7172442.70213258638978 ], [ 699774.477543632616289, 7172439.4526725448668 ], [ 699728.984977446729317, 7172454.075297148898244 ], [ 699689.991348547395319, 7172463.823715834878385 ], [ 699637.999840330681764, 7172465.448464271612465 ], [ 699603.88041191874072, 7172462.199003795161843 ], [ 699568.948610586696304, 7172437.827991986647248 ], [ 699549.451792262261733, 7172428.079588716849685 ], [ 699525.080766127211973, 7172403.708574127405882 ], [ 699505.58394565153867, 7172385.836497187614441 ], [ 699473.089249307871796, 7172372.838627872988582 ], [ 699419.473001718521118, 7172356.591294653713703 ], [ 699375.605161572457291, 7172338.719224127009511 ], [ 699318.739443407743238, 7172317.597687551751733 ], [ 699273.24686475249473, 7172285.103004842996597 ], [ 699240.752170134917833, 7172278.604074457660317 ], [ 699196.884333005757071, 7172272.105147060006857 ], [ 699169.263841036707163, 7172260.732011184096336 ], [ 699143.268086719559506, 7172260.732018020004034 ], [ 699120.521801692899317, 7172260.732023999094963 ], [ 699104.274457822320983, 7172270.480436673387885 ], [ 699079.903448888915591, 7172311.09881142154336 ], [ 699060.406645177165046, 7172356.591389091685414 ], [ 699039.2851025237469, 7172385.836619853042066 ], [ 698997.042004327755421, 7172395.585039354860783 ], [ 698969.421514931949787, 7172393.960311876609921 ], [ 698945.050490964204073, 7172377.712970938533545 ], [ 698920.679465279798023, 7172354.966691061854362 ], [ 698893.058970307232812, 7172332.220412043854594 ], [ 698867.06321041029878, 7172311.098867327906191 ], [ 698829.694308859179728, 7172293.226795066148043 ], [ 698800.449085680418648, 7172294.85153747536242 ], [ 698750.082312547136098, 7172298.101020161062479 ], [ 698714.338146931258962, 7172285.103151666931808 ], [ 698666.408472765702754, 7172276.979490569792688 ], [ 698643.662181738065556, 7172254.233210263773799 ], [ 698632.289030653424561, 7172221.738518573343754 ], [ 698627.414815146825276, 7172177.87068204768002 ], [ 698620.915842284448445, 7172047.891905082389712 ], [ 698617.666362281655893, 7172007.273537605069578 ], [ 698609.542681776219979, 7171979.6530492734164 ], [ 698599.794266626238823, 7171952.032561367377639 ], [ 698596.544787910417654, 7171916.288398092612624 ], [ 698596.54477976821363, 7171885.418438170105219 ], [ 698596.544776339549571, 7171872.420560306869447 ], [ 698590.045836051227525, 7171865.921623078174889 ], [ 698555.926403387682512, 7171846.424815230071545 ], [ 698526.681176371173933, 7171833.426945032551885 ], [ 698503.93489092879463, 7171831.80221626162529 ], [ 698479.563870414160192, 7171828.552753183990717 ], [ 698456.817582831718028, 7171818.804350747726858 ], [ 698429.197093886090443, 7171818.804357982240617 ], [ 698382.079787931754254, 7171813.930166126228869 ], [ 698341.461420981795527, 7171810.680707296356559 ], [ 698317.090397472959012, 7171796.058101083151996 ], [ 698294.344104759977199, 7171766.812881849706173 ], [ 698274.84727748343721, 7171722.945049175992608 ], [ 698268.348329497268423, 7171687.200886765494943 ], [ 698268.3483209409751, 7171654.706192116253078 ], [ 698276.471985602402128, 7171622.211495343595743 ], [ 698294.344059405382723, 7171594.591000217944384 ], [ 698304.092462558182888, 7171576.718915609642863 ], [ 698294.344049564795569, 7171557.22210137732327 ], [ 698281.346170279430225, 7171549.098431119695306 ], [ 698261.849354988080449, 7171550.723170954734087 ], [ 698230.979400188778527, 7171563.721056890673935 ], [ 698208.233119459124282, 7171579.968410165980458 ], [ 698185.486834454233758, 7171579.96841611713171 ], [ 698157.86634252499789, 7171568.595280218869448 ], [ 698128.621120227966458, 7171573.469492064788938 ], [ 698063.631738772150129, 7171589.716856382787228 ], [ 698008.390767306787893, 7171614.08789180777967 ], [ 697966.147678968729451, 7171661.205210087820888 ], [ 697918.21802321402356, 7171722.94514244236052 ], [ 697895.471742900437675, 7171740.817230444401503 ], [ 697853.22864728840068, 7171760.314058269374073 ], [ 697828.857637878856622, 7171799.307698216289282 ], [ 697823.983444618643261, 7171839.926067806780338 ], [ 697810.985574723803438, 7171867.546561658382416 ], [ 697775.241419386002235, 7171893.542326714843512 ], [ 697744.371467123623006, 7171916.288621036335826 ], [ 697731.373598931822926, 7171950.408053820021451 ], [ 697729.748872820055112, 7171982.902748903259635 ], [ 697729.748886045650579, 7172033.269525630399585 ], [ 697726.49942656874191, 7172070.638425341807306 ], [ 697674.507932879962027, 7172127.504154575057328 ], [ 697635.514306102646515, 7172145.37624681647867 ], [ 697601.394881979096681, 7172158.3741335850209 ], [ 697565.650722357095219, 7172168.122551310807467 ], [ 697528.2818280904321, 7172177.870969457551837 ], [ 697507.160283676581457, 7172200.61726123187691 ], [ 697486.038743949262425, 7172241.23563507758081 ], [ 697477.9150779703632, 7172268.856127668172121 ], [ 697455.168799758888781, 7172294.85188933648169 ], [ 697405.614398202975281, 7172314.348719055764377 ], [ 697368.245501797762699, 7172315.973463527858257 ], [ 697340.625013686716557, 7172319.222940189763904 ], [ 697319.503467560512945, 7172335.470293031074107 ], [ 697301.631391574977897, 7172354.967114490456879 ], [ 697295.13245895516593, 7172377.713402458466589 ], [ 697293.507731121731922, 7172403.709158623591065 ], [ 697293.507740059518255, 7172437.828588036820292 ], [ 697295.132484071189538, 7172473.572751764208078 ], [ 697275.635683226399124, 7172530.438472538255155 ], [ 697238.266795744770207, 7172566.18264642264694 ], [ 697196.023700070683844, 7172585.679474232718349 ], [ 697134.283796304254793, 7172634.421532332897186 ], [ 697087.166498387116008, 7172660.417300344444811 ], [ 697036.799729049438611, 7172678.289395526051521 ], [ 696983.183487444766797, 7172684.788348408415914 ], [ 696932.816717678098939, 7172701.035708850249648 ], [ 696901.946766207576729, 7172727.031472627073526 ], [ 696859.703670513699763, 7172746.528300423175097 ], [ 696814.211102555855177, 7172754.651985917240381 ], [ 696786.590614426182583, 7172757.901462562382221 ], [ 696752.471186863956973, 7172757.901471424847841 ], [ 696734.599105760455132, 7172757.901476066559553 ], [ 696721.601224773563445, 7172743.278866830281913 ], [ 696713.477546027395874, 7172722.157317388802767 ], [ 696698.854929971275851, 7172705.909973841160536 ], [ 696680.982844201265834, 7172688.03789640031755 ], [ 696672.859162911074236, 7172657.167938552796841 ], [ 696654.987080536200665, 7172652.293738989159465 ], [ 696627.366592409554869, 7172655.543215628713369 ], [ 696596.496635416289791, 7172660.417427843436599 ], [ 696572.125615731929429, 7172660.417434168979526 ], [ 696546.129860554938205, 7172657.167971443384886 ], [ 696533.131982117309235, 7172652.293770613148808 ], [ 696512.82279396103695, 7172632.796959070488811 ], [ 696509.573317885398865, 7172606.801204161718488 ], [ 696501.449633210897446, 7172562.933368443511426 ], [ 696493.325952353421599, 7172533.688145333901048 ], [ 696488.45173909002915, 7172497.943982446566224 ], [ 696478.703324012923986, 7172470.323494495823979 ], [ 696475.453848362434655, 7172445.952474327757955 ], [ 696467.330165387247689, 7172408.583577554672956 ], [ 696457.58175242994912, 7172389.086763272061944 ], [ 696446.208603981067427, 7172366.340479949489236 ], [ 696439.709655654150993, 7172328.971582757309079 ], [ 696438.084909988567233, 7172286.728480103425682 ], [ 696423.462290556286462, 7172257.483258690685034 ], [ 696405.590204380219802, 7172237.986446520313621 ], [ 696379.594447098905221, 7172226.613310125656426 ], [ 696340.600814356002957, 7172221.739116031676531 ], [ 696314.60505538189318, 7172203.867040701210499 ], [ 696295.108231600257568, 7172172.997085818089545 ], [ 696272.361939376220107, 7172145.376601245254278 ], [ 696249.615645038313232, 7172109.632443005219102 ], [ 696230.11881914397236, 7172070.638814458623528 ], [ 696215.496199724264443, 7172041.393593049608171 ], [ 696197.624111865414307, 7172015.397841950878501 ], [ 696191.125171170337126, 7172007.274169968441129 ], [ 696151.319157153367996, 7171948.783729890361428 ], [ 696139.946008720900863, 7171926.037446573376656 ], [ 696136.69653266039677, 7171900.041691689752042 ], [ 696136.696526736603118, 7171877.295405430719256 ], [ 696135.071785320877098, 7171851.299650127068162 ], [ 696123.698637735797092, 7171831.802836279384792 ], [ 696105.826552422018722, 7171815.555493582040071 ], [ 696078.206053747562692, 7171778.186601880937815 ], [ 696066.832905319635756, 7171755.440318571403623 ], [ 696061.958695042529143, 7171731.069298845715821 ], [ 696058.709218140691519, 7171701.824074503034353 ], [ 696047.336069290875457, 7171677.453056460246444 ], [ 696021.340311187901534, 7171662.830450598150492 ], [ 696011.591903327847831, 7171662.830453120172024 ], [ 695985.596149032819085, 7171662.830459846183658 ], [ 695956.350926719955169, 7171667.704671610146761 ], [ 695923.856236387160607, 7171677.453088410198689 ], [ 695894.611015763832256, 7171688.826239099726081 ], [ 695857.242122767609544, 7171703.448861353099346 ], [ 695818.248492167447694, 7171706.698340900242329 ], [ 695769.506449905224144, 7171695.325210371986032 ], [ 695725.638610730879009, 7171680.702609117142856 ], [ 695676.896571004064754, 7171679.07788697630167 ], [ 695644.401883622515015, 7171700.199446892365813 ], [ 695615.156668903306127, 7171734.31888382602483 ], [ 695595.659861621446908, 7171766.813583510927856 ], [ 695581.037259534467012, 7171804.182486133649945 ], [ 695556.666247896384448, 7171835.052452346310019 ], [ 695538.794173143221997, 7171859.42347794957459 ], [ 695507.924227143521421, 7171906.540793169289827 ], [ 695465.681142849265598, 7171969.905458651483059 ], [ 695447.80906682589557, 7171989.40228005964309 ], [ 695408.815439159865491, 7172004.024902718141675 ], [ 695368.197075585834682, 7172013.773321593180299 ], [ 695327.578714961186051, 7172034.894883595407009 ], [ 695299.958235281286761, 7172070.639054846018553 ], [ 695239.8430639738217, 7172111.257438673637807 ], [ 695178.103162225103006, 7172168.12317025102675 ], [ 695168.354760674294084, 7172192.494193762540817 ], [ 695169.97950331994798, 7172223.364153280854225 ], [ 695176.478449057904072, 7172250.9846420744434 ], [ 695176.47845832305029, 7172286.728806216269732 ], [ 695161.855860416195355, 7172340.345056193880737 ], [ 695139.10958675458096, 7172384.212899865582585 ], [ 695091.992289207526483, 7172411.833402479067445 ], [ 695011.567934797029011, 7172452.451791534200311 ], [ 694979.073242736514658, 7172455.701269367709756 ], [ 694943.32907928165514, 7172450.827074365690351 ], [ 694904.335445698234253, 7172442.703410727903247 ], [ 694863.717076206114143, 7172429.705543307587504 ], [ 694837.721315999864601, 7172406.95926371961832 ], [ 694819.849232802400365, 7172398.835594646632671 ], [ 694800.352418743539602, 7172405.334538595750928 ], [ 694784.105077756568789, 7172426.45609431527555 ], [ 694777.606144219869748, 7172445.952912792563438 ], [ 694772.731946588493884, 7172470.323935056105256 ], [ 694764.608280506217852, 7172497.944427623413503 ], [ 694756.484614423126914, 7172525.564920191653073 ], [ 694741.862009759293869, 7172553.185414433479309 ], [ 694701.243652448290959, 7172587.304854293353856 ], [ 694636.254273771541193, 7172614.925361476838589 ], [ 694600.51012164785061, 7172653.91900428570807 ], [ 694556.642291255295277, 7172673.415832366794348 ], [ 694511.149724116781726, 7172684.788987189531326 ], [ 694467.281895398395136, 7172710.784754205495119 ], [ 694394.981212054961361, 7172743.279467453248799 ], [ 694362.486525012180209, 7172766.025762075558305 ], [ 694344.614450617227703, 7172792.021522415801883 ], [ 694310.495031019789167, 7172822.891491129994392 ], [ 694282.874549583531916, 7172852.136723440140486 ], [ 694252.004597596707754, 7172876.507752380333841 ], [ 694204.88729789131321, 7172896.004581280052662 ], [ 694151.271054571960121, 7172896.004595022648573 ], [ 694097.654811252374202, 7172896.004608761519194 ], [ 694021.29228958429303, 7172922.000384084880352 ], [ 693964.426579481805675, 7172931.748807054013014 ], [ 693860.443559619830921, 7172922.000425261445343 ], [ 693758.085277333622798, 7172923.625186184421182 ], [ 693663.8506678591948, 7172923.6252102823928 ], [ 693558.242914608563296, 7172918.75103306863457 ], [ 693500.564832584932446, 7172910.627374129369855 ], [ 693469.694873474538326, 7172907.377912543714046 ], [ 693450.198055217508227, 7172897.629509111866355 ], [ 693435.57544006430544, 7172884.631634969264269 ], [ 693411.204416200402193, 7172868.384293843060732 ], [ 693378.709717857185751, 7172847.262750584632158 ], [ 693347.839754579006694, 7172827.765941647812724 ], [ 693326.718203763943166, 7172826.141212303191423 ], [ 693299.097717287717387, 7172835.889627761207521 ], [ 693248.730949934455566, 7172861.885396368801594 ], [ 693227.60939995397348, 7172863.510136490687728 ], [ 693196.739440430537798, 7172858.635940160602331 ], [ 693183.7415586784482, 7172840.763861390762031 ], [ 693172.36841115471907, 7172821.26704747416079 ], [ 693152.871587069588713, 7172788.772357752546668 ], [ 693092.756392676732503, 7172740.03033103980124 ], [ 693068.385367160313763, 7172717.284050965681672 ], [ 693014.76912260428071, 7172712.409860428422689 ], [ 692983.89915892505087, 7172691.288316743448377 ], [ 692943.280781544395722, 7172647.420489262789488 ], [ 692912.410814955830574, 7172614.925802437588573 ], [ 692876.666649009566754, 7172600.303198931738734 ], [ 692847.421425392269157, 7172600.303206376731396 ], [ 692787.306244761217386, 7172605.177425879985094 ], [ 692710.943714764318429, 7172598.678506374359131 ], [ 692608.585431688465178, 7172597.053797673434019 ], [ 692524.099231790169142, 7172603.55275808647275 ], [ 692455.860378760145977, 7172611.676449098624289 ], [ 692411.992544994340278, 7172618.175399176776409 ], [ 692385.184423344675452, 7172618.175405987538397 ], [ 692347.815533555462025, 7172645.79590596165508 ], [ 692328.318725693505257, 7172676.665870862081647 ], [ 692297.448779459809884, 7172723.783185999840498 ], [ 692273.077763923327439, 7172740.030539531260729 ], [ 692232.459403173415922, 7172761.15210138913244 ], [ 692178.843161936965771, 7172769.275788665749133 ], [ 692134.975326087558642, 7172767.651065059006214 ], [ 692071.610671174013987, 7172753.028468516655266 ], [ 692024.49336271896027, 7172738.405867850407958 ], [ 692006.62127705977764, 7172720.533790301531553 ], [ 691996.872863800497726, 7172699.412241224199533 ], [ 691998.497587261954322, 7172655.544402984902263 ], [ 691995.248108443571255, 7172618.175504920072854 ], [ 691969.252348731504753, 7172597.053959961980581 ], [ 691936.757650855230168, 7172577.557151385582983 ], [ 691891.265077473712154, 7172564.559285037219524 ], [ 691832.774629415594973, 7172561.309830384328961 ], [ 691785.657325529609807, 7172564.5593117820099 ], [ 691732.853449971182272, 7172566.184059880673885 ], [ 691687.360878660925664, 7172561.309867192991078 ], [ 691643.493038275744766, 7172541.813061484135687 ], [ 691604.499402657034807, 7172525.56572400778532 ], [ 691560.631567234871909, 7172525.565735100768507 ], [ 691528.136873091920279, 7172520.691539115272462 ], [ 691505.390582686988637, 7172499.569993324577808 ], [ 691487.51849456760101, 7172471.949507365934551 ], [ 691474.520609556464478, 7172441.079550705850124 ], [ 691450.149582446669228, 7172411.834331655874848 ], [ 691429.028027931693941, 7172395.586989657953382 ], [ 691373.787045873934403, 7172379.33965627849102 ], [ 691308.797662142431363, 7172387.463346362113953 ], [ 691234.059875490958802, 7172415.083855707198381 ], [ 691198.315721965278499, 7172449.203294139355421 ], [ 691164.196302668191493, 7172481.697997430339456 ], [ 691134.951081943465397, 7172493.071147948503494 ], [ 691065.087494263309054, 7172501.194839242845774 ], [ 690961.104478622088209, 7172507.693804398179054 ], [ 690912.362442562240176, 7172520.691694555804133 ], [ 690879.867755423067138, 7172543.437989021651447 ], [ 690842.498868877417408, 7172584.056366789154708 ], [ 690814.066019583609886, 7172611.676864434033632 ], [ 690794.569207544904202, 7172626.299481952562928 ], [ 690760.449787398567423, 7172655.544715763069689 ], [ 690745.827181761851534, 7172679.91574046202004 ], [ 690724.705640423577279, 7172715.659909934736788 ], [ 690708.458299316931516, 7172736.781465574167669 ], [ 690641.844189127557911, 7172777.399850703775883 ], [ 690615.848443843657151, 7172813.144021406769753 ], [ 690596.351638784864917, 7172855.387129414826632 ], [ 690580.104298083344474, 7172878.133419790305197 ], [ 690552.483815678744577, 7172904.129182495176792 ], [ 690526.488069975981489, 7172938.24861846677959 ], [ 690519.989140845369548, 7172975.617519004270434 ], [ 690518.364415242918767, 7173011.361683583818376 ], [ 690518.364423463935964, 7173043.85637828707695 ], [ 690516.739718413213268, 7173160.837279636412859 ], [ 690516.739726633066311, 7173193.331974342465401 ], [ 690518.364474843721837, 7173246.948220206424594 ], [ 690523.23868700559251, 7173279.442913694307208 ], [ 690532.987103930441663, 7173315.187075428664684 ], [ 690532.987110506976023, 7173341.182831200771034 ], [ 690528.112912321812473, 7173363.929118728265166 ], [ 690515.115040900418535, 7173386.67540830001235 ], [ 690498.867699360009283, 7173406.172229217365384 ], [ 690477.746154291555285, 7173427.293786095455289 ], [ 690461.498816038249061, 7173459.788484901189804 ], [ 690431.766186537221074, 7173517.304102034308016 ], [ 690426.567045855335891, 7173557.597524799406528 ], [ 690427.866843433119357, 7173596.591158144176006 ], [ 690438.265152407926507, 7173625.186486888676882 ], [ 690465.560706321033649, 7173671.978840438649058 ], [ 690475.959020559792407, 7173721.370773814618587 ], [ 690475.959028778597713, 7173753.865468549542129 ], [ 690466.860528228455223, 7173807.156770201399922 ], [ 690430.466481316252612, 7173843.550837457180023 ], [ 690403.170945474412292, 7173868.246812319383025 ], [ 690381.074559187865816, 7173887.74363471660763 ], [ 690339.48135876620654, 7173913.739400960505009 ], [ 690310.886030928697437, 7173921.538134882226586 ], [ 690286.190065260510892, 7173925.437504454515874 ], [ 690235.498348834691569, 7173943.634546238929033 ], [ 690201.703868478420191, 7173944.934342514723539 ], [ 690151.662044593831524, 7173957.932232974097133 ], [ 690126.966080893296748, 7173969.630329279229045 ], [ 690061.976702834712341, 7174000.825252540409565 ], [ 690028.182223788113333, 7174007.324199967086315 ], [ 689993.087955382536165, 7174007.32420876994729 ], [ 689957.993684027111158, 7173995.626127460971475 ], [ 689928.098561908584088, 7173977.429105900228024 ], [ 689896.903649450745434, 7173948.833782346919179 ], [ 689860.509585137828253, 7173916.339096726849675 ], [ 689822.815732126124203, 7173879.945048063993454 ], [ 689795.520183813991025, 7173855.249086901545525 ], [ 689768.224637141334824, 7173837.052064687013626 ], [ 689737.029730590060353, 7173831.852921340614557 ], [ 689713.633552640909329, 7173835.752290569245815 ], [ 689705.834828949649818, 7173846.150594837963581 ], [ 689699.335893632494844, 7173859.148474358953536 ], [ 689695.436535060987808, 7173877.345504390075803 ], [ 689695.436541281291284, 7173902.041472394019365 ], [ 689696.736336856731214, 7173933.236379018984735 ], [ 689699.335924734943546, 7173982.62831437587738 ], [ 689705.834881009417586, 7174052.81685339845717 ], [ 689703.235321286716498, 7174115.206667965278029 ], [ 689695.436601521796547, 7174141.202425718307495 ], [ 689687.637880446389318, 7174161.999032309278846 ], [ 689661.64213883318007, 7174212.690762631595135 ], [ 689649.944057870307006, 7174246.485248105600476 ], [ 689629.79735607933253, 7174277.680160115472972 ], [ 689625.897995539358817, 7174288.078463412821293 ], [ 689607.700970744132064, 7174301.076345871202648 ], [ 689589.503944310359657, 7174307.575289376080036 ], [ 689579.105647137737833, 7174325.772321043536067 ], [ 689577.805866288952529, 7174353.067864965647459 ], [ 689577.805873159319162, 7174380.363408567383885 ], [ 689577.805881666834466, 7174414.157891117036343 ], [ 689577.805891481228173, 7174453.151524832472205 ], [ 689576.506116522592492, 7174503.843248991295695 ], [ 689564.808033590088598, 7174529.839007733389735 ], [ 689546.611013693851419, 7174562.333707053214312 ], [ 689545.311229572049342, 7174576.631373075768352 ], [ 689549.210605490137823, 7174627.323095941916108 ], [ 689568.707427175249904, 7174650.719271301291883 ], [ 689597.302762900129892, 7174674.115444380789995 ], [ 689636.296401041094214, 7174700.111190441995859 ], [ 689670.090887323953211, 7174722.207574428990483 ], [ 689710.384315155330114, 7174756.002046907320619 ], [ 689742.879016013699584, 7174787.196945757605135 ], [ 689761.07605064404197, 7174813.192697023972869 ], [ 689775.373721787938848, 7174837.888661475852132 ], [ 689779.27308986033313, 7174857.385477367788553 ], [ 689777.973306726198643, 7174875.582506770268083 ], [ 689772.77415879315231, 7174887.280598195269704 ], [ 689746.778411919949576, 7174917.175723908469081 ], [ 689705.185213055927306, 7174949.670429108664393 ], [ 689685.688400524435565, 7174962.668311903253198 ], [ 689649.294358427985571, 7175018.55919604934752 ], [ 689641.4956360332435, 7175034.156651500612497 ], [ 689616.799672617111355, 7175047.154535599052906 ], [ 689585.604770595906302, 7175060.152421321719885 ], [ 689540.112204956589267, 7175078.34946178458631 ], [ 689466.024317311588675, 7175127.741416401229799 ], [ 689425.730904837138951, 7175155.036970103159547 ], [ 689379.588450884795748, 7175195.330403185449541 ], [ 689354.892489092424512, 7175214.827226235531271 ], [ 689335.395673933438957, 7175217.426806692034006 ], [ 689286.003745443071239, 7175236.923635910265148 ], [ 689265.207142890081741, 7175240.823004482313991 ], [ 689213.215636668377556, 7175251.221319803968072 ], [ 689189.819458347861655, 7175253.820901231840253 ], [ 689124.180189868668094, 7175299.313490336760879 ], [ 689085.186568029923365, 7175338.30713383294642 ], [ 689068.289335814653896, 7175370.801832851953804 ], [ 689043.593379227328114, 7175411.095260572619736 ], [ 689018.897419378045015, 7175438.390810370445251 ], [ 688990.302095055463724, 7175460.487209972925484 ], [ 688956.507619195617735, 7175479.98403528612107 ], [ 688912.314839933533221, 7175492.981924229301512 ], [ 688866.822269363328815, 7175491.682147779501975 ], [ 688833.027785352664068, 7175478.684278279542923 ], [ 688805.732237342162989, 7175455.2881048200652 ], [ 688770.637959422077984, 7175417.594267589040101 ], [ 688739.443045646999963, 7175383.799792763777077 ], [ 688697.849830757593736, 7175352.604896112345159 ], [ 688664.055345127941109, 7175333.108087645843625 ], [ 688644.55852963833604, 7175334.407880295068026 ], [ 688636.759805917041376, 7175344.806184572167695 ], [ 688635.460021125269122, 7175356.504275024868548 ], [ 688635.460024380940013, 7175369.502152945846319 ], [ 688635.460027962340973, 7175383.799818658269942 ], [ 688635.46003186982125, 7175399.397272165864706 ], [ 688652.357285264879465, 7175451.388779647648335 ], [ 688643.258776424685493, 7175472.185386592522264 ], [ 688631.560690515208989, 7175486.4830552181229 ], [ 688610.764089905424044, 7175498.181150527670979 ], [ 688595.166640179348178, 7175509.879244541749358 ], [ 688592.567065388197079, 7175512.47882077191025 ], [ 688565.271528771729209, 7175534.575220039114356 ], [ 688539.925679919309914, 7175581.367586873471737 ], [ 688519.129086137283593, 7175620.361225824803114 ], [ 688487.934198712580837, 7175691.849562181159854 ], [ 688473.636542881140485, 7175728.243623933754861 ], [ 688437.242497080704197, 7175769.83684235624969 ], [ 688380.051846102578565, 7175804.931126983836293 ], [ 688337.158855183748528, 7175820.528591161593795 ], [ 688274.769050384406, 7175843.924786940217018 ], [ 688243.574148633051664, 7175858.222460414282978 ], [ 688198.081580641213804, 7175867.320986267179251 ], [ 688156.488373215310276, 7175866.021208803169429 ], [ 688114.895161570631899, 7175847.824190029874444 ], [ 688075.901528616202995, 7175842.625048538669944 ], [ 688035.608106643427163, 7175832.226756194606423 ], [ 687992.715109876124188, 7175824.428040081635118 ], [ 687957.620841063093394, 7175823.128260994330049 ], [ 687927.725721840746701, 7175816.62932944484055 ], [ 687896.530810680706054, 7175793.233156910166144 ], [ 687871.834840400610119, 7175778.935497311875224 ], [ 687852.338025547447614, 7175782.834865526296198 ], [ 687844.539302134420723, 7175794.532957594841719 ], [ 687836.740580989397131, 7175815.329564213752747 ], [ 687836.740587796783075, 7175842.625107867643237 ], [ 687841.939745491137728, 7175869.920650228857994 ], [ 687854.93763081531506, 7175902.415341833606362 ], [ 687864.036151676671579, 7175929.710883231833577 ], [ 687871.834886113996617, 7175962.205576125532389 ], [ 687879.63362184970174, 7175999.899420195259154 ], [ 687884.832780193304643, 7176029.794538151472807 ], [ 687886.132574076531455, 7176054.490505902096629 ], [ 687886.132578291581012, 7176071.387747215107083 ], [ 687884.832796081551351, 7176093.484140023589134 ], [ 687880.933438750682399, 7176116.880321271717548 ], [ 687858.837059464189224, 7176164.972475107759237 ], [ 687848.438771948567592, 7176222.163140604272485 ], [ 687835.440903799491934, 7176258.557202047668397 ], [ 687819.843462797231041, 7176305.349566487595439 ], [ 687813.344533906551078, 7176344.343201912939548 ], [ 687810.744966886471957, 7176378.137685196474195 ], [ 687808.145396302919835, 7176397.634502749890089 ], [ 687803.59614251437597, 7176410.63238181732595 ], [ 687776.30060519487597, 7176430.129205491393805 ], [ 687750.30485300521832, 7176439.227726493030787 ], [ 687712.611008394509554, 7176436.628160243853927 ], [ 687667.118434532429092, 7176422.330505777150393 ], [ 687635.923526916885749, 7176413.231998945586383 ], [ 687609.927768576075323, 7176397.634551855735481 ], [ 687578.732858697301708, 7176379.437530465424061 ], [ 687570.934133331058547, 7176383.33689577691257 ], [ 687565.73498697229661, 7176401.533926177769899 ], [ 687567.034780197544023, 7176423.6303183529526 ], [ 687567.034784404560924, 7176440.527559675276279 ], [ 687563.135426091728732, 7176460.024377550929785 ], [ 687552.737127867876552, 7176474.322045858949423 ], [ 687534.540104924119078, 7176495.118655066937208 ], [ 687516.343081656144932, 7176514.615476483479142 ], [ 687499.445846111048013, 7176534.112297577783465 ], [ 687489.04754982679151, 7176556.208692649379373 ], [ 687485.148191187065095, 7176574.405722735449672 ], [ 687472.150319455307908, 7176596.502118453383446 ], [ 687453.953303946298547, 7176647.19384693261236 ], [ 687407.810854324488901, 7176705.684309092350304 ], [ 687389.613833311479539, 7176734.279645070433617 ], [ 687383.114906658651307, 7176782.371795075945556 ], [ 687381.815126048168167, 7176810.967126879841089 ], [ 687368.817253663670272, 7176830.463947014883161 ], [ 687329.823623896809295, 7176838.26268342230469 ], [ 687299.928510778583586, 7176856.459719940088689 ], [ 687294.729362792801112, 7176868.157811376266181 ], [ 687296.029154395451769, 7176883.755264591425657 ], [ 687311.626611281419173, 7176900.652502069249749 ], [ 687341.521735389600508, 7176926.648250573314726 ], [ 687371.416858854470775, 7176950.044423489831388 ], [ 687389.613891190849245, 7176966.941660324111581 ], [ 687429.907319037127309, 7177000.736133025959134 ], [ 687453.303503241855651, 7177021.532731958664954 ], [ 687472.800321688642725, 7177031.93102949578315 ], [ 687474.100115558016114, 7177056.626997279003263 ], [ 687472.800335274776444, 7177086.52211688645184 ], [ 687465.001615723012947, 7177113.817662513814867 ], [ 687448.754277258412912, 7177146.312361413612962 ], [ 687403.261720498092473, 7177200.903460066765547 ], [ 687370.767036122269928, 7177235.99773857742548 ], [ 687342.171710715163499, 7177254.194774783216417 ], [ 687301.878292554989457, 7177259.393935926258564 ], [ 687258.985296361730434, 7177254.194795344956219 ], [ 687225.190812945831567, 7177243.796501332893968 ], [ 687183.597603832255118, 7177235.997784835286438 ], [ 687144.603972103912383, 7177235.997794467024505 ], [ 687123.807368516572751, 7177235.997799603268504 ], [ 687091.312676378409378, 7177239.897171013057232 ], [ 687056.218410406494513, 7177250.295482039451599 ], [ 687030.222657857928425, 7177258.094215231016278 ], [ 687002.927119197323918, 7177272.391887715086341 ], [ 686970.43242834857665, 7177281.490410301834345 ], [ 686943.136891621397808, 7177303.586809560656548 ], [ 686919.740717744105496, 7177324.383420058526099 ], [ 686884.646453377208672, 7177341.280670056119561 ], [ 686861.250274337595329, 7177341.280675826594234 ], [ 686843.053243939299136, 7177332.182165741920471 ], [ 686797.560666493838653, 7177303.586845459416509 ], [ 686780.66342317732051, 7177291.888759465888143 ], [ 686761.166606667335145, 7177289.289188681170344 ], [ 686757.267244138172828, 7177291.888765232637525 ], [ 686750.768312607309781, 7177320.484098333865404 ], [ 686753.367895788978785, 7177351.679004788398743 ], [ 686758.56705248716753, 7177375.075183825567365 ], [ 686759.866846012650058, 7177398.471363827586174 ], [ 686761.166645659250207, 7177446.5635119471699 ], [ 686761.166655005537905, 7177484.257358024828136 ], [ 686758.567088256124407, 7177519.351629151031375 ], [ 686754.667736038798466, 7177563.544415174052119 ], [ 686746.869017101125792, 7177593.439536402001977 ], [ 686737.77051172661595, 7177628.533809136599302 ], [ 686728.67200409679208, 7177654.529567299410701 ], [ 686723.472857062472031, 7177670.127022134140134 ], [ 686723.472863184171729, 7177694.822990261018276 ], [ 686724.772654453408904, 7177709.120655697770417 ], [ 686732.571384347975254, 7177723.418319535441697 ], [ 686746.869053189642727, 7177739.015769565477967 ], [ 686755.967569200089201, 7177746.814494101330638 ], [ 686759.217042379779741, 7177762.411946856416762 ], [ 686759.217046568403021, 7177779.309188206680119 ], [ 686759.21705107903108, 7177797.506217356771231 ], [ 686756.617480786051601, 7177818.30282273888588 ], [ 686750.118546669604257, 7177836.499853489920497 ], [ 686741.020038715447299, 7177861.195823863148689 ], [ 686733.221321706892923, 7177898.889671882614493 ], [ 686733.221329761203378, 7177931.384366797283292 ], [ 686737.120698737329803, 7177954.780546174384654 ], [ 686737.120705182198435, 7177980.776302109472454 ], [ 686741.020074158906937, 7178004.17248148843646 ], [ 686741.020078346598893, 7178021.069722845219076 ], [ 686739.720298998290673, 7178054.864205881021917 ], [ 686728.672109773615375, 7178080.859964540228248 ], [ 686705.27593361120671, 7178092.55806047655642 ], [ 686684.479335475713015, 7178114.654458146542311 ], [ 686675.380826870677993, 7178136.750852935016155 ], [ 686675.380832023918629, 7178157.547457686625421 ], [ 686674.081049452070147, 7178178.344062758609653 ], [ 686666.282329860143363, 7178205.639608417637646 ], [ 686637.687005042214878, 7178226.436220212839544 ], [ 686609.091679256875068, 7178243.333468617871404 ], [ 686566.198690094402991, 7178266.729659525677562 ], [ 686499.909519608598202, 7178281.027341612614691 ], [ 686466.115039696451277, 7178284.926713321357965 ], [ 686382.928626516135409, 7178290.125884973444045 ], [ 686342.635209901724011, 7178301.823985058814287 ], [ 686315.339670226559974, 7178312.222294144332409 ], [ 686294.543072072905488, 7178334.318691813386977 ], [ 686280.245411263778806, 7178351.215936692431569 ], [ 686268.547325906925835, 7178368.113180931657553 ], [ 686271.1469068225706, 7178390.209572847001255 ], [ 686276.346061584423296, 7178405.807025138288736 ], [ 686290.643730751704425, 7178422.704262991435826 ], [ 686307.54097697918769, 7178446.100439190864563 ], [ 686319.239071336691268, 7178465.597253276966512 ], [ 686333.536745651741512, 7178503.291095890104771 ], [ 686345.234843226382509, 7178535.785787953063846 ], [ 686354.333365993574262, 7178570.880056252703071 ], [ 686367.981148054590449, 7178615.072838016785681 ], [ 686367.981152879074216, 7178634.569654985330999 ], [ 686367.981157700298354, 7178654.066471952944994 ], [ 686373.180314718047157, 7178678.762438833713531 ], [ 686378.379473342327401, 7178709.957344705238938 ], [ 686370.580757592571899, 7178752.850343953818083 ], [ 686373.180340119637549, 7178781.445674872025847 ], [ 686380.97907259198837, 7178806.141641116701066 ], [ 686396.576531746075489, 7178832.137393243610859 ], [ 686418.672930825152434, 7178863.332294964231551 ], [ 686439.469539925921708, 7178885.42868241854012 ], [ 686456.366785203688778, 7178904.9254952352494 ], [ 686471.964242754853331, 7178924.422308370471001 ], [ 686487.561702236882411, 7178951.717848297208548 ], [ 686501.859373671701178, 7178977.713600745424628 ], [ 686513.5574699731078, 7179005.009141635149717 ], [ 686517.456840557279065, 7179034.904260039329529 ], [ 686517.456847637542523, 7179063.499591605737805 ], [ 686517.456852464121766, 7179082.996408585458994 ], [ 686518.106758877518587, 7179133.68813257291913 ], [ 686515.507197259925306, 7179189.579008556902409 ], [ 686506.408694107434712, 7179233.771795954555273 ], [ 686483.012524338089861, 7179271.46564787812531 ], [ 686468.714866089401767, 7179298.76119517441839 ], [ 686441.419332490419038, 7179333.855472462251782 ], [ 686410.224436992546543, 7179374.148901907727122 ], [ 686399.826148676336743, 7179428.739992029964924 ], [ 686384.228713625343516, 7179500.228324822150171 ], [ 686381.629147172556259, 7179536.622383842244744 ], [ 686371.230851778178476, 7179562.618142388761044 ], [ 686337.436387882102281, 7179631.506904071196914 ], [ 686323.138727370533161, 7179649.703936779871583 ], [ 686304.941700457711704, 7179654.903092451393604 ], [ 686286.744672259548679, 7179654.903096923604608 ], [ 686251.000509408069775, 7179653.603317908942699 ], [ 686226.304545137681998, 7179664.001626372337341 ], [ 686191.210280967643484, 7179682.198664190247655 ], [ 686162.614956080564298, 7179702.995276008732617 ], [ 686140.518571440130472, 7179730.290825231000781 ], [ 686121.021759687340818, 7179747.188071415759623 ], [ 686097.625584426452406, 7179762.785530757158995 ], [ 686066.43067990266718, 7179766.684901816770434 ], [ 686041.734713059966452, 7179766.68490787781775 ], [ 686026.137262241449207, 7179774.483638506382704 ], [ 686010.53981238650158, 7179786.181732531636953 ], [ 685988.443426776560955, 7179809.577918349765241 ], [ 685963.747466988861561, 7179838.173256007954478 ], [ 685890.959368933108635, 7179897.963512663729489 ], [ 685846.766595772467554, 7179936.957157501019537 ], [ 685823.370426270179451, 7179975.950797240249813 ], [ 685810.372556353220716, 7180005.845919830724597 ], [ 685797.374686435447074, 7180035.741042422130704 ], [ 685772.678725672187284, 7180060.437016679905355 ], [ 685746.682974935509264, 7180076.034476653672755 ], [ 685716.787861011805944, 7180091.631937584839761 ], [ 685688.192535133915953, 7180108.529185995459557 ], [ 685650.498696433147416, 7180130.625587835907936 ], [ 685621.903371192864142, 7180150.12241184618324 ], [ 685576.410808033542708, 7180180.017542395740747 ], [ 685532.218030038638972, 7180199.514370223507285 ], [ 685497.123763906070963, 7180209.912681218236685 ], [ 685482.826098883408122, 7180209.912684716284275 ], [ 685409.388092495384626, 7180211.212490485981107 ], [ 685365.195310976123437, 7180216.411652497947216 ], [ 685334.000406111590564, 7180219.011235728859901 ], [ 685298.906141574843787, 7180235.908485715277493 ], [ 685283.308693297556601, 7180254.10551873780787 ], [ 685249.514221918303519, 7180293.099161017686129 ], [ 685215.719753733370453, 7180345.090681307017803 ], [ 685187.124437099439092, 7180399.681775928474963 ], [ 685162.428476943867281, 7180426.977325778454542 ], [ 685129.933792324620299, 7180462.071604341268539 ], [ 685072.743142750347033, 7180504.964615740813315 ], [ 684984.357596905785613, 7180585.551480986177921 ], [ 684909.619823166402057, 7180670.037706304341555 ], [ 684827.733214978245087, 7180746.725206558592618 ], [ 684818.797180908732116, 7180773.533332146704197 ], [ 684812.135773693327792, 7180793.517571216449142 ], [ 684809.536208433215506, 7180835.110781500115991 ], [ 684812.135794095811434, 7180876.703990517184138 ], [ 684817.334951076889411, 7180901.39995748270303 ], [ 684819.93453387147747, 7180931.295076288282871 ], [ 684819.934539290843531, 7180953.391468919813633 ], [ 684816.035181518876925, 7180975.487862500362098 ], [ 684806.936674098484218, 7181002.783408557996154 ], [ 684795.23859472386539, 7181044.376621073111892 ], [ 684773.142215731204487, 7181095.068350737914443 ], [ 684756.24498287960887, 7181126.263262106105685 ], [ 684728.299559731036425, 7181179.554568806663156 ], [ 684704.903388856211677, 7181213.349057367071509 ], [ 684626.916155567276292, 7181338.128705393522978 ], [ 684525.532740856637247, 7181453.809844510629773 ], [ 684459.243584688520059, 7181527.897765401750803 ], [ 684317.566761366906576, 7181689.07148742955178 ], [ 684277.27335852640681, 7181757.960250794887543 ], [ 684264.275491059408523, 7181798.253675856627524 ], [ 684253.877197783556767, 7181833.347949071787298 ], [ 684244.778689697966911, 7181858.043919546529651 ], [ 684231.78081746166572, 7181878.840527560561895 ], [ 684223.982096788240597, 7181902.236709916964173 ], [ 684220.082737721386366, 7181919.133952310308814 ], [ 684223.982106003095396, 7181939.93055621907115 ], [ 684234.380414535640739, 7181967.2260975651443 ], [ 684255.177024609525688, 7181993.221848582848907 ], [ 684264.275545411161147, 7182020.517390247434378 ], [ 684257.776611516834237, 7182040.014208881184459 ], [ 684230.481073584523983, 7182058.211244767531753 ], [ 684203.185535331023857, 7182075.108492851257324 ], [ 684166.791482314118184, 7182089.406167536973953 ], [ 684140.79572893329896, 7182094.605325067415833 ], [ 684107.001251379493624, 7182108.902999114245176 ], [ 684091.403802398475818, 7182124.500456551089883 ], [ 684074.506567588308826, 7182147.896641124039888 ], [ 684064.108267315197736, 7182154.395582666620612 ], [ 684055.009753187769093, 7182154.395584877580404 ], [ 684044.611451326170936, 7182154.395587401464581 ], [ 684025.634545793524012, 7182135.418690072372556 ], [ 683992.359980090870522, 7182136.458528393879533 ], [ 683951.806603085249662, 7182137.498368481174111 ], [ 683915.412548602442257, 7182145.817019257694483 ], [ 683879.018497415818274, 7182167.653463188558817 ], [ 683845.743938308209181, 7182195.7288878262043 ], [ 683817.668526833644137, 7182210.286518039181828 ], [ 683757.358380089048296, 7182226.923816552385688 ], [ 683715.765177709399723, 7182247.720431499183178 ], [ 683684.570277444901876, 7182269.556874167174101 ], [ 683650.255888392333873, 7182298.672129293903708 ], [ 683627.379632401512936, 7182331.946702623739839 ], [ 683604.503377420362085, 7182369.380596924573183 ], [ 683587.866102038882673, 7182400.575508257374167 ], [ 683583.706785852555186, 7182419.292453645728528 ], [ 683581.627129027154297, 7182433.85007755830884 ], [ 683571.228833747212775, 7182460.885666409507394 ], [ 683562.910194786963984, 7182471.283970860764384 ], [ 683551.472063241060823, 7182473.363634116947651 ], [ 683540.033931188168935, 7182473.363636886700988 ], [ 683521.316987577127293, 7182472.323811173439026 ], [ 683504.679703831672668, 7182469.204324471764266 ], [ 683484.922930033179, 7182468.1644990099594 ], [ 683464.126326302299276, 7182468.164504043757915 ], [ 683450.608533876482397, 7182468.164507316425443 ], [ 683431.891591277904809, 7182471.28400257602334 ], [ 683421.493290171492845, 7182474.403495822101831 ], [ 683412.134820263832808, 7182481.682309791445732 ], [ 683409.015330970054492, 7182486.88146176468581 ], [ 683405.895841675577685, 7182492.080613736994565 ], [ 683401.736523459083401, 7182502.478917178697884 ], [ 683406.93567793618422, 7182517.036539332941175 ], [ 683412.134831653209403, 7182528.474670752882957 ], [ 683421.49330687650945, 7182543.0322918985039 ], [ 683431.891611274331808, 7182553.430591817945242 ], [ 683452.688218805124052, 7182569.028040442615747 ], [ 683464.126355922082439, 7182589.824642548337579 ], [ 683477.6441513892496, 7182602.302602200768888 ], [ 683497.40093253320083, 7182633.497504730708897 ], [ 683512.998393438174389, 7182666.772068755701184 ], [ 683531.715344652417116, 7182699.006801782175899 ], [ 683557.191196135943756, 7182747.878817077726126 ], [ 683590.465776559198275, 7182807.149132926017046 ], [ 683623.740356986410916, 7182866.419448776170611 ], [ 683633.098838299047202, 7182905.932995786890388 ], [ 683657.014944008784369, 7182952.725350980646908 ], [ 683680.931047692662105, 7182991.199064223095775 ], [ 683697.568339815596119, 7183028.632948987185955 ], [ 683721.484445532318205, 7183075.425304187461734 ], [ 683757.358607789967209, 7183160.691375535912812 ], [ 683771.916235740878619, 7183182.527807142585516 ], [ 683785.434035279555246, 7183211.643050713464618 ], [ 683804.150983982137404, 7183233.479481311514974 ], [ 683824.947591793257743, 7183250.116760183125734 ], [ 683842.624705745605752, 7183253.236246629618108 ], [ 683865.500972410663962, 7183263.634543528780341 ], [ 683875.899279361125082, 7183284.431145897135139 ], [ 683885.257754603866488, 7183298.988767055794597 ], [ 683899.81538002169691, 7183310.426896214485168 ], [ 683907.0941918437602, 7183312.506554937921464 ], [ 683923.731473071384244, 7183305.227739187888801 ], [ 683949.727225226117298, 7183294.829430435784161 ], [ 683958.045867490465753, 7183297.948919147253036 ], [ 683968.444170128903352, 7183301.068407360464334 ], [ 683970.523834058782086, 7183315.626030282117426 ], [ 683979.882313363603316, 7183346.820935353636742 ], [ 683985.081469887634739, 7183369.697199476882815 ], [ 683984.041647823061794, 7183402.971767565235496 ], [ 683984.041653662221506, 7183426.887863194569945 ], [ 683985.081487150513567, 7183440.405656127259135 ], [ 683978.84250729274936, 7183445.604808865115047 ], [ 683950.767095771967433, 7183460.16243910882622 ], [ 683915.412872174172662, 7183471.600580380298197 ], [ 683907.094233207404613, 7183481.998884847387671 ], [ 683913.333216873113997, 7183492.397185783833265 ], [ 683920.612028695410118, 7183494.476844508200884 ], [ 683939.328975886572152, 7183510.074293641373515 ], [ 683954.926429976476356, 7183515.273441080935299 ], [ 683971.563715777010657, 7183526.711569741368294 ], [ 683983.001850637956522, 7183538.149699660018086 ], [ 683986.121342979371548, 7183545.428510616533458 ], [ 683986.121345010236837, 7183553.747152578085661 ], [ 683985.081516852951609, 7183562.065794790163636 ], [ 683973.643386560492218, 7183569.344609282910824 ], [ 683967.404406701098196, 7183574.543762021698058 ], [ 683968.444238158874214, 7183579.742912992835045 ], [ 683972.603560687974095, 7183587.021723700687289 ], [ 683980.922203716589138, 7183593.26070315297693 ], [ 683991.320506105083041, 7183595.340361120179296 ], [ 684008.997620065230876, 7183598.459847563877702 ], [ 684024.595074919518083, 7183606.778485737740993 ], [ 684083.865403009112924, 7183636.933548459783196 ], [ 684104.662007281556726, 7183639.013203900307417 ], [ 684126.498444282216951, 7183651.491161536425352 ], [ 684146.255219637416303, 7183658.769968453794718 ], [ 684162.892504936316982, 7183668.128436621278524 ], [ 684173.290808851947077, 7183676.447076056152582 ], [ 684186.808604602818377, 7183689.964865960180759 ], [ 684201.366232830449007, 7183712.841127820312977 ], [ 684218.003522197017446, 7183738.836879909038544 ], [ 684232.561147884116508, 7183751.314839316532016 ], [ 684237.760300860041752, 7183759.633480014279485 ], [ 684248.158604776719585, 7183767.952119451016188 ], [ 684271.034870446659625, 7183774.191095363348722 ], [ 684313.667915037483908, 7183802.266501624137163 ], [ 684366.699263805174269, 7183839.700377564877272 ], [ 684384.376380062196404, 7183852.178336210548878 ], [ 684398.934003463713452, 7183855.297823406755924 ], [ 684428.049252049764618, 7183868.81560951564461 ], [ 684457.164501909632236, 7183887.532546851783991 ], [ 684493.558563345926814, 7183907.289312660694122 ], [ 684513.315339220222086, 7183916.647780062630773 ], [ 684534.111944009549916, 7183920.807095983065665 ], [ 684556.988206121488474, 7183912.488448448479176 ], [ 684568.426337686832994, 7183910.408785173669457 ], [ 684580.904297149507329, 7183898.970649436116219 ], [ 684595.461915458436124, 7183881.293531714007258 ], [ 684607.939875173266046, 7183870.895226223394275 ], [ 684623.53732698271051, 7183866.735901441425085 ], [ 684643.294099290505983, 7183861.536745401099324 ], [ 684657.851721929851919, 7183861.536741855554283 ], [ 684682.807646709377877, 7183862.576566023752093 ], [ 684703.604252772522159, 7183871.935033165849745 ], [ 684720.241538847330958, 7183884.412992057390511 ], [ 684745.197465922217816, 7183894.811288433149457 ], [ 684773.27288279728964, 7183902.090093308128417 ], [ 684801.348297888063826, 7183902.090086463838816 ], [ 684827.149079932481982, 7183883.698082708753645 ], [ 684854.769562938483432, 7183857.702319835312665 ], [ 684879.140574611723423, 7183823.58288396243006 ], [ 684910.010517784627154, 7183760.218220853246748 ], [ 684927.882587584899738, 7183713.100908502936363 ], [ 684955.503059816779569, 7183643.237307162955403 ], [ 684986.37300616549328, 7183592.870522128418088 ], [ 685023.741891984129325, 7183545.753205029293895 ], [ 685052.987103655235842, 7183495.386420396156609 ], [ 685075.733376250136644, 7183443.394902594387531 ], [ 685082.232308141188696, 7183415.774410128593445 ], [ 685087.918865115032531, 7183357.283957467414439 ], [ 685092.7930379929021, 7183230.554645203053951 ], [ 685097.667209274251945, 7183097.326393929310143 ], [ 685099.291929176775739, 7183037.211207527667284 ], [ 685115.539263481739908, 7182986.844426102936268 ], [ 685156.157604624284431, 7182882.861391758546233 ], [ 685188.652270422782749, 7182770.754685632884502 ], [ 685203.27487404178828, 7182736.635252181440592 ], [ 685216.272747385432012, 7182720.387901443988085 ], [ 685243.080865398631431, 7182704.140547333285213 ], [ 685275.575553147355095, 7182681.394252805039287 ], [ 685316.193917824537493, 7182673.2705690972507 ], [ 685368.185427967226133, 7182676.520025895908475 ], [ 685405.55432890728116, 7182691.142629562877119 ], [ 685464.044782119453885, 7182712.26416708342731 ], [ 685537.157847737777047, 7182735.010435777716339 ], [ 685592.398829220794141, 7182746.38356554787606 ], [ 685649.26454497454688, 7182756.131960159167647 ], [ 685691.507649924373254, 7182770.754562620073557 ], [ 685743.499160075327381, 7182774.004019393585622 ], [ 685808.488544762483798, 7182765.880329685285687 ], [ 685860.480051307124086, 7182754.507173646241426 ], [ 685912.471557049080729, 7182739.884548090398312 ], [ 685944.966246384079568, 7182723.637192556634545 ], [ 685966.087792244507, 7182704.140370305627584 ], [ 685996.957742096623406, 7182668.396198095753789 ], [ 686018.079283141181804, 7182629.402558770030737 ], [ 686032.701887522824109, 7182598.532594820484519 ], [ 686044.075018558534794, 7182551.415284108370543 ], [ 686048.949212129344232, 7182509.172179263085127 ], [ 686058.697580814594403, 7182349.948170829564333 ], [ 686063.571761143393815, 7182254.088819074444473 ], [ 686063.571751916897483, 7182216.719919707626104 ], [ 686079.819089750410058, 7182180.975751109421253 ], [ 686107.439575460739434, 7182166.35313153360039 ], [ 686151.307407828047872, 7182151.730507967993617 ], [ 686191.925773270428181, 7182146.856293726712465 ], [ 686226.045198442297988, 7182135.483142061159015 ], [ 686269.913032413227484, 7182127.359457508660853 ], [ 686313.780865979962982, 7182117.611038198694587 ], [ 686340.913931363844313, 7182103.313365684822202 ], [ 686377.307984018581919, 7182087.715903092175722 ], [ 686417.601397620164789, 7182063.019924910739064 ], [ 686455.295239612460136, 7182053.92140101455152 ], [ 686503.387383143184707, 7182043.523086753673851 ], [ 686551.479526351206005, 7182031.824984684586525 ], [ 686590.473155107349157, 7182018.8270970499143 ], [ 686642.46465893369168, 7181996.730691587552428 ], [ 686694.456162757240236, 7181974.634286120533943 ], [ 686742.548296293243766, 7181923.94254993647337 ], [ 686782.841706329607405, 7181884.948905902914703 ], [ 686816.636178344371729, 7181848.554839076474309 ], [ 686847.831078437971883, 7181826.458438728936017 ], [ 686885.524916224065237, 7181800.462673369795084 ], [ 686920.619179832632653, 7181779.666059862822294 ], [ 686945.315143838641234, 7181767.967963544651866 ], [ 686967.41153270448558, 7181757.569655667990446 ], [ 686998.606435047229752, 7181744.571769939735532 ], [ 687023.302400020649657, 7181736.773037027567625 ], [ 687060.996240375330672, 7181721.175574087537825 ], [ 687094.790715921553783, 7181699.079173091799021 ], [ 687120.78646733192727, 7181686.081288645043969 ], [ 687154.580943196080625, 7181665.284675451926887 ], [ 687176.677329471567646, 7181644.488065145909786 ], [ 687203.972864090814255, 7181613.293151132762432 ], [ 687229.968613558448851, 7181592.496539864689112 ], [ 687262.463301684125327, 7181571.699926989153028 ], [ 687305.356292632175609, 7181554.802674951963127 ], [ 687336.551196253509261, 7181547.003940425813198 ], [ 687367.746100521297194, 7181541.804781503975391 ], [ 687404.14015668455977, 7181540.504984702914953 ], [ 687448.332939561805688, 7181540.504973775707185 ], [ 687484.726995401317254, 7181537.905389169231057 ], [ 687536.718501756666228, 7181526.207286080345511 ], [ 687595.208945474587381, 7181509.310030169785023 ], [ 687639.401725111645646, 7181496.312141203321517 ], [ 687679.695142525597475, 7181487.213616606779397 ], [ 687727.787281793309376, 7181459.918060841038823 ], [ 687751.183453188510612, 7181428.72314777970314 ] ] ] ] } }
]
}
