{
"type": "FeatureCollection",
"name": "rio_ressaca",
"crs": { "type": "name", "properties": { "name": "urn:ogc:def:crs:EPSG::31982" } },
"features": [
{ "type": "Feature", "properties": { "AREA": 12556933.59028, "PERIMETER": 17614.42998, "BACIAS1_": 4, "BACIAS1_ID": 0, "NOME_BACIA": "RIO DA RESSACA", "SUB_AREA": 12.56, "SUBCODIGO": 3, "BACCODIGO": 2, "SUBNOME": "RIO DA RESSACA", "SUBBAC_DAT": "2002-01-03", "SUBBAC_POP": 28614, "SUBBAC_P_1": 30937, "SUBBAC_DEN": 2463.73, "SUBBAC_D_1": 2278.72 }, "geometry": { "type": "MultiPolygon", "coordinates": [ [ [ [ 682208.106182438321412, 7171047.644340666010976 ], [ 682150.216978422715329, 7171107.479006479494274 ], [ 682104.150535152992234, 7171257.195084046572447 ], [ 682098.392257246538065, 7171389.63622119743377 ], [ 682098.392283705063164, 7171499.044115979224443 ], [ 682092.634009973960929, 7171648.760183932259679 ], [ 682029.29261595918797, 7171712.101611945778131 ], [ 681948.676294896984473, 7171786.959664616733789 ], [ 681879.576593699632213, 7171861.817714520730078 ], [ 681827.75182092061732, 7171930.917450024746358 ], [ 681775.927048131474294, 7172000.017185530625284 ], [ 681747.135513713001274, 7172063.358605257235467 ], [ 681729.860603343346156, 7172143.974952997639775 ], [ 681706.827378858113661, 7172207.316371352411807 ], [ 681655.002606039284728, 7172276.416106875985861 ], [ 681568.627974934875965, 7172351.274160942994058 ], [ 681499.528265319997445, 7172391.58234931435436 ], [ 681413.15363002428785, 7172449.165472596883774 ], [ 681372.845479827723466, 7172529.781825883314013 ], [ 681326.779026607749984, 7172639.189731860533357 ], [ 681292.229183565592393, 7172708.289463263005018 ], [ 681240.404407902504317, 7172765.872578281909227 ], [ 681142.513154035317712, 7172829.214014576748013 ], [ 681021.588670046068728, 7172932.863628212362528 ], [ 680980.016493637580425, 7172984.828877105377614 ], [ 681038.863617888651788, 7173007.721657507121563 ], [ 681113.721663845935836, 7173076.821362780407071 ], [ 681228.887878083623946, 7173140.162748146802187 ], [ 681326.779170806519687, 7173238.053999226540327 ], [ 681372.845686471671797, 7173387.770055117085576 ], [ 681372.845708660781384, 7173479.903019389137626 ], [ 681367.0874098027125, 7173525.969502907246351 ], [ 681326.779253995744511, 7173583.552615236490965 ], [ 681263.437854207470082, 7173623.860802272334695 ], [ 681194.338145845104009, 7173669.92730095051229 ], [ 681125.238440243410878, 7173727.51042016595602 ], [ 681010.072261910652742, 7173813.885101736523211 ], [ 680831.564704454154707, 7174026.942624382674694 ], [ 680710.640239572501741, 7174211.208581948652864 ], [ 680589.715770489536226, 7174378.199608717113733 ], [ 680578.199178184149787, 7174493.36581695266068 ], [ 680572.440930350217968, 7174752.489780751988292 ], [ 680549.407715347129852, 7174856.139371238648891 ], [ 680549.407745716744103, 7174982.822197360917926 ], [ 680601.232587863109075, 7175201.637975640594959 ], [ 680624.265865012188442, 7175357.112347740679979 ], [ 680710.640555966412649, 7175529.861635618843138 ], [ 680785.498613198520616, 7175645.027823431417346 ], [ 680820.048485455336049, 7175696.852607747539878 ], [ 680820.048493750393391, 7175731.402469452470541 ], [ 680785.498647751403041, 7175788.985580546781421 ], [ 680727.915567391202785, 7175869.601938281208277 ], [ 680681.849098671926185, 7175915.668431553989649 ], [ 680653.0575584837934, 7175955.97661042585969 ], [ 680647.29926508560311, 7176025.076335237361491 ], [ 680635.78267828328535, 7176163.275784883648157 ], [ 680578.199611681746319, 7176301.475245535373688 ], [ 680566.683031763881445, 7176468.46624668315053 ], [ 680595.474632723722607, 7176681.523720595985651 ], [ 680658.816072856308892, 7176808.206531932577491 ], [ 680750.949054616154172, 7176900.339474652893841 ], [ 680912.181747855152935, 7176957.922539114952087 ], [ 681096.447667193366215, 7176957.922495097853243 ], [ 681177.063997211167589, 7176917.614303769543767 ], [ 681257.680318905506283, 7176842.75625067204237 ], [ 681332.538333376636729, 7176779.41481953766197 ], [ 681424.671280542621389, 7176727.590004848316312 ], [ 681488.01266809925437, 7176635.45702500641346 ], [ 681528.320794917177409, 7176456.949396329000592 ], [ 681631.970324490685016, 7176249.650201063603163 ], [ 681701.070023342734203, 7176163.275530168786645 ], [ 681798.961281769326888, 7176117.20902438275516 ], [ 681845.027760162716731, 7176111.450703039765358 ], [ 681902.610858502681367, 7176105.692378932610154 ], [ 682023.53537071577739, 7176117.208970464766026 ], [ 682196.284672691253945, 7176128.725549520924687 ], [ 682311.450881910277531, 7176169.033693835139275 ], [ 682403.583847062429413, 7176192.066912814974785 ], [ 682443.892015481600538, 7176186.308592822402716 ], [ 682489.738924514851533, 7176161.724317785352468 ], [ 682475.11630791623611, 7176142.227504406124353 ], [ 682453.99475152476225, 7176117.856488367542624 ], [ 682440.996871153824031, 7176104.85861356370151 ], [ 682431.248456940753385, 7176078.862860044464469 ], [ 682431.248452219530009, 7176059.366043148562312 ], [ 682442.621590064838529, 7176039.869223510846496 ], [ 682473.491544922580943, 7176025.246603405103087 ], [ 682522.233584895497188, 7176026.87132640555501 ], [ 682556.353011813014746, 7176023.621848702430725 ], [ 682590.472436761134304, 7176012.248697290197015 ], [ 682642.463941703550518, 7175996.001337345689535 ], [ 682694.455447432817891, 7175983.003446882590652 ], [ 682723.700666054151952, 7175961.881888191215694 ], [ 682748.884046072256751, 7175932.63665677420795 ], [ 682784.628199750324711, 7175896.892483845353127 ], [ 682815.498149864724837, 7175862.773046832531691 ], [ 682864.240180359687656, 7175825.404136028140783 ], [ 682916.231678971089423, 7175783.161020211875439 ], [ 682929.229550268966705, 7175758.789995959028602 ], [ 682934.103734098840505, 7175675.928523004055023 ], [ 682934.103717921068892, 7175609.314398637972772 ], [ 682927.604767081793398, 7175558.947623253799975 ], [ 682943.852089919964783, 7175461.463534910231829 ], [ 682981.220976638840511, 7175419.220422643236816 ], [ 683026.713539769873023, 7175389.975186330266297 ], [ 683077.080312378471717, 7175383.476235201582313 ], [ 683168.065441784099676, 7175337.98364049103111 ], [ 683211.933273808099329, 7175323.361017225310206 ], [ 683275.297920852084644, 7175305.488919760100543 ], [ 683319.165751291206107, 7175284.36735752876848 ], [ 683354.909905306994915, 7175250.247919345274568 ], [ 683384.155117552028969, 7175203.130604813806713 ], [ 683390.654035583953373, 7175118.644396783784032 ], [ 683418.274491408723406, 7174982.166671993210912 ], [ 683423.961035778513178, 7174871.684708358719945 ], [ 683425.585761327762157, 7174834.315808969549835 ], [ 683425.585749853868037, 7174787.198501545004547 ], [ 683432.084677372826263, 7174741.705927287228405 ], [ 683438.583605683641508, 7174699.462822509929538 ], [ 683445.082538742222823, 7174676.716534597799182 ], [ 683446.707267850986682, 7174653.970247864723206 ], [ 683446.707262707641348, 7174632.848696265369654 ], [ 683448.331993003259413, 7174614.976613750681281 ], [ 683443.457785097300075, 7174598.729267546907067 ], [ 683435.334107496659271, 7174580.857187390327454 ], [ 683412.587817259016447, 7174559.735641300678253 ], [ 683383.342591195483692, 7174549.987239951267838 ], [ 683352.472630087519065, 7174538.614104254171252 ], [ 683334.600548151298426, 7174535.364639101549983 ], [ 683313.478995337383822, 7174525.616235783323646 ], [ 683311.854259106446989, 7174519.117297225631773 ], [ 683321.602663443423808, 7174504.494682221673429 ], [ 683360.596288302913308, 7174476.874182237312198 ], [ 683419.086721431580372, 7174418.383717509917915 ], [ 683497.073965195333585, 7174338.771696470677853 ], [ 683537.692321520764381, 7174298.153318186290562 ], [ 683568.562269555055536, 7174255.910207528620958 ], [ 683592.12091285106726, 7174218.541302854195237 ], [ 683616.491925452719443, 7174189.296071674674749 ], [ 683652.236073459265754, 7174130.805612463504076 ], [ 683661.984465899062343, 7174067.44095534645021 ], [ 683661.984457974205725, 7174034.946260603144765 ], [ 683660.359715402359143, 7174002.451566254720092 ], [ 683660.359708269126713, 7173973.206340989097953 ], [ 683660.359702326008119, 7173948.835319934412837 ], [ 683676.607042467687279, 7173922.839560204185545 ], [ 683700.978056244319305, 7173898.468533243983984 ], [ 683754.594292493537068, 7173869.223294977098703 ], [ 683806.585795678896829, 7173846.47699605114758 ], [ 683838.268113380065188, 7173813.982293629087508 ], [ 683872.387531466200016, 7173774.988651670515537 ], [ 683932.502703909180127, 7173735.995003400370479 ], [ 683977.995271267136559, 7173724.621849197894335 ], [ 683994.24261417076923, 7173709.99923262372613 ], [ 684013.739425575477071, 7173692.127145788632333 ], [ 684033.236233406933025, 7173659.632446326315403 ], [ 684029.986756964121014, 7173630.387221861630678 ], [ 684005.615725343115628, 7173581.645185695961118 ], [ 683971.496287825750187, 7173541.026825579814613 ], [ 683929.253175092395395, 7173492.284793756902218 ], [ 683870.762708753580227, 7173414.297540633007884 ], [ 683807.398045227047987, 7173363.930779203772545 ], [ 683786.276482525281608, 7173313.564007524400949 ], [ 683763.530178045155481, 7173233.952011003158987 ], [ 683721.287057810230181, 7173154.340019220486283 ], [ 683703.41496441338677, 7173103.973246764391661 ], [ 683696.916005613980815, 7173021.111776856705546 ], [ 683696.915996498428285, 7172983.742877952754498 ], [ 683704.227280607447028, 7172894.382465770468116 ], [ 683704.227273868396878, 7172866.761975281871855 ], [ 683692.854124214500189, 7172837.516752817668021 ], [ 683617.30394773685839, 7172774.152116492390633 ], [ 683589.683453611913137, 7172753.030571639537811 ], [ 683550.689815781195648, 7172727.034825339913368 ], [ 683518.195113764842972, 7172689.665934325195849 ], [ 683492.199350333074108, 7172652.297041736543179 ], [ 683446.706766013405286, 7172593.806602329015732 ], [ 683419.086263590492308, 7172538.565628063865006 ], [ 683419.086255280300975, 7172504.446198653429747 ], [ 683436.958328064298257, 7172470.326764917932451 ], [ 683469.453015420818701, 7172447.580470776185393 ], [ 683534.442394089419395, 7172418.335229828953743 ], [ 683618.928585716639645, 7172377.716841015964746 ], [ 683640.050128967035562, 7172348.471610691398382 ], [ 683651.423250874388032, 7172263.98540179990232 ], [ 683672.54477668274194, 7172163.25184322334826 ], [ 683688.792107273242436, 7172098.262449964880943 ], [ 683726.160979114356451, 7171995.904152736067772 ], [ 683758.655643842066638, 7171880.547978842630982 ], [ 683773.278233033837751, 7171787.938095552846789 ], [ 683778.152420309023, 7171719.699235619045794 ], [ 683796.836861173156649, 7171688.829271177761257 ], [ 683816.333672926411964, 7171672.581919126212597 ], [ 683829.331546502653509, 7171657.959303385578096 ], [ 683843.954153134603985, 7171636.837748322635889 ], [ 683847.20361646998208, 7171612.466726553626359 ], [ 683848.82834397314582, 7171583.221500987187028 ], [ 683847.463559072231874, 7171551.311711186543107 ], [ 683785.723641449236311, 7171546.437521972693503 ], [ 683727.23319271649234, 7171539.938597237691283 ], [ 683688.239556528977118, 7171520.441789913922548 ], [ 683642.746980186668225, 7171494.446045240387321 ], [ 683585.881261349190027, 7171468.450303318910301 ], [ 683540.388681054231711, 7171426.207211324945092 ], [ 683498.145574404159561, 7171401.836200589314103 ], [ 683442.904587846947834, 7171366.092049880884588 ], [ 683368.166784793138504, 7171327.098434427753091 ], [ 683329.173149812966585, 7171312.475831286981702 ], [ 683308.051598669728264, 7171309.226366935297847 ], [ 683248.748780267313123, 7171292.979033973067999 ], [ 683214.629348427290097, 7171275.10696018487215 ], [ 683180.50991184648592, 7171237.738069622777402 ], [ 683144.765741416020319, 7171203.618648916482925 ], [ 683131.767849263153039, 7171141.878732284530997 ], [ 683120.394694519229233, 7171091.511958382092416 ], [ 683112.271009456017055, 7171042.7699184268713 ], [ 683135.017284167697653, 7171000.526809934526682 ], [ 683152.889355347026139, 7170959.908437351696193 ], [ 683152.889347048127092, 7170925.789008014835417 ], [ 683139.89146359055303, 7170899.793255472555757 ], [ 683123.644112829118967, 7170881.921177366748452 ], [ 683089.524683776311576, 7170875.422246696427464 ], [ 683052.155784258036874, 7170864.049112614244223 ], [ 683009.91268081497401, 7170852.675979712046683 ], [ 682951.422232932178304, 7170849.426524383947253 ], [ 682917.302805068204179, 7170847.801797891966999 ], [ 682896.181255912641063, 7170852.676007181406021 ], [ 682865.311302854912356, 7170873.797566130757332 ], [ 682849.063960385974497, 7170890.044917354360223 ], [ 682847.439226927468553, 7170894.919121937826276 ], [ 682818.194007718935609, 7170912.79121102951467 ], [ 682800.321926660719328, 7170912.791215343400836 ], [ 682782.449843238224275, 7170903.042811274528503 ], [ 682762.953022411093116, 7170881.921264485456049 ], [ 682735.332527985563502, 7170859.17498492822051 ], [ 682715.835711893625557, 7170857.550254901871085 ], [ 682663.844201790285297, 7170851.051328523084521 ], [ 682605.353753516683355, 7170846.177138432860374 ], [ 682589.106407101266086, 7170846.177142350003123 ], [ 682540.36436825315468, 7170847.801888829097152 ], [ 682507.869675818132237, 7170849.426631391048431 ], [ 682488.372861697105691, 7170855.925575008615851 ], [ 682475.374988107243553, 7170870.548190710134804 ], [ 682451.003981871181168, 7170925.789177410304546 ], [ 682431.507177194580436, 7170971.281754556111991 ], [ 682416.884576440555975, 7171016.774330532178283 ], [ 682413.63511935796123, 7171067.141107961535454 ], [ 682407.136189450044185, 7171102.885273601859808 ], [ 682394.138317823410034, 7171125.631562961265445 ], [ 682375.453873769612983, 7171143.50364949926734 ], [ 682338.084979361621663, 7171153.252066880464554 ], [ 682315.338694371981546, 7171153.25207235570997 ], [ 682295.841873554512858, 7171132.130525548011065 ], [ 682271.470844483934343, 7171093.136897876858711 ], [ 682227.602998926886357, 7171050.893805436789989 ], [ 682208.106182438321412, 7171047.644340666010976 ] ] ] ] } }
]
}
