{
"type": "FeatureCollection",
"name": "rio_do_meio",
"crs": { "type": "name", "properties": { "name": "urn:ogc:def:crs:EPSG::31982" } },
"features": [
{ "type": "Feature", "properties": { "AREA": 11546620.57528, "PERIMETER": 17543.14283, "BACIAS1_": 17, "BACIAS1_ID": 0, "NOME_BACIA": "RIO DO MEIO", "SUB_AREA": 11.55, "SUBCODIGO": 16, "BACCODIGO": 2, "SUBNOME": "RIO DO MEIO", "SUBBAC_DAT": "2002-01-03", "SUBBAC_POP": 2009, "SUBBAC_P_1": 4306, "SUBBAC_DEN": 372.87, "SUBBAC_D_1": 173.99 }, "geometry": { "type": "MultiPolygon", "coordinates": [ [ [ [ 686753.046168881119229, 7190345.657710463739932 ], [ 686763.122618445078842, 7190322.309905807487667 ], [ 686774.260258327471092, 7190311.172259813174605 ], [ 686800.248085638741031, 7190288.896966906264424 ], [ 686831.804731509764679, 7190255.484029373154044 ], [ 686880.067839497001842, 7190214.645992225967348 ], [ 686924.618401773506775, 7190181.233051492832601 ], [ 686956.175051775411703, 7190164.526578838005662 ], [ 686983.091017345082946, 7190147.820107325911522 ], [ 686997.941200623521581, 7190119.975995537824929 ], [ 687001.653740802896209, 7190090.275612621568143 ], [ 686986.803541412344202, 7190053.150138783268631 ], [ 686970.097069168463349, 7190019.737213155254722 ], [ 686953.390585881075822, 7189941.773714535869658 ], [ 686944.109206890221685, 7189900.935691583901644 ], [ 686945.965473299380392, 7189871.235309134237468 ], [ 686960.815659335814416, 7189854.528840602375567 ], [ 686984.947217457694933, 7189850.816286904737353 ], [ 687018.36014628293924, 7189854.528826415538788 ], [ 687062.910720045911148, 7189867.522732550278306 ], [ 687140.874216186464764, 7189858.241343944333494 ], [ 687181.712239642394707, 7189860.097607738338411 ], [ 687211.412620002171025, 7189860.097600407898426 ], [ 687252.250642996979877, 7189860.097590325400233 ], [ 687281.951021973975003, 7189854.528761370107532 ], [ 687302.37002978194505, 7189839.678565331734717 ], [ 687352.489409182686359, 7189789.559158345684409 ], [ 687395.183693487080745, 7189739.439753195270896 ], [ 687424.884062306256965, 7189693.032899003475904 ], [ 687462.009514668723568, 7189600.219196132384241 ], [ 687462.009504052810371, 7189557.524897036142647 ], [ 687458.296945432783104, 7189512.974324986338615 ], [ 687441.59047410369385, 7189483.273947140201926 ], [ 687410.03381537203677, 7189464.711216203868389 ], [ 687382.189704647404142, 7189448.004758222959936 ], [ 687369.195780404377729, 7189416.448105586692691 ], [ 687371.052049561403692, 7189397.885366395115852 ], [ 687385.90223834826611, 7189392.316541107371449 ], [ 687421.171440003905445, 7189392.316532390192151 ], [ 687456.440643044421449, 7189397.885345292277634 ], [ 687495.422393165761605, 7189401.597883405163884 ], [ 687552.966883310349658, 7189414.591786287724972 ], [ 687586.379811195656657, 7189414.591778023168445 ], [ 687614.223916381131858, 7189409.022949515841901 ], [ 687642.06802064133808, 7189399.741573260165751 ], [ 687666.199578744824976, 7189396.029019542038441 ], [ 687695.899956775829196, 7189386.747642826288939 ], [ 687751.588166217552498, 7189371.897438056766987 ], [ 687803.563828577520326, 7189358.903508074581623 ], [ 687822.126566289225593, 7189358.903503477573395 ], [ 687869.461549305939116, 7189366.328587247058749 ], [ 687897.305653100134805, 7189355.190937109291553 ], [ 687932.574851051205769, 7189340.340737383812666 ], [ 687975.269145012716763, 7189329.203083564527333 ], [ 688004.969525815802626, 7189331.0593500752002 ], [ 688027.244811994256452, 7189334.771892298944294 ], [ 688047.663826256990433, 7189345.909530475735664 ], [ 688075.507932825479656, 7189345.909523569978774 ], [ 688095.926941529847682, 7189334.77187526691705 ], [ 688129.339861073996872, 7189301.35893726348877 ], [ 688140.477494898019359, 7189266.08973091468215 ], [ 688146.04630879976321, 7189236.389347564429045 ], [ 688147.90257237944752, 7189195.551321901381016 ], [ 688149.758835030486807, 7189151.000748494639993 ], [ 688157.1839106567204, 7189073.037244003266096 ], [ 688173.890359300537966, 7189011.780202069319785 ], [ 688181.315442334627733, 7188963.517079547047615 ], [ 688198.02189792599529, 7188930.104145701043308 ], [ 688214.72835351631511, 7188896.691211858764291 ], [ 688233.29107916704379, 7188848.428086578845978 ], [ 688244.428712053457275, 7188809.446332504041493 ], [ 688264.84771517792251, 7188776.033397743478417 ], [ 688301.973185938550159, 7188757.470649808645248 ], [ 688342.811206091661006, 7188746.332996437326074 ], [ 688361.373941470170394, 7188737.051622468046844 ], [ 688374.367854147800244, 7188722.201428267173469 ], [ 688383.649217893718742, 7188701.782413372769952 ], [ 688390.146165417390876, 7188659.088112713769078 ], [ 688395.714980230899528, 7188633.100277133285999 ], [ 688419.846527172252536, 7188584.837150480598211 ], [ 688440.265529354917817, 7188547.711667981930077 ], [ 688464.397078146226704, 7188506.873636820353568 ], [ 688471.822161156916991, 7188458.61051432788372 ], [ 688469.965878570335917, 7188423.341311242431402 ], [ 688447.690581741626374, 7188376.934470009058714 ], [ 688438.409204545780085, 7188343.521542641334236 ], [ 688427.271553117199801, 7188308.25234186463058 ], [ 688410.565083630383015, 7188285.977059569209814 ], [ 688395.714889771072194, 7188271.126872296445072 ], [ 688386.433517217985354, 7188256.276683639734983 ], [ 688375.295868575805798, 7188232.145126089453697 ], [ 688371.583311297697946, 7188193.163375733420253 ], [ 688377.152124253218062, 7188159.750444686040282 ], [ 688384.577211904688738, 7188130.050060918554664 ], [ 688392.00229630805552, 7188087.355760060250759 ], [ 688399.427383958129212, 7188057.655376296490431 ], [ 688423.55892670317553, 7187992.685784854926169 ], [ 688438.409109422471374, 7187962.985399247147143 ], [ 688440.265372517053038, 7187920.291099783964455 ], [ 688440.265366021310911, 7187894.303265608847141 ], [ 688409.636843287269585, 7187872.027986785396934 ], [ 688398.499194650445133, 7187847.896429250948131 ], [ 688389.217817461816594, 7187814.48350190743804 ], [ 688391.074082415085286, 7187779.214297926984727 ], [ 688398.49916820670478, 7187742.08881869725883 ], [ 688402.211706461734138, 7187704.963340394198895 ], [ 688392.930329739698209, 7187673.406686924397945 ], [ 688389.217770143644884, 7187625.143567254766822 ], [ 688398.499132019118406, 7187597.299456916749477 ], [ 688407.780489720287733, 7187552.748881759122014 ], [ 688418.918126288568601, 7187528.617318699136376 ], [ 688439.33713122527115, 7187502.629479464143515 ], [ 688457.899869357119314, 7187504.485748719424009 ], [ 688476.462607024004683, 7187504.485744104720652 ], [ 688511.731810448574834, 7187511.910830813460052 ], [ 688547.001015730667859, 7187526.761012993752956 ], [ 688580.413944926229306, 7187532.329826289787889 ], [ 688623.108239704044536, 7187524.904720196500421 ], [ 688645.383521651965566, 7187511.910797575488687 ], [ 688671.371347417589277, 7187484.066683081910014 ], [ 688688.07780341967009, 7187452.510023159906268 ], [ 688689.934068822069094, 7187419.097093065269291 ], [ 688701.071702591143548, 7187383.827886795625091 ], [ 688717.778160447604023, 7187359.696322350762784 ], [ 688734.484621092560701, 7187346.702401114627719 ], [ 688762.328726191539317, 7187341.133572578430176 ], [ 688821.729484854498878, 7187333.708462316542864 ], [ 688873.70514519396238, 7187313.289436823688447 ], [ 688910.830609353375621, 7187268.738854739814997 ], [ 688921.968238923582248, 7187216.763183662667871 ], [ 688921.96822868892923, 7187175.925158571451902 ], [ 688908.974298836197704, 7187122.093219642527401 ], [ 688879.273891605902463, 7187014.429342726245522 ], [ 688867.208097245311365, 7186955.028581978753209 ], [ 688856.070443027885631, 7186908.621738072484732 ], [ 688856.070430470863357, 7186858.502343662083149 ], [ 688859.782968234270811, 7186819.520591530017555 ], [ 688857.926684235688299, 7186778.682566924020648 ], [ 688856.070398844196461, 7186732.275720715522766 ], [ 688835.651379990857095, 7186702.575343934819102 ], [ 688807.807264684699476, 7186667.306147404015064 ], [ 688763.256687824847177, 7186641.31832436658442 ], [ 688733.556302943266928, 7186622.755593094974756 ], [ 688718.706107714911923, 7186602.336584262549877 ], [ 688690.861992419697344, 7186567.067387729883194 ], [ 688666.730424654320814, 7186531.798190277069807 ], [ 688652.808355159941129, 7186466.828608429059386 ], [ 688658.377167161437683, 7186429.703129722736776 ], [ 688673.227347051375546, 7186388.865100977942348 ], [ 688706.640265043010004, 7186349.883341481909156 ], [ 688764.184738706564531, 7186297.907658919692039 ], [ 688812.447842613211833, 7186242.219430938363075 ], [ 688834.723106383695267, 7186156.830827583558857 ], [ 688834.723096617264673, 7186117.849076414480805 ], [ 688825.441716640722007, 7186073.298505963757634 ], [ 688814.304064297117293, 7186034.316757572814822 ], [ 688825.441698969574645, 7186002.760099094361067 ], [ 688771.60976309585385, 7186015.754029549658298 ], [ 688721.490371493622661, 7186015.754042028449476 ], [ 688676.939801181433722, 7186015.754053113050759 ], [ 688654.664515095646493, 7186012.04151092749089 ], [ 688626.820403075311333, 7185989.76623147726059 ], [ 688600.832563425879925, 7185961.922129970043898 ], [ 688574.84472424373962, 7185935.9343023262918 ], [ 688548.856885990593582, 7185913.65902241319418 ], [ 688509.875130008324049, 7185885.814924139529467 ], [ 688482.031010570237413, 7185833.83926285430789 ], [ 688469.037086805328727, 7185804.138884253799915 ], [ 688448.61806613591034, 7185767.013412043452263 ], [ 688426.342774025397375, 7185739.16930961702019 ], [ 688413.348856296855956, 7185733.600491251796484 ], [ 688391.073567437240854, 7185718.750305876135826 ], [ 688372.5108228540048, 7185690.906202524900436 ], [ 688357.660621159127913, 7185644.499359613284469 ], [ 688340.954150342615321, 7185616.65525580663234 ], [ 688314.966313500655815, 7185599.948797484859824 ], [ 688275.984562178840861, 7185590.667437846772373 ], [ 688235.146537562017329, 7185583.242352534085512 ], [ 688194.308513407595456, 7185577.673541080206633 ], [ 688157.18303631467279, 7185570.24845483712852 ], [ 688088.500901564024389, 7185547.973185516893864 ], [ 688056.944241128046997, 7185521.985359249636531 ], [ 687940.927094910992309, 7185377.196026667952538 ], [ 687868.532397391740233, 7185293.663720767945051 ], [ 687805.419065917958505, 7185198.993769391439855 ], [ 687703.323975777835585, 7185065.342076566070318 ], [ 687616.079084996134043, 7184968.815857316367328 ], [ 687515.840279302909039, 7184877.858462870121002 ], [ 687443.445584649802186, 7184805.463800156489015 ], [ 687343.206786378985271, 7184744.206787496805191 ], [ 687216.980152723845094, 7184671.812138076871634 ], [ 687105.603720229235478, 7184643.968057648278773 ], [ 687031.352770765661262, 7184647.680623691529036 ], [ 686971.952011836925521, 7184653.249459929764271 ], [ 686942.251635828055441, 7184669.955932006239891 ], [ 686893.988528662826866, 7184712.650242721661925 ], [ 686835.51593376044184, 7184827.739236559718847 ], [ 686792.821673623868264, 7184974.384882182814181 ], [ 686770.546407358953729, 7185050.492116024717689 ], [ 686763.121350495144725, 7185204.56284845340997 ], [ 686738.989836674183607, 7185386.477692974731326 ], [ 686744.558683715411462, 7185490.429027952253819 ], [ 686772.402805320569314, 7185551.686058593913913 ], [ 686820.665945674059913, 7185642.643466029316187 ], [ 686835.516152796102688, 7185711.325595336034894 ], [ 686829.947347153676674, 7185774.438908090814948 ], [ 686828.091093636932783, 7185856.114958577789366 ], [ 686820.666011930326931, 7185909.946902479045093 ], [ 686816.953482346958481, 7185982.341584115289152 ], [ 686813.240947244456038, 7186032.460979379713535 ], [ 686809.528418121044524, 7186106.711934892460704 ], [ 686809.528435142710805, 7186175.394067903980613 ], [ 686777.971791284857318, 7186216.232100713998079 ], [ 686744.558867221348919, 7186231.082299867644906 ], [ 686674.020466046291403, 7186238.507412698119879 ], [ 686607.194613314932212, 7186249.645072340033948 ], [ 686541.296895626699552, 7186253.357636287808418 ], [ 686507.883970180293545, 7186262.639013834297657 ], [ 686485.608692363486625, 7186292.339401159435511 ], [ 686476.32733089348767, 7186322.039785291999578 ], [ 686467.045975851477124, 7186377.728003544732928 ], [ 686454.052069606026635, 7186418.566031787544489 ], [ 686431.776790406438522, 7186442.697597520425916 ], [ 686413.214057358680293, 7186461.260340742766857 ], [ 686385.369955944945104, 7186481.679360114037991 ], [ 686361.23840389540419, 7186509.523474033921957 ], [ 686355.669583979179151, 7186515.092297002673149 ], [ 686351.121697580325417, 7186531.651925653219223 ], [ 686348.548878078116104, 7186533.581541375257075 ], [ 686342.941706686047837, 7186533.581542752683163 ], [ 686335.231844979920425, 7186529.376165873371065 ], [ 686317.709432818228379, 7186523.068102015182376 ], [ 686301.588813676382415, 7186517.460934276692569 ], [ 686276.356541022076271, 7186511.853768774308264 ], [ 686242.713511103997007, 7186505.545708876103163 ], [ 686215.378550391527824, 7186504.844819127582014 ], [ 686188.043589504552074, 7186503.44303291477263 ], [ 686167.016695568920113, 7186498.536762839183211 ], [ 686158.60593674890697, 7186491.527800278738141 ], [ 686134.775451059453189, 7186462.090154703706503 ], [ 686108.141378985252231, 7186429.848923964425921 ], [ 686082.909103565965779, 7186413.027415057644248 ], [ 686043.658900360693224, 7186399.009495439939201 ], [ 685998.801522132009268, 7186370.272751484066248 ], [ 685982.680898845894262, 7186347.844068640843034 ], [ 685962.35489840048831, 7186331.022558527067304 ], [ 685943.430692879250273, 7186322.611805621534586 ], [ 685901.376903292606585, 7186305.790300835855305 ], [ 685881.050903716008179, 7186292.4732730332762 ], [ 685855.117731709848158, 7186274.950867831707001 ], [ 685828.483663627295755, 7186258.830255728214979 ], [ 685803.251392712118104, 7186260.232054835185409 ], [ 685786.429880439303815, 7186267.941920043900609 ], [ 685764.702092680614442, 7186273.549097065813839 ], [ 685753.487749726162292, 7186272.848203351721168 ], [ 685744.376096042571589, 7186272.147309119813144 ], [ 685732.048464786959812, 7186276.770174540579319 ], [ 685732.719815922318958, 7186277.054989994503558 ], [ 685734.112289020675234, 7186295.85331498272717 ], [ 685741.770874679088593, 7186332.753729490563273 ], [ 685752.214395898394287, 7186364.084269146434963 ], [ 685758.480508116423152, 7186380.793890127912164 ], [ 685773.101431476417929, 7186398.895977603271604 ], [ 685790.507291084271856, 7186414.213127313181758 ], [ 685805.82444799260702, 7186429.530277530662715 ], [ 685822.534073711722158, 7186446.239895954728127 ], [ 685826.01524899888318, 7186462.94951761700213 ], [ 685823.23031652753707, 7186481.051609359681606 ], [ 685817.660450212657452, 7186511.685918675735593 ], [ 685802.343307032249868, 7186552.06751018203795 ], [ 685791.203576801461168, 7186623.083408620208502 ], [ 685784.937477623228915, 7186659.28759228810668 ], [ 685779.367612334666774, 7186694.099307239055634 ], [ 685774.493977162055671, 7186712.201399497687817 ], [ 685766.139170305337757, 7186728.214789796620607 ], [ 685752.214488378725946, 7186739.354541557841003 ], [ 685736.201103406492621, 7186749.101825285702944 ], [ 685712.529141522129066, 7186757.456642346456647 ], [ 685686.072243389673531, 7186768.596397173590958 ], [ 685660.311578973662108, 7186777.647449016571045 ], [ 685640.120787569205277, 7186783.217328134924173 ], [ 685632.922399641131051, 7186784.93123197928071 ], [ 685631.069743705447763, 7186787.982667145319283 ], [ 685611.404998478363268, 7186803.8413414824754 ], [ 685584.762441383674741, 7186829.215219247154891 ], [ 685568.903778192587197, 7186851.417360467836261 ], [ 685551.776426349766552, 7186893.284252209588885 ], [ 685532.111683459836058, 7186918.658128265291452 ], [ 685520.693444522446953, 7186928.807679558172822 ], [ 685496.588270817417651, 7186939.591580733656883 ], [ 685478.192215954069979, 7186942.763319140300155 ], [ 685454.721389772137627, 7186956.718954067677259 ], [ 685439.497068951604888, 7186961.159385257400572 ], [ 685435.056644535972737, 7186972.577628405764699 ], [ 685435.056646849261597, 7186981.985541321337223 ], [ 685442.696821285877377, 7186990.580733786337078 ], [ 685450.82050266279839, 7187023.075427109375596 ], [ 685462.193652193178423, 7187050.695915340445936 ], [ 685509.310958610032685, 7187053.94537334702909 ], [ 685540.180919861304574, 7187063.69377438724041 ], [ 685592.172437109053135, 7187094.563722210936248 ], [ 685629.541339471004903, 7187114.060530250892043 ], [ 685649.038161992444657, 7187140.056281732395291 ], [ 685657.16184017714113, 7187159.553096931427717 ], [ 685655.537110703415237, 7187180.674649285152555 ], [ 685653.912382027832791, 7187205.045671172440052 ], [ 685655.537125109462067, 7187239.165100857615471 ], [ 685675.033947234624065, 7187263.536117575131357 ], [ 685704.279179423348978, 7187296.030805734917521 ], [ 685718.901795519399457, 7187312.278149815276265 ], [ 685749.771755183348432, 7187315.527611786499619 ], [ 685772.518041462637484, 7187318.777075747027993 ], [ 685795.26432654063683, 7187317.152335407212377 ], [ 685814.761143065290526, 7187318.777065397240222 ], [ 685822.884818853111938, 7187328.525472001172602 ], [ 685839.13217083143536, 7187349.647019982337952 ], [ 685858.628994567785412, 7187380.516975762322545 ], [ 685873.25161066907458, 7187396.764319840818644 ], [ 685883.000023938715458, 7187417.885869414545596 ], [ 685873.251629898208193, 7187474.751588631421328 ], [ 685871.626904034405015, 7187510.495753891766071 ], [ 685882.187689854879864, 7187552.738855235278606 ], [ 685901.684512395062484, 7187578.734606724232435 ], [ 685919.556599459727295, 7187601.480889074504375 ], [ 685940.678155479137786, 7187622.602435866370797 ], [ 685950.426568354014307, 7187642.099250677973032 ], [ 685950.42657476675231, 7187668.095006947405636 ], [ 685939.053436831571162, 7187687.591826940886676 ], [ 685913.057681986247189, 7187687.5918333157897 ], [ 685901.684542848262936, 7187702.214449005201459 ], [ 685885.437200075015426, 7187718.461800659075379 ], [ 685872.439326257677749, 7187733.084416748955846 ], [ 685872.439329863642342, 7187747.707029653713107 ], [ 685880.563005256582983, 7187755.830701497383416 ], [ 685906.558764110668562, 7187772.078042795881629 ], [ 685921.181379018351436, 7187783.451182580552995 ], [ 685932.554524569655769, 7187794.824323162436485 ], [ 685934.179263253812678, 7187811.07167043723166 ], [ 685934.179267261875793, 7187827.319018110632896 ], [ 685926.055605493718758, 7187874.43632835522294 ], [ 685926.055613108328544, 7187905.306288935244083 ], [ 685926.055619919556193, 7187932.926779981702566 ], [ 685932.554563842597418, 7187954.048330364748836 ], [ 685932.554570653941482, 7187981.668821414932609 ], [ 685922.806168194627389, 7188004.415110552683473 ], [ 685916.307234689011239, 7188025.536664126440883 ], [ 685909.808299582218751, 7188040.159278629347682 ], [ 685913.057772945379838, 7188056.406625509262085 ], [ 685924.430919302511029, 7188071.029235632158816 ], [ 685922.806190633680671, 7188095.400257548317313 ], [ 685922.806194640463218, 7188111.64760522544384 ], [ 685917.931997417472303, 7188139.268097477033734 ], [ 685911.43306872015819, 7188179.886468270793557 ], [ 685913.05780780618079, 7188197.758550321683288 ], [ 685918.744383188895881, 7188214.005896607413888 ], [ 685918.7443892005831, 7188238.376918129622936 ], [ 685926.868067804607563, 7188259.498468124307692 ], [ 685930.117547580972314, 7188301.741571303457022 ], [ 685926.868085435591638, 7188330.986797930672765 ], [ 685899.247620329027995, 7188430.095625579357147 ], [ 685883.000291963806376, 7188504.833428921177983 ], [ 685876.501368869794533, 7188568.198086498305202 ], [ 685865.128233320894651, 7188597.44331512786448 ], [ 685821.260405377484858, 7188631.562756028026342 ], [ 685798.514124264009297, 7188649.434844059869647 ], [ 685774.143104067654349, 7188649.43485002964735 ], [ 685710.778451549937017, 7188649.434865550138056 ], [ 685663.661149035906419, 7188662.432755241170526 ], [ 685629.541725957416929, 7188683.554315591230989 ], [ 685611.669650878873654, 7188709.550076274201274 ], [ 685603.545984678552486, 7188738.795304105617106 ], [ 685603.545997879235074, 7188792.411551494151354 ], [ 685603.546009478508495, 7188839.528859807178378 ], [ 685622.230471904273145, 7188894.769837398082018 ], [ 685649.8509710743092, 7188933.763465110212564 ], [ 685669.347795242792927, 7188966.258155729621649 ], [ 685693.718823854695074, 7189000.377579929307103 ], [ 685721.33931943110656, 7189024.748594712466002 ], [ 685765.207160613965243, 7189044.245401207357645 ], [ 685815.573942123330198, 7189070.241145187988877 ], [ 685857.817051834892482, 7189102.73583023622632 ], [ 685888.687017181422561, 7189128.731578992679715 ], [ 685917.932243040762842, 7189135.230510903522372 ], [ 685937.429061216302216, 7189143.354179974645376 ], [ 685955.301145511912182, 7189154.727318983525038 ], [ 685969.923764053732157, 7189180.723071720451117 ], [ 685971.548511159024201, 7189231.089849201962352 ], [ 685971.548524385201745, 7189284.70609662681818 ], [ 685971.548535207053646, 7189328.573935428634286 ], [ 685965.04960569832474, 7189365.942836747504771 ], [ 685965.049616518663242, 7189409.810675554908812 ], [ 685966.674360819277354, 7189448.804309656843543 ], [ 685979.67224188009277, 7189463.426919406279922 ], [ 685991.045389460748993, 7189482.923733867704868 ], [ 686019.478267636732198, 7189569.034669756889343 ], [ 686017.853542176191695, 7189606.403569892048836 ], [ 686008.105144507018849, 7189648.646676333621144 ], [ 685996.732009347528219, 7189679.516639776527882 ], [ 685978.859934658859856, 7189707.137135271914303 ], [ 685951.239452674402855, 7189738.007102702744305 ], [ 685930.117909018183127, 7189767.252333766780794 ], [ 685915.495302086230367, 7189788.373889381065965 ], [ 685907.371633882750757, 7189809.495443404652178 ], [ 685907.371643497841433, 7189848.489077923819423 ], [ 685907.371656319126487, 7189900.480590620078146 ], [ 685915.495338945533149, 7189937.849488381296396 ], [ 685923.619022776838392, 7189980.092590460553765 ], [ 685926.868500156095251, 7190012.587285103276372 ], [ 685926.868508169660345, 7190045.081980545073748 ], [ 685926.868519788258709, 7190092.199288936331868 ], [ 685936.616939907427877, 7190140.941329715773463 ], [ 685970.736377469147556, 7190178.310221116989851 ], [ 686009.730018284753896, 7190212.429641774855554 ], [ 686055.222596633131616, 7190241.67485652025789 ], [ 686116.962519813212566, 7190262.796393415890634 ], [ 686149.457213882589713, 7190264.421120213344693 ], [ 686190.075580164440908, 7190261.171640698798001 ], [ 686244.504186839563772, 7190240.050075290724635 ], [ 686285.12255151453428, 7190230.3016566792503 ], [ 686333.864591611432843, 7190228.676909934729338 ], [ 686374.48295628442429, 7190218.928491320461035 ], [ 686411.851853598607704, 7190217.303747361525893 ], [ 686444.346549675334245, 7190227.052148009650409 ], [ 686470.342309831874445, 7190248.173693660646677 ], [ 686548.329587495303713, 7190300.165187206119299 ], [ 686579.199549296870828, 7190311.538323022425175 ], [ 686605.195304231718183, 7190311.538316627033055 ], [ 686639.314731378457509, 7190306.664103913120925 ], [ 686691.306241250596941, 7190306.664091118611395 ], [ 686730.299876470700838, 7190318.037224926054478 ], [ 686746.547226121649146, 7190329.410364335402846 ], [ 686753.046168881119229, 7190345.657710463739932 ] ] ] ] } }
]
}
