{
"type": "FeatureCollection",
"name": "rio_alto_boqueirao",
"crs": { "type": "name", "properties": { "name": "urn:ogc:def:crs:EPSG::31982" } },
"features": [
{ "type": "Feature", "properties": { "AREA": 4779908.3115299996, "PERIMETER": 10211.75213, "BACIAS1_": 3, "BACIAS1_ID": 0, "NOME_BACIA": "RIO ALTO BOQUEIRAO", "SUB_AREA": 4.78, "SUBCODIGO": 2, "BACCODIGO": 2, "SUBNOME": "RIO ALTO BOQUEIRAO", "SUBBAC_DAT": "2002-01-03", "SUBBAC_POP": 33086, "SUBBAC_P_1": 36176, "SUBBAC_DEN": 7568.24, "SUBBAC_D_1": 6921.83 }, "geometry": { "type": "MultiPolygon", "coordinates": [ [ [ [ 675269.038029874442145, 7177222.80613898485899 ], [ 675326.621128343627788, 7177217.047815365716815 ], [ 675359.755813875235617, 7177230.780915630981326 ], [ 675389.064002653351054, 7177238.107955615967512 ], [ 675414.708665497251786, 7177234.444426266476512 ], [ 675436.029019325855188, 7177222.806100340560079 ], [ 675448.901541060768068, 7177194.14566099178046 ], [ 675455.293869588058442, 7177188.12934897840023 ], [ 675469.661502367816865, 7177174.606864738278091 ], [ 675492.863815151154995, 7177166.058638095855713 ], [ 675493.3454899196513, 7177165.947482263669372 ], [ 675524.614349448820576, 7177158.731583932414651 ], [ 675545.918402631767094, 7177156.669896366074681 ], [ 675562.470756899332628, 7177155.068051743321121 ], [ 675590.557771784835495, 7177164.837440934032202 ], [ 675624.750661249388941, 7177184.376224420964718 ], [ 675656.501204062020406, 7177213.684404188767076 ], [ 675680.924694995395839, 7177221.011445298790932 ], [ 675709.011706477031112, 7177216.126740908250213 ], [ 675743.204583445680328, 7177181.933847947046161 ], [ 675772.512762281461619, 7177146.519781655631959 ], [ 675793.409227944910526, 7177129.641859002411366 ], [ 675804.263292312272824, 7177120.875110510736704 ], [ 675838.456173251150176, 7177103.778660051524639 ], [ 675883.639628605684265, 7177104.999823996797204 ], [ 675915.390166875673458, 7177114.769212321378291 ], [ 675928.063971115625463, 7177118.626453875564039 ], [ 675943.477181479916908, 7177123.317427032627165 ], [ 675987.439462375012226, 7177124.538591258227825 ], [ 676025.295869539724663, 7177119.653884581290185 ], [ 676046.409847717150114, 7177096.123132281005383 ], [ 676092.460448124213144, 7177047.604575524106622 ], [ 676129.095672850962728, 7177008.526984125375748 ], [ 676139.19469041400589, 7176998.130931760184467 ], [ 676170.615594565402716, 7176965.785868193954229 ], [ 676193.817904202151112, 7176943.804722426459193 ], [ 676219.750331663875841, 7176928.245257684960961 ], [ 676230.453132907161489, 7176921.823573525995016 ], [ 676260.982487883418798, 7176893.73655373044312 ], [ 676287.848320040269755, 7176868.091883713379502 ], [ 676346.464684477541596, 7176826.571938255801797 ], [ 676377.026002557715401, 7176783.080810059793293 ], [ 676378.21520991192665, 7176781.388475675135851 ], [ 676430.725700321956538, 7176732.541484856046736 ], [ 676469.803273366764188, 7176691.021543953567743 ], [ 676502.774977531051263, 7176664.155698052607477 ], [ 676509.888462249888107, 7176661.435834333300591 ], [ 676544.294905483955517, 7176648.280420321971178 ], [ 676587.690877855871804, 7176635.458182882517576 ], [ 676651.03228489740286, 7176623.941547535359859 ], [ 676697.09875660657417, 7176589.39167504850775 ], [ 676743.165221553179435, 7176526.050251106731594 ], [ 676794.990005930420011, 7176503.016997853294015 ], [ 676858.331415662076324, 7176503.016983071342111 ], [ 676915.914515418349765, 7176503.016969628632069 ], [ 677019.564089568099007, 7176479.983704261481762 ], [ 677134.730289077968337, 7176479.983677348122001 ], [ 677209.588316049543209, 7176468.467039260081947 ], [ 677272.929713582620025, 7176416.642231835983694 ], [ 677342.029412946430966, 7176330.267561325803399 ], [ 677370.820941125159152, 7176238.134589966386557 ], [ 677480.228807557141408, 7176140.243289452977479 ], [ 677555.086835846072063, 7176134.484961626119912 ], [ 677699.044581094407476, 7176117.209997016936541 ], [ 677814.21076423744671, 7176048.110246552154422 ], [ 677958.168506740708835, 7176019.318661320023239 ], [ 678107.884559203870595, 7175990.527074709534645 ], [ 678151.866523795761168, 7176011.051980037242174 ], [ 678162.005045147612691, 7175923.615546144545078 ], [ 678171.908828155952506, 7175861.36309752613306 ], [ 678184.642265312140808, 7175789.206849973648787 ], [ 678197.375709496322088, 7175746.761997245252132 ], [ 678205.864672283059917, 7175718.465428757481277 ], [ 678204.44983868196141, 7175695.828175902366638 ], [ 678184.642235857667401, 7175664.701957421377301 ], [ 678143.612201637355611, 7175601.034692479297519 ], [ 678095.671250963467173, 7175489.182578936219215 ], [ 678073.566718875663355, 7175269.716661619022489 ], [ 678015.147640346433036, 7174867.099335657432675 ], [ 677981.990914850961417, 7174844.994862060062587 ], [ 677857.258493957924657, 7174857.626023573800921 ], [ 677779.892813697340898, 7174859.204933259636164 ], [ 677702.527128966292366, 7174841.837144603952765 ], [ 677637.810916833812371, 7174810.145778421312571 ], [ 677585.46226408064831, 7174777.604739271104336 ], [ 677547.261893782415427, 7174745.063696805387735 ], [ 677483.594619411160238, 7174730.915428495034575 ], [ 677424.171825109515339, 7174696.959562676027417 ], [ 677373.238005950348452, 7174687.055776342749596 ], [ 677323.719016039511189, 7174681.396474648267031 ], [ 677271.370370300603099, 7174678.566830253228545 ], [ 677226.095866119605489, 7174677.152012523263693 ], [ 677193.554819478653371, 7174689.885475035756826 ], [ 677159.598947250051424, 7174713.937564458698034 ], [ 677127.057904596906155, 7174743.648966839537024 ], [ 677103.005831414600834, 7174773.360367237590253 ], [ 677090.272378868539818, 7174780.434511829167604 ], [ 677066.220300027984194, 7174786.093830740079284 ], [ 677053.486846819636412, 7174790.338318683207035 ], [ 677029.434766978956759, 7174791.753152625635266 ], [ 676989.819575110566802, 7174787.50867691449821 ], [ 676835.603288726182655, 7174754.967661507427692 ], [ 676756.372905327822082, 7174747.893538381904364 ], [ 676701.194600441725925, 7174733.74526803009212 ], [ 676673.605449991999194, 7174735.160102784633636 ], [ 676628.330951451323926, 7174757.79736650083214 ], [ 676588.715766552370042, 7174783.264285543933511 ], [ 676549.100580990547314, 7174805.901547938585281 ], [ 676502.411251543322578, 7174817.220185399055481 ], [ 676434.499505707062781, 7174859.665050898678601 ], [ 676396.299146724748425, 7174875.228171344846487 ], [ 676346.780161774018779, 7174890.791294422000647 ], [ 676297.261175165651366, 7174899.280275885015726 ], [ 676231.670063869445585, 7174895.175162680447102 ], [ 676186.904571350081824, 7174896.450644912198186 ], [ 676155.778353255824186, 7174910.598935376852751 ], [ 676104.844548655673862, 7174962.947595166042447 ], [ 676066.64420288882684, 7175035.103848520666361 ], [ 676028.443846534355544, 7175061.985595537349582 ], [ 676002.976941745262593, 7175077.548713006079197 ], [ 675986.706420554080978, 7175093.111828342080116 ], [ 675962.654350952012464, 7175138.386340275406837 ], [ 675944.261592344380915, 7175175.171880949288607 ], [ 675918.794700107770041, 7175244.498474711552262 ], [ 675884.83883541484829, 7175301.091615539044142 ], [ 675862.201593714999035, 7175344.951298825442791 ], [ 675831.075380549533293, 7175380.322014141827822 ], [ 675804.193649152875878, 7175402.959273561835289 ], [ 675771.652596839587204, 7175391.64065452106297 ], [ 675751.844995777239092, 7175367.58857761323452 ], [ 675744.770845963153988, 7175330.803042838349938 ], [ 675736.281871531857178, 7175309.580619952641428 ], [ 675715.059442885103635, 7175288.358200021088123 ], [ 675679.688729136250913, 7175255.817156782373786 ], [ 675654.221818065503612, 7175244.4985360968858 ], [ 675606.117657035239972, 7175241.668890601024032 ], [ 675567.917294717743061, 7175243.083727778866887 ], [ 675546.694873662199825, 7175254.402359282597899 ], [ 675531.131766910897568, 7175271.380302772857249 ], [ 675508.494521234882995, 7175298.262046163901687 ], [ 675508.494528487557545, 7175329.388269282877445 ], [ 675508.494532445212826, 7175346.366209167055786 ], [ 675508.494538706145249, 7175373.247947318479419 ], [ 675491.516607991768979, 7175408.618659343570471 ], [ 675481.612813233397901, 7175421.352116553112864 ], [ 675475.953505520243198, 7175443.989371043629944 ], [ 675463.220064814086072, 7175501.997335277497768 ], [ 675440.582823413889855, 7175547.271846886724234 ], [ 675426.434552480466664, 7175596.79084150493145 ], [ 675416.530763646587729, 7175634.991208551451564 ], [ 675412.286283847875893, 7175656.213634397834539 ], [ 675413.701118026743643, 7175681.680543906055391 ], [ 675406.626980415428989, 7175697.243657112121582 ], [ 675395.308363991905935, 7175738.2736811414361 ], [ 675374.793365609948523, 7175786.377848924137652 ], [ 675335.178182264557108, 7175818.918909554369748 ], [ 675309.711280396906659, 7175847.215481938794255 ], [ 675278.585066858795471, 7175881.171368930488825 ], [ 675257.362651705392636, 7175917.956910284236073 ], [ 675246.044030993594788, 7175940.594166099093854 ], [ 675247.458865824155509, 7175968.890732267871499 ], [ 675264.436807428719476, 7175980.209354938007891 ], [ 675288.488893234403804, 7176004.261430896818638 ], [ 675299.807526790187694, 7176036.80247975513339 ], [ 675312.540985628962517, 7176056.610073357820511 ], [ 675332.348583404906094, 7176066.513867050409317 ], [ 675360.645150991738774, 7176077.832487100735307 ], [ 675377.623094909125939, 7176099.05490804836154 ], [ 675379.03792974492535, 7176127.351474225521088 ], [ 675383.282428323873319, 7176186.774262899532914 ], [ 675371.963819470140152, 7176260.345338437706232 ], [ 675367.719352842192166, 7176338.160897321999073 ], [ 675363.474879954126664, 7176389.094718027859926 ], [ 675363.474883577902801, 7176404.657829607836902 ], [ 675379.745424903347157, 7176475.399242130108178 ], [ 675392.478883754345588, 7176495.206835744902492 ], [ 675405.212346229236573, 7176530.577540947124362 ], [ 675405.212355122203007, 7176568.777905747294426 ], [ 675396.723395844688639, 7176612.637585817836225 ], [ 675358.523041032720357, 7176646.593474486842752 ], [ 675327.39682680205442, 7176677.719704864546657 ], [ 675296.270612240536138, 7176707.431106916628778 ], [ 675271.511125784832984, 7176741.38699247688055 ], [ 675271.511130065307952, 7176759.779760718345642 ], [ 675270.096305109327659, 7176773.928044307976961 ], [ 675265.851824969984591, 7176793.735641862265766 ], [ 675254.533202269580215, 7176807.883927742950618 ], [ 675221.992155500105582, 7176820.617390209808946 ], [ 675192.280763254500926, 7176824.861882055178285 ], [ 675166.813856084947474, 7176830.521201251074672 ], [ 675120.124530439847149, 7176858.817778574302793 ], [ 675087.583488601725549, 7176892.773665930144489 ], [ 675062.116590634570457, 7176938.04817826859653 ], [ 675040.894174457876943, 7176970.589234687387943 ], [ 675022.501415760372765, 7177007.374775432050228 ], [ 675012.597629518131725, 7177056.893769158050418 ], [ 675004.108670209767297, 7177100.753449254669249 ], [ 674981.471435304614715, 7177174.324527490884066 ], [ 674970.152817522408441, 7177209.695238284766674 ], [ 674946.572681634686887, 7177268.872695870697498 ], [ 674992.639162821695209, 7177274.630995530635118 ], [ 675032.947332692448981, 7177274.630986219272017 ], [ 675130.838602376636118, 7177274.63096360117197 ], [ 675211.454938099370338, 7177257.356014079414308 ], [ 675269.038029874442145, 7177222.80613898485899 ] ] ] ] } }
]
}
