{
"type": "FeatureCollection",
"name": "rio_mauricio",
"crs": { "type": "name", "properties": { "name": "urn:ogc:def:crs:EPSG::31982" } },
"features": [
{ "type": "Feature", "properties": { "AREA": 134778236.07289001, "PERIMETER": 73670.33552, "BACIAS1_": 31, "BACIAS1_ID": 0, "NOME_BACIA": "RIO MAURICIO", "SUB_AREA": 134.78, "SUBCODIGO": 30, "BACCODIGO": 2, "SUBNOME": "RIO MAURICIO", "SUBBAC_DAT": "2002-01-03", "SUBBAC_POP": 8186, "SUBBAC_P_1": 8634, "SUBBAC_DEN": 64.06, "SUBBAC_D_1": 60.74 }, "geometry": { "type": "MultiPolygon", "coordinates": [ [ [ [ 663449.908515292219818, 7161596.653407926671207 ], [ 663476.865859296871349, 7161614.624963155016303 ], [ 663491.569872217136435, 7161657.103195173665881 ], [ 663516.076551784528419, 7161688.144977139309049 ], [ 663543.850786664756015, 7161714.285423571243882 ], [ 663573.258800089592114, 7161742.059647927060723 ], [ 663607.568155897315592, 7161805.776993319392204 ], [ 663610.835724706645124, 7161862.959232315421104 ], [ 663622.272179842111655, 7161898.902351946569979 ], [ 663656.581532817683183, 7161949.549471128731966 ], [ 663747.256240778136998, 7162034.505921955220401 ], [ 663775.030474969069473, 7162057.378811832517385 ], [ 663806.072266248520464, 7162083.519257562234998 ], [ 663835.480281832162291, 7162121.096151587553322 ], [ 663859.986961072427221, 7162150.504155283793807 ], [ 663920.436755139147863, 7162155.405477028340101 ], [ 663969.450098678818904, 7162145.60279674641788 ], [ 664005.393217416480184, 7162139.067675846628845 ], [ 664038.068781198817305, 7162139.067668767645955 ], [ 664095.251021382748149, 7162155.405439151450992 ], [ 664140.996816024184227, 7162179.912103404290974 ], [ 664168.771054864861071, 7162224.024110890924931 ], [ 664175.306192216929048, 7162336.754810670390725 ], [ 664168.77109193301294, 7162393.937051832675934 ], [ 664152.433321083663031, 7162444.584182011894882 ], [ 664152.433330348227173, 7162487.062417255714536 ], [ 664175.306231423513964, 7162516.470421312376857 ], [ 664245.558701081317849, 7162550.779749928042293 ], [ 664323.980055985623039, 7162558.948624301701784 ], [ 664394.232521013705991, 7162572.018835279159248 ], [ 664438.344538572477177, 7162601.426834720186889 ], [ 664552.709018671186641, 7162632.468597167171538 ], [ 664604.989931835676543, 7162683.115712453611195 ], [ 664637.665499216760509, 7162699.453488137573004 ], [ 664683.411292837816291, 7162719.058817537501454 ], [ 664732.424642126774415, 7162735.396589666604996 ], [ 664776.536656130920164, 7162748.466806300915778 ], [ 664822.282445464516059, 7162748.466796341352165 ], [ 664863.12689664773643, 7162732.129004654474556 ], [ 664892.534892261726782, 7162678.214315036311746 ], [ 664895.802437187172472, 7162625.933409391902387 ], [ 664895.802430385374464, 7162594.891622092574835 ], [ 664882.732197703793645, 7162562.216059360653162 ], [ 664863.126852622954175, 7162531.174276331439614 ], [ 664845.155285733169876, 7162500.132492950186133 ], [ 664830.451278087217361, 7162482.160935087129474 ], [ 664815.747267221449874, 7162449.485372714698315 ], [ 664774.902801029616967, 7162397.20447669364512 ], [ 664734.058341278810985, 7162374.331589683890343 ], [ 664698.115217172307894, 7162356.360036442987621 ], [ 664681.77743062900845, 7162335.120922377333045 ], [ 664663.805859460378997, 7162284.473799657076597 ], [ 664655.636952784610912, 7162212.587557196617126 ], [ 664652.369376028422266, 7162119.462196061387658 ], [ 664650.735582468681969, 7162049.209730470553041 ], [ 664686.678695831913501, 7162018.167935373261571 ], [ 664716.086699657607824, 7162001.830146199092269 ], [ 664768.367601700709201, 7162001.830134822055697 ], [ 664810.845842124777846, 7162036.139469403773546 ], [ 664853.324080406920984, 7162060.646134320646524 ], [ 664907.238763506058604, 7162073.716348799876869 ], [ 664949.71700322534889, 7162104.758126823231578 ], [ 664995.462796460837126, 7162122.729677909985185 ], [ 665031.405917337862775, 7162125.997226631268859 ], [ 665075.517925577005371, 7162112.926990787498653 ], [ 665117.996149890124798, 7162073.716302855871618 ], [ 665147.404147611465305, 7162029.604282940737903 ], [ 665188.2485897813458, 7161972.422034310176969 ], [ 665201.318808477371931, 7161941.380244184285402 ], [ 665199.685025627259165, 7161920.141126933507621 ], [ 665188.248575436417013, 7161907.070903209969401 ], [ 665158.840564813814126, 7161892.366905128583312 ], [ 665137.601445135078393, 7161877.66290526650846 ], [ 665116.362322946893983, 7161851.522457463666797 ], [ 665098.390757138375193, 7161825.382008945569396 ], [ 665083.686749499291182, 7161807.410451103933156 ], [ 665077.151631369371898, 7161782.903778372332454 ], [ 665093.489403217099607, 7161737.157983048819005 ], [ 665101.6582866308745, 7161702.848637448623776 ], [ 665111.460946439532563, 7161660.370400110259652 ], [ 665108.193378233350813, 7161606.455717687495053 ], [ 665096.756917654071003, 7161546.005923943594098 ], [ 665084.503569776657969, 7161493.725021766498685 ], [ 665081.236008023959585, 7161469.218348331749439 ], [ 665079.602222667541355, 7161436.542783158831298 ], [ 665082.8697711576242, 7161400.599660365842283 ], [ 665122.080432601971552, 7161331.980964209884405 ], [ 665175.995099517167546, 7161271.531156229786575 ], [ 665254.416447841911577, 7161250.2920215241611 ], [ 665300.162233135895804, 7161232.320450500585139 ], [ 665318.133786375750788, 7161201.278659333474934 ], [ 665326.302669414668344, 7161165.335535479709506 ], [ 665308.331099307048135, 7161119.589747684076428 ], [ 665300.162191862240434, 7161044.435948787257075 ], [ 665300.162182889762335, 7161003.591491900384426 ], [ 665310.781724591855891, 7160928.437688914127648 ], [ 665314.049271632917225, 7160885.959453044459224 ], [ 665315.683044435456395, 7160861.452778559178114 ], [ 665340.189712922088802, 7160841.847433904185891 ], [ 665385.935500346473418, 7160833.678532534278929 ], [ 665456.187957327580079, 7160810.805621329694986 ], [ 665482.328405793407001, 7160799.369167689234018 ], [ 665511.736409551114775, 7160783.031378509476781 ], [ 665544.411968244006857, 7160760.158475514501333 ], [ 665557.482187262969092, 7160730.750463707372546 ], [ 665570.552404124755412, 7160691.539782252162695 ], [ 665608.12929233466275, 7160645.793982338160276 ], [ 665631.002182981232181, 7160627.82241631206125 ], [ 665658.77640926418826, 7160614.752184038981795 ], [ 665715.958640011027455, 7160588.611719125881791 ], [ 665750.267978674499318, 7160573.907707143574953 ], [ 665766.605758733348921, 7160565.738812191411853 ], [ 665794.379982130834833, 7160539.59835371747613 ], [ 665818.886650595581159, 7160519.993009055033326 ], [ 665856.463542023207992, 7160488.951213609427214 ], [ 665871.167542452341877, 7160474.247205918654799 ], [ 665890.772877796902321, 7160461.17697542719543 ], [ 665916.913328765775077, 7160461.176969695836306 ], [ 665946.32133682561107, 7160464.444519799202681 ], [ 665983.898239058093168, 7160482.41607257630676 ], [ 666006.771137981442735, 7160502.021406851708889 ], [ 666032.911590393050574, 7160508.556514214724302 ], [ 666101.530272025265731, 7160498.753829511813819 ], [ 666152.1773968602065, 7160503.655153219588101 ], [ 666175.050292182015255, 7160506.922704745084047 ], [ 666194.655630410183221, 7160506.922700442373753 ], [ 666219.97918976075016, 7160495.486246960237622 ], [ 666257.556084780255333, 7160480.782234237529337 ], [ 666331.076100242207758, 7160467.71199188940227 ], [ 666406.229897139244713, 7160469.34575364459306 ], [ 666468.313469635555521, 7160475.880853088572621 ], [ 666515.693042440339923, 7160500.387516783550382 ], [ 666540.199726074468344, 7160549.400859625078738 ], [ 666567.973962464486249, 7160582.076419001445174 ], [ 666595.748195600463077, 7160600.047973909415305 ], [ 666631.691317499382421, 7160608.216857369989157 ], [ 666679.070886335917749, 7160614.751960037276149 ], [ 666721.549119169008918, 7160614.751950681209564 ], [ 666757.492247586720623, 7160652.328843080438673 ], [ 666765.66114720585756, 7160691.539519874379039 ], [ 666765.661157707567327, 7160738.919089846313 ], [ 666780.365171159734018, 7160783.031100031919777 ], [ 666795.069183527724817, 7160822.241775391623378 ], [ 666806.505636263638735, 7160846.748446998186409 ], [ 666827.744759207824245, 7160876.156451269984245 ], [ 666852.251436352264136, 7160895.761785170994699 ], [ 666883.293221894302405, 7160895.761778326705098 ], [ 666914.335001639672555, 7160869.621319078840315 ], [ 666950.278110504266806, 7160818.974184622988105 ], [ 666994.390110655454919, 7160769.960826640948653 ], [ 667027.065669303759933, 7160747.087923581711948 ], [ 667045.037228988017887, 7160745.454141341149807 ], [ 667059.741226498037577, 7160717.67990742251277 ], [ 667067.910104369395413, 7160658.863887725397944 ], [ 667089.966096818796359, 7160600.047864966094494 ], [ 667104.670094685512595, 7160573.907409327104688 ], [ 667134.07809767476283, 7160554.302063539624214 ], [ 667161.852325018728152, 7160546.133166034705937 ], [ 667184.725219618761912, 7160546.133160980418324 ], [ 667210.865669863997027, 7160542.865598658099771 ], [ 667227.203449906082824, 7160534.69670367706567 ], [ 667230.471002646023408, 7160518.358920210041106 ], [ 667212.499437883496284, 7160497.119806611910462 ], [ 667176.556313807144761, 7160479.148253534920514 ], [ 667150.415861022775061, 7160470.97936793603003 ], [ 667122.641630053869449, 7160462.810482698492706 ], [ 667111.205182030331343, 7160459.542928673326969 ], [ 667103.036288199713454, 7160446.472704282030463 ], [ 667103.036282031331211, 7160418.698473621159792 ], [ 667076.895816553849727, 7160353.347348425537348 ], [ 667068.72691909596324, 7160323.93934129551053 ], [ 667065.459354744874872, 7160287.996219988912344 ], [ 667071.994459142209962, 7160250.419318248517811 ], [ 667091.599786478560418, 7160201.405965706333518 ], [ 667109.571337079047225, 7160158.927726622670889 ], [ 667109.57133054768201, 7160129.519717697054148 ], [ 667117.740210585063323, 7160080.506367687135935 ], [ 667122.641536430222914, 7160041.295688042417169 ], [ 667119.373973892536014, 7160013.521458117291331 ], [ 667114.472635347163305, 7159995.549898194149137 ], [ 667111.205073897494003, 7159972.677003089338541 ], [ 667116.106402281671762, 7159944.902771362103522 ], [ 667130.810398320434615, 7159910.593424379825592 ], [ 667140.613059442490339, 7159874.650300208479166 ], [ 667143.880609278334305, 7159845.242290573194623 ], [ 667171.654831876163371, 7159815.834275525994599 ], [ 667214.133063574205153, 7159810.932931322604418 ], [ 667235.372178151505068, 7159802.764035265892744 ], [ 667248.44239999295678, 7159786.426249651238322 ], [ 667259.06195165310055, 7159757.018238391727209 ], [ 667263.963281118776649, 7159734.14534149132669 ], [ 667265.597052401513793, 7159703.1035539470613 ], [ 667259.061934218276292, 7159678.596881303936243 ], [ 667234.555253472412005, 7159642.653764723800123 ], [ 667211.682350185001269, 7159603.443091236054897 ], [ 667201.879669465357438, 7159551.162188688293099 ], [ 667185.54187746415846, 7159505.416400671936572 ], [ 667157.767636366537772, 7159451.501723825931549 ], [ 667139.796069454168901, 7159420.459940627217293 ], [ 667131.627172367880121, 7159392.685711807571352 ], [ 667134.894722565077245, 7159364.911480462178588 ], [ 667162.668943329248577, 7159327.334574074484408 ], [ 667200.245836456655525, 7159304.461669968441129 ], [ 667247.625400859396905, 7159291.391433326527476 ], [ 667277.033407790819183, 7159289.757648553699255 ], [ 667308.07519072399009, 7159278.321193790994585 ], [ 667326.046746012638323, 7159257.08207228500396 ], [ 667339.116964936954901, 7159227.674060506746173 ], [ 667364.440515867434442, 7159178.660706759430468 ], [ 667400.383619529893622, 7159105.140676598995924 ], [ 667465.734736288548447, 7159057.761092271655798 ], [ 667501.677844299585558, 7159003.846401367336512 ], [ 667529.452068306971341, 7158980.973499422892928 ], [ 667562.12763049826026, 7158974.438379107043147 ], [ 667591.535640691989101, 7158987.508598763495684 ], [ 667634.01387525361497, 7158995.677480710670352 ], [ 667676.492107993806712, 7158995.677471300587058 ], [ 667704.266334909712896, 7158985.874795520678163 ], [ 667756.547229459392838, 7158953.199218512512743 ], [ 667794.124121457454748, 7158925.424979574978352 ], [ 667844.771222507930361, 7158824.130715550854802 ], [ 667901.953441741177812, 7158747.3431241447106 ], [ 667951.783664615824819, 7158695.06220843270421 ], [ 667989.360558781540021, 7158677.090639118105173 ], [ 668022.036119497497566, 7158664.020405700430274 ], [ 668075.95079438155517, 7158641.14749794267118 ], [ 668090.65479400078766, 7158623.175933703780174 ], [ 668093.922345253988169, 7158600.303037192672491 ], [ 668092.288556485902518, 7158552.923467721790075 ], [ 668075.950766642810777, 7158516.980349408462644 ], [ 668053.077866628998891, 7158492.473680437542498 ], [ 668017.13474262773525, 7158474.502127448096871 ], [ 667963.220059728249907, 7158461.431913256645203 ], [ 667914.206708458019421, 7158435.291471814736724 ], [ 667894.601360805216245, 7158392.813241148367524 ], [ 667889.70001459447667, 7158340.532337604090571 ], [ 667897.868898571119644, 7158309.490548668429255 ], [ 667912.572900375467725, 7158301.321654058992863 ], [ 667958.318690168787725, 7158304.589200445450842 ], [ 668015.500926499837078, 7158304.58918775152415 ], [ 668072.683157719671726, 7158281.716279280371964 ], [ 668111.893828584696166, 7158257.209596529603004 ], [ 668141.301833646837622, 7158247.406920379027724 ], [ 668198.484067051322199, 7158234.336681515909731 ], [ 668222.990736839012243, 7158221.266449912451208 ], [ 668231.159624089254066, 7158204.928665403276682 ], [ 668227.892060787067749, 7158173.88687901198864 ], [ 668203.385378214414231, 7158129.774871191009879 ], [ 668178.878693819977343, 7158077.493972023017704 ], [ 668167.442244366742671, 7158067.691304950043559 ], [ 668159.273351274430752, 7158057.888637151569128 ], [ 668156.005790530587547, 7158038.283298648893833 ], [ 668156.005785783287138, 7158017.04418115131557 ], [ 668178.878674828330986, 7157992.537502033635974 ], [ 668209.920457329950295, 7157979.467268982902169 ], [ 668247.497353646089323, 7157971.298369285650551 ], [ 668296.510696126613766, 7157958.228132236748934 ], [ 668368.396928007947281, 7157922.284994332119823 ], [ 668414.142713392386213, 7157905.947201466187835 ], [ 668438.649378776084632, 7157873.271630635485053 ], [ 668438.649371460662223, 7157840.596065263263881 ], [ 668453.353362641646527, 7157785.04760086350143 ], [ 668464.789803680265322, 7157757.273367753252387 ], [ 668490.930242479313165, 7157703.358679076656699 ], [ 668510.53557441313751, 7157675.584444152191281 ], [ 668513.803124185651541, 7157646.176434596069157 ], [ 668504.000448887120001, 7157618.402206221595407 ], [ 668487.662654652376659, 7157562.853748746216297 ], [ 668440.283074282924645, 7157504.037741649895906 ], [ 668417.410169899463654, 7157459.92573350854218 ], [ 668409.241267301957123, 7157407.644830759614706 ], [ 668401.072369091212749, 7157374.969267226755619 ], [ 668378.199469469138421, 7157352.09637656994164 ], [ 668356.960349852684885, 7157337.39237688947469 ], [ 668347.157673468347639, 7157304.716813722625375 ], [ 668338.988775992882438, 7157275.308806726709008 ], [ 668337.354989405488595, 7157237.731906942091882 ], [ 668325.918528630281799, 7157177.282113598659635 ], [ 668332.45363220514264, 7157136.437655469402671 ], [ 668338.988737240433693, 7157102.128310406580567 ], [ 668358.594069894985296, 7157077.621632041409612 ], [ 668392.903405785327777, 7157051.481172136962414 ], [ 668476.226085919770412, 7157020.439366521313787 ], [ 668551.37987588904798, 7156992.665119248442352 ], [ 668611.829660053132102, 7156955.088205646723509 ], [ 668677.180780942901038, 7156927.313960550352931 ], [ 668716.391450615832582, 7156897.905943010002375 ], [ 668740.898117786739022, 7156873.399263549596071 ], [ 668752.334558434551582, 7156843.991252204403281 ], [ 668758.869665280799381, 7156817.850798483937979 ], [ 668760.503435028716922, 7156780.273897994309664 ], [ 668747.433203010819852, 7156750.865892117843032 ], [ 668724.560299364500679, 7156710.021440563723445 ], [ 668688.617160775931552, 7156626.698757011443377 ], [ 668672.279355191858485, 7156520.503173374570906 ], [ 668660.842899527866393, 7156482.926275815814734 ], [ 668664.92733361304272, 7156432.279148671776056 ], [ 668669.828657887061127, 7156386.533356145955622 ], [ 668677.997535580885597, 7156327.71733677200973 ], [ 668707.405531400116161, 7156277.070203995332122 ], [ 668753.151304213912226, 7156205.183950129896402 ], [ 668792.361974213970825, 7156177.409710882231593 ], [ 668808.699744976824149, 7156128.396359289996326 ], [ 668834.840187360998243, 7156090.819453366100788 ], [ 668852.811738496879116, 7156051.608771003782749 ], [ 668869.149517688434571, 7156040.17231950443238 ], [ 668916.529083691071719, 7156035.270974135957658 ], [ 668944.303314883960411, 7156045.073637521825731 ], [ 669006.386900988640264, 7156113.692310776561499 ], [ 669048.865148988901637, 7156182.310988411307335 ], [ 669079.906938011059538, 7156198.648764127865434 ], [ 669112.5825033725705, 7156206.817648150026798 ], [ 669130.554061475675553, 7156198.648752808570862 ], [ 669143.624276600312442, 7156152.90295846760273 ], [ 669150.159379386226647, 7156108.790943855419755 ], [ 669145.25803163216915, 7156049.974927419796586 ], [ 669145.258023550035432, 7156014.031805599108338 ], [ 669161.595800532726571, 7155992.792684506624937 ], [ 669194.271361109567806, 7155979.722451085224748 ], [ 669256.354929585242644, 7155969.919767613522708 ], [ 669290.664267234038562, 7155951.948199030011892 ], [ 669315.170933986548334, 7155925.807741315104067 ], [ 669344.578934896737337, 7155898.033504237420857 ], [ 669370.719377245986834, 7155860.456598307937384 ], [ 669370.719368784106337, 7155822.879698231816292 ], [ 669362.550472021219321, 7155796.739247833378613 ], [ 669353.564672928536311, 7155711.782780114561319 ], [ 669347.029552503256127, 7155677.473438035696745 ], [ 669358.465990165714175, 7155634.995200618170202 ], [ 669389.507768870331347, 7155605.587184920907021 ], [ 669402.577986174728721, 7155569.644060196354985 ], [ 669394.409090149216354, 7155546.771166332066059 ], [ 669392.775306086870842, 7155520.630714481696486 ], [ 669404.211749262991361, 7155502.659151025116444 ], [ 669422.183309186366387, 7155502.659147 ], [ 669461.393993847537786, 7155540.236038278788328 ], [ 669482.633114538388327, 7155559.841372683644295 ], [ 669505.506009355885908, 7155561.475145824253559 ], [ 669530.012677560560405, 7155541.869801172986627 ], [ 669570.857122357236221, 7155499.391557166352868 ], [ 669601.898898837156594, 7155460.180871887132525 ], [ 669616.602898356039077, 7155442.209307694807649 ], [ 669652.546018567169085, 7155443.84307790081948 ], [ 669683.587809415417723, 7155468.349744889885187 ], [ 669709.728266108781099, 7155494.490191239863634 ], [ 669740.770054748747498, 7155509.194188648834825 ], [ 669773.445618245285004, 7155509.19418131839484 ], [ 669799.586065354640596, 7155492.856392817571759 ], [ 669822.458953530760482, 7155465.082157203927636 ], [ 669860.035841219127178, 7155419.336357394233346 ], [ 669881.274948633275926, 7155380.125674311071634 ], [ 669944.992287474218756, 7155336.013646895065904 ], [ 669984.20295627519954, 7155303.338072825223207 ], [ 670010.343401526566595, 7155278.831393007189035 ], [ 670041.385178344324231, 7155241.254485981538892 ], [ 670054.455397090641782, 7155211.846474313177168 ], [ 670060.990501660155132, 7155175.903351062908769 ], [ 670062.624262841767631, 7155100.749550610780716 ], [ 670062.624256930779666, 7155074.6090984120965 ], [ 670070.793140044086613, 7155040.299753061495721 ], [ 670092.032253346522339, 7155027.229522189125419 ], [ 670106.736256911419332, 7155027.229518881067634 ], [ 670139.411820386303589, 7155027.229511534795165 ], [ 670167.186049340292811, 7155027.22950528934598 ], [ 670193.326497902628034, 7155017.42682983353734 ], [ 670209.664271137909964, 7154979.849926123395562 ], [ 670226.002043999847956, 7154940.639244152233005 ], [ 670260.311372701544315, 7154883.456997256726027 ], [ 670304.423373397206888, 7154839.344974249601364 ], [ 670309.324696818133816, 7154790.33162528835237 ], [ 670309.324683500803076, 7154731.515607859939337 ], [ 670310.95845538447611, 7154703.741377044469118 ], [ 670330.563786801882088, 7154674.333363919518888 ], [ 670351.802898981259204, 7154656.361798260360956 ], [ 670364.873121033422649, 7154641.657790962606668 ], [ 670374.675778230070136, 7154589.37688438501209 ], [ 670389.379774012835696, 7154555.067537582479417 ], [ 670394.281101867323741, 7154525.659527774900198 ], [ 670397.548653402016498, 7154504.420409642159939 ], [ 670408.9850957976887, 7154483.181289667263627 ], [ 670428.590430167270824, 7154466.84350263979286 ], [ 670459.632213224424049, 7154457.040826078504324 ], [ 670497.20910674915649, 7154437.43547847867012 ], [ 670508.64555247547105, 7154430.900362856686115 ], [ 670523.34955306421034, 7154417.830133454874158 ], [ 670533.152218764647841, 7154403.126126892864704 ], [ 670541.321106292656623, 7154388.422120701521635 ], [ 670546.222436734824441, 7154370.450558725744486 ], [ 670549.489988633897156, 7154350.845218858681619 ], [ 670551.123763843206689, 7154337.77499240078032 ], [ 670564.193986257538199, 7154324.704763367772102 ], [ 670573.996654921211302, 7154323.070982897654176 ], [ 670595.235771158942953, 7154323.070978107862175 ], [ 670636.080227318801917, 7154331.239860201254487 ], [ 670662.220678816782311, 7154334.507410828024149 ], [ 670699.797575667034835, 7154329.606067567132413 ], [ 670725.93802419770509, 7154319.803392103873193 ], [ 670784.754032835247926, 7154295.296704914420843 ], [ 670848.471376725588925, 7154274.057573137804866 ], [ 670884.41448946041055, 7154243.015778066590428 ], [ 670910.55493204575032, 7154207.072650426998734 ], [ 670930.160264168865979, 7154180.932193826884031 ], [ 670953.033155234530568, 7154166.228184316307306 ], [ 670977.53982744156383, 7154164.59440051484853 ], [ 671020.018063254887238, 7154179.29839526116848 ], [ 671046.158525152713992, 7154228.311737168580294 ], [ 671054.327425675233826, 7154270.78997010178864 ], [ 671082.101661292021163, 7154300.197972517460585 ], [ 671122.946126004448161, 7154345.943754587322474 ], [ 671137.650135132367723, 7154370.450425175949931 ], [ 671153.987926893867552, 7154414.562434528023005 ], [ 671160.523053712327965, 7154476.646006975322962 ], [ 671175.227073254762217, 7154546.89846888743341 ], [ 671188.297321320045739, 7154646.558939881622791 ], [ 671196.466221852344461, 7154689.037172835320234 ], [ 671209.53645393147599, 7154718.445178590714931 ], [ 671237.310687710763887, 7154739.684289708733559 ], [ 671291.225370029918849, 7154751.120725337415934 ], [ 671338.604941518860869, 7154770.7260537520051 ], [ 671374.54806095699314, 7154769.092267350293696 ], [ 671402.322286178707145, 7154752.754478437826037 ], [ 671434.997845918871462, 7154736.41668841894716 ], [ 671470.940962004475296, 7154720.078897655010223 ], [ 671500.348969121230766, 7154720.078890989534557 ], [ 671537.925867475452833, 7154721.712660731747746 ], [ 671577.136546986061148, 7154736.416656197048724 ], [ 671631.051233037840575, 7154764.190874420106411 ], [ 671653.924135665874928, 7154800.133990993723273 ], [ 671668.62814407364931, 7154821.373105064034462 ], [ 671688.233487001853064, 7154842.612218023277819 ], [ 671704.571271720342338, 7154855.682440409436822 ], [ 671730.71172659797594, 7154873.653995363041759 ], [ 671765.021072718547657, 7154893.259326720610261 ], [ 671805.86552929552272, 7154903.061987020075321 ], [ 671840.174870938877575, 7154903.061979228630662 ], [ 671872.850433290819637, 7154898.160637019202113 ], [ 671912.06110796215944, 7154891.625515061430633 ], [ 671930.032666375627741, 7154885.090397929772735 ], [ 671951.271779643837363, 7154872.020167003385723 ], [ 671961.074443080928177, 7154847.513490845449269 ], [ 671980.679770702379756, 7154801.767695050686598 ], [ 671995.383765669888817, 7154764.190791685134172 ], [ 672049.298430437105708, 7154698.839648953638971 ], [ 672073.805097800679505, 7154675.966747715137899 ], [ 672091.776650228071958, 7154643.291178394109011 ], [ 672104.846868508844636, 7154612.249388448894024 ], [ 672126.085973913082853, 7154564.869814032688737 ], [ 672144.057526336517185, 7154532.194244716316462 ], [ 672163.66285842563957, 7154506.05378807336092 ], [ 672178.366849262965843, 7154450.505323842167854 ], [ 672199.605951666366309, 7154390.055523345246911 ], [ 672225.746393071953207, 7154349.211060869507492 ], [ 672230.647718609543517, 7154310.000381489284337 ], [ 672219.211263548000716, 7154275.691040614619851 ], [ 672201.239696173928678, 7154243.015479490160942 ], [ 672197.972134218434803, 7154218.508806321769953 ], [ 672209.408575061941519, 7154190.734573286026716 ], [ 672230.647687931195833, 7154176.030564107000828 ], [ 672266.590801352751441, 7154148.256325493566692 ], [ 672276.393461777479388, 7154110.67942326888442 ], [ 672276.393453169381246, 7154073.102523279376328 ], [ 672268.224555575405248, 7154043.694516451098025 ], [ 672268.224548091529869, 7154011.018951246514916 ], [ 672307.435214477940463, 7153968.540707549080253 ], [ 672348.27966502122581, 7153952.202915644273162 ], [ 672387.490335145965219, 7153926.062454549595714 ], [ 672415.264555445639417, 7153888.485548239201307 ], [ 672434.869886385160498, 7153857.443756831809878 ], [ 672456.10899923928082, 7153842.739747650921345 ], [ 672462.644111175090075, 7153839.472189642488956 ], [ 672482.249448481597938, 7153836.204628652893007 ], [ 672510.023679640493356, 7153846.007291879504919 ], [ 672531.262798863928765, 7153859.077513115480542 ], [ 672545.149929812876508, 7153930.963753389194608 ], [ 672546.783714731689543, 7153960.371761698275805 ], [ 672553.318834164296277, 7153989.779768891632557 ], [ 672559.853956597158685, 7154032.258002169430256 ], [ 672568.022852702997625, 7154055.13089594990015 ], [ 672602.332195058348589, 7154058.39844464417547 ], [ 672630.10642397752963, 7154058.39843830652535 ], [ 672659.514423567685299, 7154025.722866389900446 ], [ 672677.485977078089491, 7153997.94863186404109 ], [ 672716.696652446058579, 7153994.681066391989589 ], [ 672736.301989379106089, 7153989.779727135784924 ], [ 672768.977546055801213, 7153960.371710988692939 ], [ 672782.047763920621946, 7153927.69614280294627 ], [ 672786.949090177309699, 7153891.753019962459803 ], [ 672796.751752448151819, 7153862.345009043812752 ], [ 672819.62464309274219, 7153846.007221220992506 ], [ 672862.102872916264459, 7153834.570763696916401 ], [ 672883.341986513347365, 7153823.134311022236943 ], [ 672909.482430868200026, 7153795.360074631869793 ], [ 672933.989094418706372, 7153756.149390794336796 ], [ 672981.368645972455852, 7153689.164471318945289 ], [ 672983.002411367255263, 7153633.616010122001171 ], [ 673000.973958468879573, 7153578.067545193247497 ], [ 673004.241504661971703, 7153533.955531444400549 ], [ 672975.650377282872796, 7153493.111081503331661 ], [ 672934.805914003867656, 7153453.900412623770535 ], [ 672916.834350749151781, 7153439.196412399411201 ], [ 672911.933012106106617, 7153421.224852669984102 ], [ 672918.468122156336904, 7153409.788403363898396 ], [ 672946.242348799016327, 7153399.985727461054921 ], [ 672964.213912053848617, 7153414.689727682620287 ], [ 672977.284143804339692, 7153442.463955098763108 ], [ 672985.453036911319941, 7153452.26662278547883 ], [ 673009.959709467133507, 7153452.266617180779576 ], [ 673021.396155907656066, 7153448.999058046378195 ], [ 673042.635267988429405, 7153431.02749233879149 ], [ 673058.973041045013815, 7153393.450588645413518 ], [ 673072.043252496165223, 7153333.000790078192949 ], [ 673091.6485788814025, 7153282.353659571148455 ], [ 673122.690358094405383, 7153256.213200330734253 ], [ 673143.929467533598654, 7153226.805186812765896 ], [ 673152.098350859712809, 7153194.129619773477316 ], [ 673140.661884864210151, 7153112.440709471702576 ], [ 673127.59163994982373, 7153027.484243035316467 ], [ 673127.591637692414224, 7153017.681573487818241 ], [ 673139.028079988434911, 7152996.442453514784575 ], [ 673168.436083653010428, 7152981.738442460075021 ], [ 673227.252101890277117, 7152999.709989834576845 ], [ 673253.392554859165102, 7153009.512653396464884 ], [ 673281.166785245761275, 7153016.047760066576302 ], [ 673294.237010601675138, 7153016.047757073305547 ], [ 673315.476124168024398, 7153004.611304400488734 ], [ 673330.180122044635937, 7152980.104627161286771 ], [ 673353.05301114404574, 7152957.231726307421923 ], [ 673385.728572647902183, 7152949.062827529385686 ], [ 673413.502798889763653, 7152937.626373359933496 ], [ 673431.474351968150586, 7152908.218360595405102 ], [ 673431.474348201183602, 7152891.880578016862273 ], [ 673431.474343679612502, 7152872.275238922797143 ], [ 673420.037891598418355, 7152851.036124194040895 ], [ 673384.094766981899738, 7152829.797015082091093 ], [ 673290.969393650768325, 7152753.009458312764764 ], [ 673277.899165665614419, 7152741.573013504035771 ], [ 673253.39248748566024, 7152717.066345255821943 ], [ 673228.885812695603818, 7152707.263681322336197 ], [ 673206.012915322673507, 7152694.193460500799119 ], [ 673192.942686586407945, 7152679.489459175616503 ], [ 673184.77379160374403, 7152661.517900217324495 ], [ 673181.506229623453692, 7152637.011227105744183 ], [ 673189.675111812306568, 7152599.434325316920877 ], [ 673199.477773298160173, 7152566.758757931180298 ], [ 673207.64665285195224, 7152517.745408347807825 ], [ 673219.083090998698026, 7152478.534727562218904 ], [ 673219.899965783348307, 7152416.451153615489602 ], [ 673219.899956374196336, 7152375.606697196140885 ], [ 673219.899946213583462, 7152331.494684267789125 ], [ 673221.533719112398103, 7152308.621788301505148 ], [ 673218.266157508362085, 7152285.748893457464874 ], [ 673201.928370561799966, 7152262.876001609489322 ], [ 673169.252802314353175, 7152241.636891756206751 ], [ 673139.844794542295858, 7152238.369341974146664 ], [ 673079.395000078715384, 7152228.566686269827187 ], [ 673014.043871865607798, 7152222.031588193029165 ], [ 672951.960299613652751, 7152213.862711109220982 ], [ 672943.79140652040951, 7152204.060043438337743 ], [ 672940.523845675867051, 7152184.45470510981977 ], [ 672951.960285334615037, 7152151.779137369245291 ], [ 672978.100733385421336, 7152140.342683602124453 ], [ 673033.649188450188376, 7152128.906223103404045 ], [ 673102.267876750789583, 7152151.779102989472449 ], [ 673146.379887651884928, 7152153.412871150299907 ], [ 673172.52033231430687, 7152127.27241306938231 ], [ 673197.026998053304851, 7152097.864398848265409 ], [ 673228.068775332067162, 7152063.555048363283277 ], [ 673249.307883604429662, 7152029.245700124651194 ], [ 673254.209213212132454, 7152008.006581674329937 ], [ 673264.011876569828019, 7151983.499905589967966 ], [ 673273.814541432075202, 7151965.528342531993985 ], [ 673293.419877554406412, 7151957.359446762129664 ], [ 673309.757661110023037, 7151965.528334299102426 ], [ 673340.799449298763648, 7151978.598553231917322 ], [ 673347.334560462273657, 7151972.063438709825277 ], [ 673371.841227697092108, 7151949.190537513233721 ], [ 673386.545220652711578, 7151903.444742981344461 ], [ 673383.277653770172037, 7151857.698952574282885 ], [ 673384.911419884068891, 7151805.418048024177551 ], [ 673390.629632919095457, 7151759.67225556075573 ], [ 673387.362070181872696, 7151731.898025969974697 ], [ 673372.658062162110582, 7151712.292690277099609 ], [ 673353.052722656284459, 7151705.7575817508623 ], [ 673344.88382956222631, 7151695.954914091154933 ], [ 673343.250046122935601, 7151673.08201889321208 ], [ 673351.418931683758274, 7151650.209121448919177 ], [ 673353.052703071385622, 7151620.801112483255565 ], [ 673351.418921514530666, 7151606.09710856154561 ], [ 673333.447357164695859, 7151586.491773622110486 ], [ 673318.743349902098998, 7151570.15399444103241 ], [ 673310.574456811067648, 7151560.351326783187687 ], [ 673304.039340380812064, 7151544.013545732013881 ], [ 673281.166441159904934, 7151522.774433659389615 ], [ 673272.997545810649171, 7151503.169096471741796 ], [ 673272.997540916549042, 7151481.929979162290692 ], [ 673289.335318059544079, 7151462.324636361561716 ], [ 673315.475762692978606, 7151436.184178296476603 ], [ 673338.348654003348202, 7151423.11394701898098 ], [ 673372.657995489542373, 7151423.113939156755805 ], [ 673413.502452277578413, 7151434.550377575680614 ], [ 673446.17801333614625, 7151424.747700555250049 ], [ 673473.952239143429324, 7151411.677468150854111 ], [ 673503.360245000454597, 7151406.776126641780138 ], [ 673537.669586485950276, 7151406.776118770241737 ], [ 673570.345149804721586, 7151406.776111274026334 ], [ 673588.316713778767735, 7151424.747667951509356 ], [ 673598.119391073239967, 7151460.690787304192781 ], [ 673614.457178392214701, 7151485.197457374073565 ], [ 673640.597631691489369, 7151496.633899157866836 ], [ 673674.906972047640011, 7151491.73255651537329 ], [ 673723.920313258189708, 7151475.394762713462114 ], [ 673753.328321381355636, 7151480.296090723946691 ], [ 673781.102553603472188, 7151495.000088637694716 ], [ 673802.34167278429959, 7151508.070309794507921 ], [ 673825.214567111688666, 7151508.070304539054632 ], [ 673849.721236204146408, 7151493.366294614970684 ], [ 673866.059014088241383, 7151477.028508311137557 ], [ 673902.002126186387613, 7151444.352934955619276 ], [ 673908.537235072231852, 7151428.015150907449424 ], [ 673908.537227516295388, 7151395.339585814625025 ], [ 673911.804776290198788, 7151362.664019973017275 ], [ 673924.874991413205862, 7151318.552004096098244 ], [ 673946.114100011065602, 7151285.876434126868844 ], [ 673977.15587873221375, 7151258.10219666454941 ], [ 674009.83143713104073, 7151236.86307184305042 ], [ 674024.535439866012894, 7151233.595511952415109 ], [ 674039.239441466401331, 7151225.426617298275232 ], [ 674045.774551859474741, 7151215.623946269974113 ], [ 674045.774548454908654, 7151200.919941982254386 ], [ 674042.506988720269874, 7151186.2159384470433 ], [ 674037.605647797696292, 7151158.441709256730974 ], [ 674042.50697699887678, 7151135.568812571465969 ], [ 674071.914969603763893, 7151073.485232156701386 ], [ 674089.886525638517924, 7151057.147445481270552 ], [ 674104.590520804165863, 7151021.204320512712002 ], [ 674147.068744773510844, 7150985.261189153417945 ], [ 674176.476742282626219, 7150944.416726040653884 ], [ 674186.279405217152089, 7150918.276271726936102 ], [ 674186.279398026526906, 7150887.234484910964966 ], [ 674179.744280447950587, 7150865.995369122363627 ], [ 674137.266034540953115, 7150807.179361782968044 ], [ 674094.78779318172019, 7150767.968693483620882 ], [ 674073.548667207942344, 7150725.49046378955245 ], [ 674078.449991867644712, 7150683.012228082865477 ], [ 674094.787767459522001, 7150656.871772274374962 ], [ 674117.660657220403664, 7150637.266427975147963 ], [ 674148.702437423169613, 7150616.027303542010486 ], [ 674186.279330659657717, 7150596.421955855563283 ], [ 674210.785995552898385, 7150563.746385155245662 ], [ 674218.954874637420289, 7150513.099257441237569 ], [ 674218.954863659921102, 7150465.719688115641475 ], [ 674218.954850789625198, 7150410.171227531507611 ], [ 674197.715725196991116, 7150369.326776115223765 ], [ 674184.645488911424764, 7150321.947209808975458 ], [ 674189.546815454727039, 7150287.637865385040641 ], [ 674225.489925210480578, 7150245.159622551873326 ], [ 674271.235702425590716, 7150196.146264455281198 ], [ 674313.713922931812704, 7150145.499128857627511 ], [ 674341.488139584893361, 7150093.218218401074409 ], [ 674354.558358448906802, 7150065.443985110148787 ], [ 674352.924572709249333, 7150032.768420454114676 ], [ 674352.924567784648389, 7150011.529303181916475 ], [ 674356.192120320862159, 7149995.191519914194942 ], [ 674374.163673672126606, 7149967.417285496369004 ], [ 674415.008120921207592, 7149938.009267553687096 ], [ 674470.556575044291094, 7149923.305250480771065 ], [ 674499.147693272214383, 7149924.939022136852145 ], [ 674541.62592512415722, 7149923.305234083905816 ], [ 674562.865039342897944, 7149915.136337922886014 ], [ 674597.174375450587831, 7149892.263434486463666 ], [ 674617.596599827520549, 7149880.826982012018561 ], [ 674648.638380364747718, 7149861.221635831519961 ], [ 674694.384167020907626, 7149853.052734011784196 ], [ 674753.200183911016211, 7149866.122946433722973 ], [ 674776.07308160548564, 7149880.826945410110056 ], [ 674808.748648277833126, 7149895.530942119657993 ], [ 674828.353986231028102, 7149895.530937587842345 ], [ 674843.057986655621789, 7149882.460708178579807 ], [ 674844.691759120090865, 7149857.954034030437469 ], [ 674826.720195151865482, 7149839.982477424666286 ], [ 674769.537957563297823, 7149831.813599383458495 ], [ 674713.989498517126776, 7149825.278499212116003 ], [ 674669.877482814947143, 7149802.405613885261118 ], [ 674650.272136136423796, 7149764.828718639910221 ], [ 674619.230341563699767, 7149723.984269532375038 ], [ 674593.089881862862967, 7149684.773597546853125 ], [ 674591.45609307801351, 7149639.027806902304292 ], [ 674594.723631571512669, 7149562.240228367969394 ], [ 674604.526289919624105, 7149516.494435092434287 ], [ 674645.370732202660292, 7149465.84729989990592 ], [ 674681.313838854199275, 7149410.298831089399755 ], [ 674717.25694664218463, 7149359.651697032153606 ], [ 674749.93249962059781, 7149315.539676730521023 ], [ 674782.60805601219181, 7149286.131660681217909 ], [ 674816.91739360219799, 7149269.793870253488421 ], [ 674843.057841144269332, 7149256.723638211376965 ], [ 674847.959171829163097, 7149240.385854579508305 ], [ 674836.52272165985778, 7149227.315631224773824 ], [ 674815.283604423515499, 7149222.414301386103034 ], [ 674789.143155744299293, 7149230.583198675885797 ], [ 674759.735152639797889, 7149246.920987968333066 ], [ 674736.862259900080971, 7149253.456106254830956 ], [ 674720.524479425745085, 7149258.35744477622211 ], [ 674696.017807386233471, 7149259.991228688508272 ], [ 674661.708463341114111, 7149248.554788864217699 ], [ 674622.497781778685749, 7149224.048124171793461 ], [ 674614.328886798233725, 7149206.076565309427679 ], [ 674614.328883382724598, 7149191.372561061754823 ], [ 674614.328878070460632, 7149168.499665565788746 ], [ 674602.892424113349989, 7149139.091659711673856 ], [ 674580.019521134905517, 7149101.514765251427889 ], [ 674573.484399385517463, 7149062.304088775068521 ], [ 674601.258611426223069, 7148990.417839390225708 ], [ 674609.427490088506602, 7148938.136933527886868 ], [ 674609.427476808195934, 7148880.954694809392095 ], [ 674620.863911789143458, 7148828.673788201063871 ], [ 674624.131460899487138, 7148797.632000717334449 ], [ 674625.765232228906825, 7148768.223991859704256 ], [ 674612.694997460581362, 7148727.37953865993768 ], [ 674606.159876852994785, 7148693.070196947082877 ], [ 674571.850521833868697, 7148634.254187919199467 ], [ 674563.681622309261002, 7148596.677290089428425 ], [ 674563.681616998626851, 7148573.804394610226154 ], [ 674531.006034457823262, 7148490.481711491942406 ], [ 674506.49935258354526, 7148449.637260943651199 ], [ 674493.429121239925735, 7148423.496811991557479 ], [ 674491.795339289819822, 7148407.159029886126518 ], [ 674504.865557358949445, 7148376.117240158841014 ], [ 674522.837108768522739, 7148340.174114558845758 ], [ 674534.273550952086225, 7148318.934994696639478 ], [ 674566.949107310269028, 7148289.526978695765138 ], [ 674578.385551768820733, 7148278.090528321452439 ], [ 674584.920659474446438, 7148256.851409592665732 ], [ 674584.920655300258659, 7148238.8798488676548 ], [ 674586.554428148898296, 7148216.006953025236726 ], [ 674581.653086083591916, 7148183.331389203667641 ], [ 674563.681519506382756, 7148153.923384898342192 ], [ 674545.709953309502453, 7148126.149158840999007 ], [ 674539.174834984587505, 7148101.64248663932085 ], [ 674537.541054929490201, 7148093.473595779389143 ], [ 674548.977497868007049, 7148075.502032419666648 ], [ 674568.582832358428277, 7148060.798023669049144 ], [ 674586.554390208097175, 7148052.629128284752369 ], [ 674620.863725468050689, 7148026.488668408244848 ], [ 674664.975730437086895, 7148003.615762760862708 ], [ 674692.749954956816509, 7147985.644195629283786 ], [ 674704.186397511162795, 7147966.038854019716382 ], [ 674700.918835877906531, 7147943.165959319099784 ], [ 674671.5108248507604, 7147925.19440539367497 ], [ 674632.300143736414611, 7147902.321518993005157 ], [ 674606.159685613936745, 7147869.645960090681911 ], [ 674580.019218007102609, 7147796.125945022329688 ], [ 674570.216538815526292, 7147752.013934629037976 ], [ 674550.611194090684876, 7147722.605930717661977 ], [ 674527.738292293506674, 7147689.930371062830091 ], [ 674516.3018398770364, 7147667.057478255592287 ], [ 674508.132943021249957, 7147640.917028199881315 ], [ 674516.301829259376973, 7147621.311687357723713 ], [ 674527.738274087081663, 7147611.509015239775181 ], [ 674552.244942280929536, 7147593.537448876537383 ], [ 674571.850273343967274, 7147564.129435919225216 ], [ 674588.188048470532522, 7147536.355201963335276 ], [ 674596.356935463729315, 7147520.017417615279555 ], [ 674589.821813727146946, 7147480.806741220876575 ], [ 674588.188029878190719, 7147456.300067910924554 ], [ 674588.188026463496499, 7147441.596063694916666 ], [ 674589.821802723687142, 7147433.427172088995576 ], [ 674602.892026844667271, 7147428.525834335014224 ], [ 674630.666257796110585, 7147438.328497395850718 ], [ 674674.778271841583773, 7147454.666269667446613 ], [ 674717.25650697061792, 7147467.736485822126269 ], [ 674748.298291960498318, 7147467.7364786490798 ], [ 674766.269853592384607, 7147475.905365725979209 ], [ 674795.677860805997625, 7147477.539137174375355 ], [ 674813.649419398978353, 7147472.637798282317817 ], [ 674841.423640096094459, 7147438.328448697924614 ], [ 674851.226304479758255, 7147418.723107480444014 ], [ 674865.930301814572886, 7147392.582652147859335 ], [ 674861.028962022275664, 7147369.709757841192186 ], [ 674833.254717771778814, 7147302.724856192246079 ], [ 674812.01559185248334, 7147260.24662671610713 ], [ 674786.692014084779657, 7147189.994168017059565 ], [ 674760.55155863869004, 7147168.75505687110126 ], [ 674737.678659506840631, 7147147.51594496704638 ], [ 674727.875981831806712, 7147109.939047591760755 ], [ 674736.044864260591567, 7147073.995924312621355 ], [ 674740.946187717607245, 7147026.616354073397815 ], [ 674755.65018352959305, 7146993.940785778686404 ], [ 674773.62174021138344, 7146980.870555665344 ], [ 674803.029755003284663, 7147015.179892010986805 ], [ 674814.466203998192213, 7147023.348780592903495 ], [ 674838.972877105232328, 7147026.616331415250897 ], [ 674873.282223330694251, 7147047.85544066876173 ], [ 674909.225350377848372, 7147080.530997255817056 ], [ 674935.365806966670789, 7147106.67144313082099 ], [ 674963.14004057215061, 7147127.910553894005716 ], [ 674984.379157749703154, 7147132.811883714050055 ], [ 675000.716935893986374, 7147118.107875725254416 ], [ 675000.716928667970933, 7147087.066089069470763 ], [ 674982.745358297019266, 7147041.320302365347743 ], [ 674964.773787166923285, 7146992.306959177367389 ], [ 674953.337330186273903, 7146949.828727455809712 ], [ 674943.534648703411222, 7146895.91404764726758 ], [ 674940.267072238726541, 7146809.323801437392831 ], [ 674948.435943627962843, 7146726.001109084114432 ], [ 674943.534592430805787, 7146654.114867469295859 ], [ 674935.365687584970146, 7146593.665074331685901 ], [ 674935.36568302102387, 7146574.059735401533544 ], [ 674960.689235686440952, 7146536.482829932123423 ], [ 674975.393230718560517, 7146500.539705163799226 ], [ 674977.026999366469681, 7146459.695248691365123 ], [ 674980.294549591839314, 7146433.554796036332846 ], [ 674993.364770269719884, 7146413.949454087764025 ], [ 675029.307887019705959, 7146402.512998064979911 ], [ 675089.757677997578867, 7146399.245427582412958 ], [ 675148.573683587834239, 7146364.936070846393704 ], [ 675173.080350963631645, 7146343.696948003023863 ], [ 675228.628799854312092, 7146307.753813778050244 ], [ 675251.501687166281044, 7146278.345800098031759 ], [ 675266.205683322274126, 7146247.304010067135096 ], [ 675285.811017369967885, 7146230.966223087161779 ], [ 675320.120357857667841, 7146227.698658647015691 ], [ 675372.401261096354574, 7146237.501315983012319 ], [ 675441.01995465438813, 7146284.880869120359421 ], [ 675470.427967925439589, 7146312.655092435888946 ], [ 675488.399531824165024, 7146330.62664894387126 ], [ 675508.004871972254477, 7146340.429313853383064 ], [ 675525.976431677583605, 7146340.42930968105793 ], [ 675552.116877960157581, 7146322.457742935977876 ], [ 675570.088433086173609, 7146302.852399842813611 ], [ 675591.327549481531605, 7146304.486173154786229 ], [ 675606.03155516658444, 7146314.288839199580252 ], [ 675625.636898368131369, 7146337.16173005476594 ], [ 675630.538237795815803, 7146358.40084608271718 ], [ 675648.509803228080273, 7146382.907515560276806 ], [ 675669.748919624718837, 7146384.541288869455457 ], [ 675679.55158511956688, 7146369.837282401509583 ], [ 675681.185359837720171, 7146355.133277829736471 ], [ 675681.185354493092746, 7146332.260382421314716 ], [ 675676.28401468147058, 7146309.387488149106503 ], [ 675668.11512008914724, 7146293.049707615748048 ], [ 675656.678664988139644, 7146258.740367161110044 ], [ 675648.509763907059096, 7146214.62835649214685 ], [ 675648.509755508275703, 7146178.685235141776502 ], [ 675651.777297691907734, 7146118.235439387150109 ], [ 675651.777289291494526, 7146082.292318044230342 ], [ 675630.538161069503985, 7146030.011419205926359 ], [ 675624.003041581367142, 7146000.603412354364991 ], [ 675624.003035092493519, 7145972.829182228073478 ], [ 675622.369243959779851, 7145917.280722357332706 ], [ 675616.651005153078586, 7145851.929593985900283 ], [ 675619.918551154434681, 7145807.817580685019493 ], [ 675619.918544665677473, 7145780.043350564315915 ], [ 675631.354982198914513, 7145739.19889185205102 ], [ 675647.692754191695713, 7145698.354432006366551 ], [ 675677.100757136708125, 7145682.01664275303483 ], [ 675704.874983455985785, 7145672.213966846466064 ], [ 675732.649207864538766, 7145654.242399729788303 ], [ 675760.423426541266963, 7145611.764158984646201 ], [ 675780.028755213017575, 7145572.553476622328162 ], [ 675796.366524136159569, 7145518.638790847733617 ], [ 675788.197621525265276, 7145467.991667253896594 ], [ 675788.197615412529558, 7145441.851215392351151 ], [ 675789.831387070356868, 7145414.076984906569123 ], [ 675798.000268664443865, 7145374.866305213421583 ], [ 675812.704264779575169, 7145343.824515208601952 ], [ 675837.210930192144588, 7145314.416501168161631 ], [ 675861.717597895185463, 7145294.811156572774053 ], [ 675902.562049803556874, 7145286.642255865037441 ], [ 675918.872089765733108, 7145290.991596026346087 ], [ 675923.396864177891985, 7145283.451812217012048 ], [ 675989.906872331397608, 7145260.171790715306997 ], [ 676063.076881841989234, 7145236.89176765922457 ], [ 676149.546894067665562, 7145213.611741500906646 ], [ 676219.376900546019897, 7145180.351716628298163 ], [ 676249.306892628315836, 7145120.491694177500904 ], [ 676252.636882389895618, 7145073.931681368499994 ], [ 676236.006871975259855, 7145044.001677511259913 ], [ 676209.406860307441093, 7145017.401676839217544 ], [ 676152.866838629357517, 7144974.161678845062852 ], [ 676119.606822489644401, 7144934.251676285639405 ], [ 676089.676808591466397, 7144901.001674670726061 ], [ 676046.446791981346905, 7144867.741676151752472 ], [ 676026.496773113729432, 7144804.551664486527443 ], [ 676026.496762988972478, 7144761.321653335355222 ], [ 676049.776750598335639, 7144688.161629042588174 ], [ 676049.776743588037789, 7144658.231621325016022 ], [ 676038.905669771600515, 7144595.762910151854157 ], [ 676018.539357040077448, 7144558.424688896164298 ], [ 675993.081469508470036, 7144526.178045101463795 ], [ 675946.676692224340513, 7144528.531611895188689 ], [ 675883.486675471416675, 7144511.901622312143445 ], [ 675856.886665388476104, 7144491.941623356193304 ], [ 675799.601559421280399, 7144431.13533304259181 ], [ 675757.116612427984364, 7144352.271610585972667 ], [ 675713.886584202176891, 7144269.131599236279726 ], [ 675667.326563859707676, 7144222.571598077192903 ], [ 675627.416555752512068, 7144222.571607349440455 ], [ 675524.316534811980091, 7144222.571631290949881 ], [ 675461.13651731912978, 7144202.61164082121104 ], [ 675421.226499898475595, 7144162.701639818027616 ], [ 675361.366479210439138, 7144126.121644297614694 ], [ 675291.526461931993254, 7144112.821657074615359 ], [ 675225.016439126804471, 7144072.911662232130766 ], [ 675091.986409808392636, 7144062.931690486148 ], [ 675028.79638924554456, 7144029.681696572341025 ], [ 674998.866373881348409, 7143989.771693244576454 ], [ 674985.566360343247652, 7143943.211684361100197 ], [ 674948.986332025844604, 7143853.421669770032167 ], [ 674875.816294761956669, 7143756.981661943718791 ], [ 674825.93627073452808, 7143697.111658118665218 ], [ 674792.676255493890494, 7143660.531656425446272 ], [ 674777.891785295447335, 7143609.694598630070686 ], [ 674767.708618319127709, 7143545.201301622204483 ], [ 674729.486202504020184, 7143487.601626696996391 ], [ 674708.306859776959755, 7143378.876490713097155 ], [ 674721.884386671474203, 7143339.841069551184773 ], [ 674769.546340669505298, 7143345.5012012347579 ], [ 674807.481023188796826, 7143341.038288272917271 ], [ 674827.56408680207096, 7143323.186666872352362 ], [ 674840.952791896881536, 7143294.17778654396534 ], [ 674790.206046901177615, 7143265.547597085125744 ], [ 674769.546311610378325, 7143220.539883937686682 ], [ 674754.130993553902954, 7143163.33308497723192 ], [ 674706.609603472868912, 7143102.234180815517902 ], [ 674637.024726529605687, 7143080.170699756592512 ], [ 674562.546073130099103, 7143075.881559874862432 ], [ 674509.336065493873321, 7143089.191575560718775 ], [ 674437.059939055936411, 7143097.810095547698438 ], [ 674399.125258100568317, 7143108.967364770360291 ], [ 674384.286055716103874, 7143155.701621426269412 ], [ 674351.8964992496185, 7143200.671403776854277 ], [ 674280.614437790354714, 7143210.854572737589478 ], [ 674200.71602856030222, 7143198.271674637682736 ], [ 674147.506017824751325, 7143198.271686896681786 ], [ 674099.616000767564401, 7143166.341689758002758 ], [ 674065.025982698309235, 7143118.451685475185513 ], [ 674025.115959866670892, 7143054.601678336039186 ], [ 673990.535941193345934, 7143004.05167337320745 ], [ 673953.285921988077462, 7142953.501669026911259 ], [ 673900.075903267250396, 7142918.911672431975603 ], [ 673841.545882867998444, 7142881.671676380559802 ], [ 673812.275864666211419, 7142828.451669518835843 ], [ 673783.015848320559599, 7142783.231664700433612 ], [ 673713.835821488988586, 7142727.361666338518262 ], [ 673631.36579629604239, 7142690.111675780266523 ], [ 673466.405756988096982, 7142663.501706859096885 ], [ 673370.919383213622496, 7142582.89370976947248 ], [ 673197.695676606497727, 7142549.101739291101694 ], [ 673121.432153403176926, 7142554.041501481086016 ], [ 673075.607973077218048, 7142569.316240748390555 ], [ 672997.537141341017559, 7142569.316258620470762 ], [ 672926.325639238581061, 7142623.601820414885879 ], [ 672886.415653249481693, 7142719.371853977441788 ], [ 672886.415665489854291, 7142772.581867557018995 ], [ 672894.395690966513939, 7142876.341892223805189 ], [ 672897.055717211449519, 7142988.091920167207718 ], [ 672923.665739711956121, 7143062.581933120265603 ], [ 672974.215766431880184, 7143134.411939922720194 ], [ 673080.63580811151769, 7143222.21193802729249 ], [ 673149.805840457091108, 7143302.031942614354193 ], [ 673149.805852715624496, 7143355.241956237703562 ], [ 673133.845859299181029, 7143397.811970793642104 ], [ 673083.295857665129006, 7143435.05199190787971 ], [ 673030.085864678258076, 7143512.212023856118321 ], [ 672992.445802490459755, 7143599.511856748722494 ], [ 672939.832873247331008, 7143697.949009925127029 ], [ 672875.339604694861919, 7143816.752470890060067 ], [ 672809.149126955191605, 7143860.879480334930122 ], [ 672761.375900257844478, 7143903.302185630425811 ], [ 672700.175905584474094, 7143980.462219429202378 ], [ 672654.955918418243527, 7144076.242254367098212 ], [ 672641.645930382655933, 7144140.092273822054267 ], [ 672604.405935043934733, 7144193.302296005189419 ], [ 672572.475935890572146, 7144225.23231150675565 ], [ 672551.195938898832537, 7144257.152324574068189 ], [ 672552.873235907871276, 7144298.755097965709865 ], [ 672601.745962608372793, 7144315.682328094728291 ], [ 672649.625979671720415, 7144347.612325381487608 ], [ 672676.235997916897759, 7144403.482333686202765 ], [ 672700.176022346015088, 7144488.622350143268704 ], [ 672705.506036880309694, 7144547.15236400347203 ], [ 672713.486048897495493, 7144592.38237383402884 ], [ 672716.146059221588075, 7144634.952384198084474 ], [ 672673.576057885424234, 7144666.872402149252594 ], [ 672601.746044476400129, 7144672.192419923841953 ], [ 672561.836038792738691, 7144682.842431779019535 ], [ 672527.2460335775977, 7144690.822441730648279 ], [ 672500.646026938222349, 7144685.50244642701 ], [ 672434.126010334119201, 7144672.192458170466125 ], [ 672386.236008512205444, 7144706.782478009350598 ], [ 672341.006018210551701, 7144789.26250959187746 ], [ 672330.541202832246199, 7144816.39873630926013 ], [ 672343.676031565642916, 7144845.132523397915065 ], [ 672367.87945055984892, 7144919.92744536884129 ], [ 672403.520493840333074, 7144969.146007897332311 ], [ 672450.096095382235944, 7145028.702546525746584 ], [ 672474.036106986342929, 7145057.972548626363277 ], [ 672471.376120483968407, 7145119.162565043196082 ], [ 672444.776130309095606, 7145185.672588299959898 ], [ 672431.466142848599702, 7145252.192608533427119 ], [ 672434.126152545679361, 7145292.092618245631456 ], [ 672452.756169174565002, 7145347.96262844838202 ], [ 672450.096174124046229, 7145371.912635253742337 ], [ 672436.786175062996335, 7145387.872642417438328 ], [ 672412.846168943215162, 7145382.552646500989795 ], [ 672354.31615696568042, 7145382.552659844048321 ], [ 672319.726153546478599, 7145398.512671859934926 ], [ 672298.446157730417326, 7145435.762686350382864 ], [ 672250.556156463338993, 7145473.012706903740764 ], [ 672223.94616015907377, 7145512.922723297029734 ], [ 672202.666161894798279, 7145539.52273503318429 ], [ 672155.730599880916998, 7145571.649257099255919 ], [ 672125.18114347406663, 7145569.952071961946785 ], [ 672096.246141313342378, 7145544.84276063926518 ], [ 672053.676131375483237, 7145539.522768950089812 ], [ 672035.056128778960556, 7145544.842774565331638 ], [ 672011.469275908311829, 7145554.677369000390172 ], [ 671974.131066642585211, 7145619.170677026733756 ], [ 671979.176144117838703, 7145661.912817605771124 ], [ 671952.576147792162374, 7145701.812833995558321 ], [ 671925.966146598104388, 7145720.442844875156879 ], [ 671904.686149531509727, 7145752.362857989966869 ], [ 671904.686153184971772, 7145768.332862128503621 ], [ 671931.29616776923649, 7145808.232866425067186 ], [ 671945.278852316085249, 7145836.411271528340876 ], [ 671902.026180017390288, 7145888.052893783897161 ], [ 671870.096176503342576, 7145901.352904492989182 ], [ 671848.816172134131193, 7145901.352909329347312 ], [ 671822.206161806243472, 7145880.072909856215119 ], [ 671790.286144917597994, 7145834.842905376106501 ], [ 671761.016137694125064, 7145829.52291064709425 ], [ 671715.786136921029538, 7145866.772930581122637 ], [ 671675.886131161358207, 7145877.412942401133478 ], [ 671641.296137425699271, 7145935.942965442314744 ], [ 671590.74614587193355, 7146018.422998322173953 ], [ 671564.136154370033182, 7146079.613020246848464 ], [ 671481.666147129843011, 7146122.183050010353327 ], [ 671425.796136854565702, 7146127.503064060583711 ], [ 671359.276129241217859, 7146154.103086048737168 ], [ 671308.726120058214292, 7146159.423098884522915 ], [ 671266.16611191094853, 7146162.083109217695892 ], [ 671191.666095378110185, 7146156.763124706223607 ], [ 671149.295875427196734, 7146152.089181574061513 ], [ 671110.26046091853641, 7146158.877958783879876 ], [ 671067.830665107700042, 7146177.547081422060728 ], [ 671028.795254846219905, 7146203.004971667192876 ], [ 671003.337386005325243, 7146252.223548162728548 ], [ 671024.056097228080034, 7146316.393204120919108 ], [ 671008.096102416398935, 7146353.643217415548861 ], [ 670957.546100478502922, 7146390.893238535150886 ], [ 670881.13960657606367, 7146449.097858767956495 ], [ 670852.287344452692196, 7146457.583825761452317 ], [ 670800.576080238912255, 7146444.103287847712636 ], [ 670776.626068655401468, 7146414.833285642787814 ], [ 670704.796023046714254, 7146279.15326658077538 ], [ 670654.245989087037742, 7146175.393251026049256 ], [ 670611.675961610861123, 7146092.913239208981395 ], [ 670569.105933541548438, 7146007.773226706311107 ], [ 670486.625902718282305, 7145946.58322942815721 ], [ 670420.115883631515317, 7145922.643238209187984 ], [ 670358.925857802038081, 7145864.113236812874675 ], [ 670297.735841021989472, 7145845.483245763927698 ], [ 670209.93581758136861, 7145821.543259323574603 ], [ 670137.76936367386952, 7145805.862222713418305 ], [ 670074.245789738371968, 7145821.543289858847857 ], [ 670010.395778441685252, 7145829.523306285962462 ], [ 669938.565769113716669, 7145853.463328640908003 ], [ 669901.315761468955316, 7145853.463337011635303 ], [ 669856.085743168951012, 7145813.563336826860905 ], [ 669786.915725369937718, 7145797.59334821999073 ], [ 669699.115704954834655, 7145786.953365171328187 ], [ 669648.565690382150933, 7145768.333371687680483 ], [ 669603.335675100563094, 7145741.723374935798347 ], [ 669540.357766118249856, 7145748.157825730741024 ], [ 669483.615646948455833, 7145725.763397645205259 ], [ 669454.345634947530925, 7145699.153397307731211 ], [ 669441.045617228606716, 7145632.643383054062724 ], [ 669427.745592313702218, 7145534.203360540792346 ], [ 669427.745579120470211, 7145475.673345388844609 ], [ 669425.085564785054885, 7145414.483330147340894 ], [ 669393.155549256131053, 7145374.57332697417587 ], [ 669326.645530854002573, 7145353.293336367234588 ], [ 669246.82551272760611, 7145345.303352172486484 ], [ 669204.255498031154275, 7145318.703354818746448 ], [ 669113.805459179915488, 7145228.243351666256785 ], [ 669039.305433781119063, 7145183.013356633484364 ], [ 668967.475408338010311, 7145135.123360315337777 ], [ 668908.945392197580077, 7145116.503368579782546 ], [ 668855.735364595311694, 7145042.013361225835979 ], [ 668826.465344874653965, 7144980.813351958990097 ], [ 668786.555331950308755, 7144959.533355375751853 ], [ 668717.385309475590475, 7144922.283361198380589 ], [ 668624.26527675287798, 7144861.093366181477904 ], [ 668544.455256901099347, 7144845.133379859849811 ], [ 668499.225238135550171, 7144802.563378958031535 ], [ 668475.275221325922757, 7144749.353370575234294 ], [ 668432.705195958958939, 7144674.853360852226615 ], [ 668398.125184148433618, 7144653.57336307130754 ], [ 668374.175169735215604, 7144611.003357433713973 ], [ 668374.17516139044892, 7144573.753347837366164 ], [ 668374.17514530045446, 7144501.923329335637391 ], [ 668368.855129915173166, 7144438.073314080946147 ], [ 668355.55511648405809, 7144390.183304715901613 ], [ 668294.365091535495594, 7144334.313303961418569 ], [ 668225.185067354235798, 7144289.083307722583413 ], [ 668158.843145509134047, 7144266.509438328444958 ], [ 668072.286353989620693, 7144268.206649666652083 ], [ 668001.004294625250623, 7144288.57297058776021 ], [ 667928.025047050090507, 7144325.911212779581547 ], [ 667782.066553012933582, 7144405.679273419082165 ], [ 667653.079979690606706, 7144488.841714452952147 ], [ 667591.98107909609098, 7144539.757490709424019 ], [ 667549.551290100673214, 7144588.976070737466216 ], [ 667478.269245440489613, 7144675.532883155159652 ], [ 667391.712465589866042, 7144729.843049230054021 ], [ 667352.535000268369913, 7144783.943628840148449 ], [ 667325.521996516967192, 7144814.702668427489698 ], [ 667296.669740084325895, 7144848.64651663415134 ], [ 667274.606251647695899, 7144882.590363342314959 ], [ 667221.993305706768297, 7144909.745448438450694 ], [ 667169.380362781463191, 7144950.478070265613496 ], [ 667108.281465135514736, 7145014.971383244730532 ], [ 667022.635018759639934, 7145169.713801370933652 ], [ 666977.405027841683477, 7145252.19383267685771 ], [ 666934.835032729548402, 7145313.383857898414135 ], [ 666884.28503125323914, 7145353.293879378587008 ], [ 666858.740135185071267, 7145375.771809917874634 ], [ 666835.814762576366775, 7145433.9670275375247 ], [ 666809.362407967215404, 7145493.925737228244543 ], [ 666786.437030265107751, 7145529.195568084716797 ], [ 666740.586262725992128, 7145545.066999806091189 ], [ 666665.314466108568013, 7145524.129108646884561 ], [ 666560.088567320723087, 7145547.889821130782366 ], [ 666522.750348188797943, 7145569.953326560556889 ], [ 666488.806509297224693, 7145575.044910313561559 ], [ 666448.073902777512558, 7145581.83368765283376 ], [ 666412.432874514372088, 7145598.805616425350308 ], [ 666386.974999006837606, 7145619.171927142888308 ], [ 666375.094663263764232, 7145656.510155801661313 ], [ 666349.636792260571383, 7145697.24277163669467 ], [ 666324.178919753641821, 7145731.186619097366929 ], [ 666322.481739393202588, 7145783.799574361182749 ], [ 666329.270521293161437, 7145846.595680319704115 ], [ 666300.418267780216411, 7145894.117065282538533 ], [ 666227.410410888958722, 7145933.035196702927351 ], [ 666190.377104360377416, 7145971.832013247534633 ], [ 666158.634275703458115, 7146030.027232825756073 ], [ 666162.161269400501624, 7146081.168479496613145 ], [ 666156.870803999248892, 7146118.201797778718174 ], [ 666098.675602325820364, 7146153.471636391244829 ], [ 666029.899459702894092, 7146216.957337990403175 ], [ 665979.715057716704905, 7146311.074326822534204 ], [ 665967.76874561922159, 7146393.091614029370248 ], [ 665925.338953790254891, 7146430.429849421605468 ], [ 665910.064238126040436, 7146486.437191901728511 ], [ 665891.395138452295214, 7146542.444535128772259 ], [ 665877.817611789447255, 7146584.874340483918786 ], [ 665893.092351804254577, 7146639.184484178200364 ], [ 665945.705316647537984, 7146696.889003871008754 ], [ 665982.375157542992383, 7146760.704443240538239 ], [ 665995.675179088721052, 7146845.844462506473064 ], [ 666006.315194799681194, 7146907.03447612375021 ], [ 666006.315206549363211, 7146960.244489999487996 ], [ 665971.735212911968119, 7147021.4345135493204 ], [ 665939.805219817673787, 7147082.624536521732807 ], [ 665917.036241890862584, 7147208.039469301700592 ], [ 665932.907675522379577, 7147266.234678521752357 ], [ 665925.853721627034247, 7147315.612436304800212 ], [ 665883.935270491056144, 7147364.644622430205345 ], [ 665836.045272893505171, 7147420.514647535979748 ], [ 665804.115272140246816, 7147447.114661492407322 ], [ 665737.605263631558046, 7147471.064682332798839 ], [ 665700.126892497646622, 7147516.650493365712464 ], [ 665664.857082502101548, 7147580.136187703348696 ], [ 665613.715850540669635, 7147638.331411637365818 ], [ 665583.736512190545909, 7147692.999648349359632 ], [ 665559.047644715406932, 7147735.323444835841656 ], [ 665435.603271212545224, 7147782.937736824154854 ], [ 665414.441379530820996, 7147795.282180520705879 ], [ 665380.54062366776634, 7147806.852758856490254 ], [ 665321.13890718948096, 7147823.824692821130157 ], [ 665270.223155964748003, 7147864.557314302772284 ], [ 665216.145266012055799, 7147973.904928090050817 ], [ 665184.215266383602284, 7148005.82494343444705 ], [ 665146.975260388571769, 7148013.804953660815954 ], [ 665091.105245842249133, 7148000.504962371662259 ], [ 665032.56522490165662, 7147960.594964686781168 ], [ 664947.43519201898016, 7147891.424965131096542 ], [ 664875.595157244242728, 7147800.964957099407911 ], [ 664846.335132497362792, 7147715.834941186010838 ], [ 664809.085113095119596, 7147662.614935375750065 ], [ 664779.815098272403702, 7147622.714931312017143 ], [ 664758.535091524245217, 7147612.074933163821697 ], [ 664729.265087781357579, 7147622.714942323975265 ], [ 664684.045084223034792, 7147649.314959133975208 ], [ 664633.495079555897973, 7147675.924977106042206 ], [ 664572.295068015577272, 7147681.244991820305586 ], [ 664497.805051967618056, 7147678.585007329471409 ], [ 664431.295036994619295, 7147673.265020401217043 ], [ 664372.765019607148133, 7147649.315026858821511 ], [ 664319.555001584696583, 7147617.395030070096254 ], [ 664273.971387555589899, 7147586.218027358874679 ], [ 664207.780901195015758, 7147594.704002220183611 ], [ 664154.594973738654517, 7147646.655073553323746 ], [ 664107.646595100173727, 7147696.535549806430936 ], [ 664048.174981836695224, 7147785.005132865160704 ], [ 664000.284976530121639, 7147806.28514882363379 ], [ 663917.814962295582518, 7147819.595170190557837 ], [ 663814.054940152680501, 7147816.925191976130009 ], [ 663766.164938894333318, 7147856.835212802514434 ], [ 663710.294937710976228, 7147904.725237445905805 ], [ 663678.364947870839387, 7147981.885264579206705 ], [ 663654.424948101630434, 7148005.825276037678123 ], [ 663585.244938920601271, 7148029.775297284126282 ], [ 663513.414922817610204, 7148024.455311425030231 ], [ 663446.904907819232903, 7148019.125324403867126 ], [ 663372.404890585807152, 7148011.145338410511613 ], [ 663303.23486925906036, 7147979.22534498386085 ], [ 663252.684855276835151, 7147963.255351709201932 ], [ 663204.794848205870949, 7147976.565365536138415 ], [ 663170.204849670175463, 7148016.465383459813893 ], [ 663124.972506280057132, 7148076.706792365759611 ], [ 663087.634286553133279, 7148097.073105599731207 ], [ 663087.403972378233448, 7148096.924078841693699 ], [ 663076.587278038961813, 7148122.884162507019937 ], [ 663058.615729987388477, 7148176.798848539590836 ], [ 663058.61573707300704, 7148209.474413484334946 ], [ 663060.249519484350458, 7148229.079752100631595 ], [ 663073.319750779424794, 7148256.853979486040771 ], [ 663097.826433088863268, 7148302.599765129387379 ], [ 663130.502006904920563, 7148351.61310550943017 ], [ 663144.389128704089671, 7148385.922445714473724 ], [ 663150.924247368471697, 7148413.696674514561892 ], [ 663150.924251268384978, 7148431.6682352386415 ], [ 663142.755363662028685, 7148446.372241232544184 ], [ 663129.685141222085804, 7148459.442470034584403 ], [ 663105.178473439766094, 7148480.681592540815473 ], [ 663088.840696097235195, 7148500.28693504165858 ], [ 663065.967805054271594, 7148514.990944203920662 ], [ 663043.094914363930002, 7148531.328731615096331 ], [ 663043.094917551265098, 7148546.032735846936703 ], [ 663046.362477415124886, 7148562.370517624542117 ], [ 663052.897593951318413, 7148580.342076942324638 ], [ 663061.066490064375103, 7148604.848748903721571 ], [ 663062.700273893540725, 7148630.989200524054468 ], [ 663062.700279208249412, 7148655.495874246582389 ], [ 663059.432736353832297, 7148717.579448387026787 ], [ 663059.432747693033889, 7148769.86035234015435 ], [ 663072.50298431282863, 7148822.141253476031125 ], [ 663098.643445153953508, 7148869.52081705071032 ], [ 663113.347451787325554, 7148884.224818118847907 ], [ 663119.882568327710032, 7148902.196377446874976 ], [ 663090.474564274889417, 7148915.266609780490398 ], [ 663057.799001777078956, 7148918.53417332097888 ], [ 663015.320771731669083, 7148928.336851973086596 ], [ 662966.307427626335993, 7148931.604419033974409 ], [ 662935.265643639722839, 7148936.505760466679931 ], [ 662881.350971424835734, 7148969.181337060406804 ], [ 662851.126089963829145, 7149036.1662517786026 ], [ 662838.05587140051648, 7149067.20804132707417 ], [ 662826.619430999271572, 7149098.249830522574484 ], [ 662818.450546562904492, 7149127.657840767875314 ], [ 662797.211434362805448, 7149145.629406085237861 ], [ 662764.535872913664207, 7149153.798304364085197 ], [ 662722.057645326945931, 7149175.0374307455495 ], [ 662677.945639575715177, 7149196.276557479053736 ], [ 662625.664741604006849, 7149210.980572966858745 ], [ 662609.32696423411835, 7149230.58591547422111 ], [ 662604.425635757157579, 7149258.360146770253778 ], [ 662615.862090304377489, 7149292.669487554579973 ], [ 662624.03098959242925, 7149331.880163789726794 ], [ 662630.566113546141423, 7149384.161066378466785 ], [ 662633.833678704220802, 7149425.005521924234927 ], [ 662656.706599474069662, 7149547.538885761983693 ], [ 662674.678166676312685, 7149581.848225152119994 ], [ 662681.21328780753538, 7149621.058901754207909 ], [ 662682.847073392476887, 7149655.368244661949575 ], [ 662681.213301239069551, 7149683.142475271597505 ], [ 662671.410638629808091, 7149712.550485890358686 ], [ 662651.805309519404545, 7149753.394946372136474 ], [ 662617.49597588647157, 7149789.338075262494385 ], [ 662588.087980622658506, 7149843.252763863652945 ], [ 662547.243537159170955, 7149892.266120171174407 ], [ 662501.497748962021433, 7149893.899908252991736 ], [ 662457.38573680841364, 7149885.731026474386454 ], [ 662445.949291083030403, 7149892.266141934320331 ], [ 662447.583073480986059, 7149911.871480595320463 ], [ 662483.526201177155599, 7149949.448372648097575 ], [ 662508.032882797531784, 7149991.926601914688945 ], [ 662529.272005623904988, 7150022.968384122475982 ], [ 662548.877353466581553, 7150068.714170945808291 ], [ 662565.215141101973131, 7150096.488397708162665 ], [ 662583.186706193024293, 7150120.995067616924644 ], [ 662607.693385704420507, 7150153.670627378858626 ], [ 662624.031179350218736, 7150209.219084421172738 ], [ 662625.664968820055947, 7150261.499988125637174 ], [ 662622.397419206448831, 7150292.541775614023209 ], [ 662648.537876889458857, 7150325.217335030436516 ], [ 662666.509450118755922, 7150387.300904742442071 ], [ 662686.114797271206044, 7150429.77913507912308 ], [ 662725.325485575012863, 7150486.961365471594036 ], [ 662764.536170701612718, 7150529.439591595903039 ], [ 662790.676626630476676, 7150553.946259757503867 ], [ 662828.253529355162755, 7150576.819147203117609 ], [ 662869.097991594579071, 7150614.396038216538727 ], [ 662885.43577960669063, 7150643.804043246433139 ], [ 662896.872240912402049, 7150709.155170890502632 ], [ 662918.111368022160605, 7150759.802292155101895 ], [ 662932.815385307068937, 7150823.519640851765871 ], [ 662937.716731130843982, 7150875.800543896853924 ], [ 662976.927432576892897, 7150993.432569684460759 ], [ 662993.265225204406306, 7151044.079692021012306 ], [ 662994.899010453140363, 7151076.755256740376353 ], [ 662994.899020014563575, 7151120.867269588634372 ], [ 662994.899030638975091, 7151169.880617200396955 ], [ 662988.363928247010335, 7151217.260187970474362 ], [ 662988.363936392124742, 7151254.837087810970843 ], [ 662993.265275492565706, 7151276.076204058714211 ], [ 663001.434170569293201, 7151295.681541343219578 ], [ 663011.23684310389217, 7151312.01932177413255 ], [ 663024.307077638921328, 7151354.497553564608097 ], [ 663040.644862838671543, 7151370.835332584567368 ], [ 663070.052873717853799, 7151388.806887043640018 ], [ 663104.362219096859917, 7151406.778440442867577 ], [ 663115.798670866061002, 7151428.017555283382535 ], [ 663122.333789908559993, 7151457.425562451593578 ], [ 663123.967576936236583, 7151498.270018463023007 ], [ 663127.235142481280491, 7151540.748252376914024 ], [ 663133.770268615102395, 7151602.831824645400047 ], [ 663135.404052805970423, 7151630.606054624542594 ], [ 663135.404062729794532, 7151676.351845758035779 ], [ 663153.375632839743048, 7151723.731411278247833 ], [ 663200.755209242808633, 7151767.843413946218789 ], [ 663295.514364546746947, 7151867.503867062740028 ], [ 663334.725050841923803, 7151914.883428003638983 ], [ 663375.569516728632152, 7151968.798101614229381 ], [ 663382.10464501415845, 7152040.684343451634049 ], [ 663413.146444391692057, 7152106.035466976463795 ], [ 663424.582904699956998, 7152166.485259976238012 ], [ 663424.582913576974533, 7152207.329716375097632 ], [ 663437.653144953073934, 7152235.103943906724453 ], [ 663460.526050663786009, 7152287.38484316226095 ], [ 663473.59628701582551, 7152338.031966283917427 ], [ 663465.427406831644475, 7152387.045315741561353 ], [ 663455.624747766181827, 7152432.79110904596746 ], [ 663431.118085186462849, 7152478.5369055243209 ], [ 663418.047874396899715, 7152545.521816873922944 ], [ 663418.047886112704873, 7152599.436499355360866 ], [ 663418.047894279006869, 7152637.013399261981249 ], [ 663406.611452424433082, 7152661.520075589418411 ], [ 663387.006117949960753, 7152677.857862396165729 ], [ 663373.935896505601704, 7152695.829426048323512 ], [ 663347.795456454157829, 7152744.842779408209026 ], [ 663349.429241010453552, 7152774.250787686556578 ], [ 663364.133252338622697, 7152810.193906173110008 ], [ 663382.10481787356548, 7152836.334354411810637 ], [ 663411.512829174636863, 7152855.939687149599195 ], [ 663426.216838376363739, 7152882.080136094242334 ], [ 663437.653285559732467, 7152882.080133622512221 ], [ 663439.287066213786602, 7152893.516581072472036 ], [ 663437.653293016017415, 7152916.389477033168077 ], [ 663401.710183944902383, 7152965.402832527644932 ], [ 663375.569743529427797, 7153012.782407650724053 ], [ 663341.260411554598249, 7153056.894428024068475 ], [ 663323.288857723353431, 7153084.668662288226187 ], [ 663326.556419029831886, 7153107.541557195596397 ], [ 663346.161763806943782, 7153138.583339868113399 ], [ 663362.499550116248429, 7153159.822453696280718 ], [ 663370.668445223709568, 7153179.427791029214859 ], [ 663369.034672732232139, 7153205.568243514746428 ], [ 663364.133339642430656, 7153212.10335760563612 ], [ 663334.72533542511519, 7153225.173590021207929 ], [ 663313.486219572252594, 7153226.807372865267098 ], [ 663284.078215709654614, 7153241.511383540928364 ], [ 663274.275550592807122, 7153259.482946498319507 ], [ 663272.641778451856226, 7153287.257177243940532 ], [ 663290.613350026658736, 7153341.171855896711349 ], [ 663310.218696227297187, 7153378.748751610517502 ], [ 663318.387595592532307, 7153417.959428056143224 ], [ 663315.120045993244275, 7153449.001215679571033 ], [ 663295.514717881567776, 7153494.747011158615351 ], [ 663261.205388008616865, 7153548.661701111122966 ], [ 663249.768947907839902, 7153581.337268758565187 ], [ 663249.768956773797981, 7153622.181725237518549 ], [ 663253.036520207766443, 7153654.857289716601372 ], [ 663262.839198453119025, 7153697.335522344335914 ], [ 663262.839203418232501, 7153720.208417976275086 ], [ 663254.670318593736738, 7153747.982650149613619 ], [ 663254.670324621954933, 7153775.756880559027195 ], [ 663264.473002514685504, 7153816.60133493412286 ], [ 663277.543236040510237, 7153854.178232084959745 ], [ 663300.416138595668599, 7153891.755127121694386 ], [ 663313.486369996564463, 7153919.529354718513787 ], [ 663311.85259714606218, 7153944.036028969101608 ], [ 663300.416157041559927, 7153976.711596636101604 ], [ 663297.148608504096046, 7154012.65471906028688 ], [ 663316.753956848755479, 7154060.034284373745322 ], [ 663342.894414690206759, 7154092.709843933582306 ], [ 663377.203765521990135, 7154135.188071291893721 ], [ 663416.414448034367524, 7154164.596071509644389 ], [ 663434.386016090400517, 7154202.172967618331313 ], [ 663455.625141201540828, 7154243.01741954125464 ], [ 663455.625152919208631, 7154296.932102141901851 ], [ 663457.258939967956394, 7154337.776558306999505 ], [ 663436.019829764496535, 7154365.550793329253793 ], [ 663411.513159309630282, 7154375.353468189015985 ], [ 663383.73893606045749, 7154401.493926362134516 ], [ 663372.302495950832963, 7154434.169494049623609 ], [ 663372.302499855286442, 7154452.141054919920862 ], [ 663349.429615730419755, 7154499.520629430189729 ], [ 663316.75405972939916, 7154533.829979967325926 ], [ 663271.008275506785139, 7154555.069107236340642 ], [ 663253.03672092652414, 7154579.575785035267472 ], [ 663212.19227086333558, 7154599.181132985278964 ], [ 663176.249154962133616, 7154617.152701612561941 ], [ 663146.841153168352321, 7154641.659381874836981 ], [ 663141.939824318746105, 7154667.799835114739835 ], [ 663148.474943034583703, 7154695.574064152315259 ], [ 663156.643842760124244, 7154736.418518930673599 ], [ 663179.516748524038121, 7154788.699418369680643 ], [ 663221.995000881957822, 7154880.190991872921586 ], [ 663239.966572134988382, 7154932.4718923792243 ], [ 663262.839472592575476, 7154960.246117901057005 ], [ 663272.64214659971185, 7154983.119011455215514 ], [ 663272.642152273096144, 7155009.259463649243116 ], [ 663267.740821653045714, 7155027.231025592423975 ], [ 663241.600376902730204, 7155055.00526169128716 ], [ 663217.09371103241574, 7155086.047053962945938 ], [ 663202.389713493874297, 7155113.82128759752959 ], [ 663200.755938511807472, 7155128.525292312726378 ], [ 663207.291055814479478, 7155149.764408314600587 ], [ 663233.431515462463722, 7155190.608859241008759 ], [ 663266.107095256447792, 7155265.762652276083827 ], [ 663295.515116579597816, 7155331.113776443526149 ], [ 663303.684016673476435, 7155373.592009518295527 ], [ 663308.585357227595523, 7155401.366238933987916 ], [ 663293.881361105595715, 7155435.675585633143783 ], [ 663284.078697732416913, 7155461.816039958968759 ], [ 663285.712480162852444, 7155481.421378765255213 ], [ 663295.515153467189521, 7155501.026715811342001 ], [ 663341.260950164170936, 7155536.969827729277313 ], [ 663391.908085295232013, 7155590.884499488398433 ], [ 663411.51343191228807, 7155630.095173579640687 ], [ 663416.414785603643395, 7155718.319198762997985 ], [ 663411.513464921619743, 7155782.036552110686898 ], [ 663413.147250549867749, 7155816.345895301550627 ], [ 663421.316146397031844, 7155839.218789235688746 ], [ 663424.583708072081208, 7155863.725462490692735 ], [ 663421.31615633436013, 7155884.964580629020929 ], [ 663411.513492961064912, 7155911.105034972541034 ], [ 663403.344605986494571, 7155929.076597644016147 ], [ 663401.710833135410212, 7155953.583271961659193 ], [ 663404.978392325807363, 7155966.65349736995995 ], [ 663421.316176567110233, 7155978.089941693469882 ], [ 663433.569517499534413, 7155999.329056484624743 ], [ 663428.668191136675887, 7156036.905957626178861 ], [ 663412.330420379294083, 7156087.55308735370636 ], [ 663407.42909437045455, 7156126.76376676466316 ], [ 663394.358875704812817, 7156157.805556618608534 ], [ 663366.584653096157126, 7156187.213571380823851 ], [ 663338.810428003780544, 7156205.185138290748 ], [ 663306.134864479186945, 7156205.185145343653858 ], [ 663255.487743853125721, 7156218.255382392555475 ], [ 663211.375738764647394, 7156244.395844146609306 ], [ 663180.333960147341713, 7156275.437637878581882 ], [ 663147.658407604671083, 7156326.084771141409874 ], [ 663119.884184626396745, 7156353.859007636085153 ], [ 663079.039736233535223, 7156381.633246950805187 ], [ 663056.166851324378513, 7156425.745265040546656 ], [ 663046.364189346437342, 7156458.420832461677492 ], [ 663049.631752781569958, 7156491.096397068351507 ], [ 663049.631761989789084, 7156533.574631970375776 ], [ 663065.969549070694484, 7156558.081302434206009 ], [ 663088.842453113524243, 7156602.193310679867864 ], [ 663121.518025512923487, 7156643.037760280072689 ], [ 663150.926034827367403, 7156652.840423534624279 ], [ 663186.869154726038687, 7156652.840415784157813 ], [ 663206.474497460294515, 7156674.079529011622071 ], [ 663216.27717467781622, 7156711.656427014619112 ], [ 663222.812299794284627, 7156768.838664915412664 ], [ 663257.121658895164728, 7156848.893792557530105 ], [ 663301.233690262772143, 7156943.652922490611672 ], [ 663301.233703385572881, 7157004.102718351408839 ], [ 663288.163489309605211, 7157056.383625705726445 ], [ 663258.755501959705725, 7157147.87521499581635 ], [ 663248.952847426058725, 7157214.860126057639718 ], [ 663247.319075275328942, 7157242.63435695040971 ], [ 663248.952861608238891, 7157280.211256744340062 ], [ 663250.586650422774255, 7157329.224604411050677 ], [ 663262.023106892593205, 7157371.702836895361543 ], [ 663279.994675014866516, 7157409.279733168892562 ], [ 663283.262240592739545, 7157451.757967420853674 ], [ 663279.994694518041797, 7157499.137537889182568 ], [ 663273.459589956793934, 7157536.714439455419779 ], [ 663239.150261667091399, 7157598.798021038062871 ], [ 663222.812492635915987, 7157657.614042208530009 ], [ 663219.544947975198738, 7157711.528725761920214 ], [ 663239.150307044619694, 7157807.921639362350106 ], [ 663239.150314488215372, 7157842.230982997454703 ], [ 663230.981429971987382, 7157871.638993594795465 ], [ 663198.305869917967357, 7157887.97678332682699 ], [ 663155.827637594542466, 7157889.610570756718516 ], [ 663108.448067898862064, 7157878.174133090302348 ], [ 663072.504944754298776, 7157863.470136418938637 ], [ 663044.730717112193815, 7157870.005255477502942 ], [ 663039.829386468511075, 7157887.976817487739027 ], [ 663054.533394336700439, 7157907.582153541967273 ], [ 663090.476519961259328, 7157933.722598096355796 ], [ 663124.785869535990059, 7157969.665712610818446 ], [ 663150.926328566041775, 7158007.242607157677412 ], [ 663181.968123557511717, 7158051.354613725095987 ], [ 663191.770801498671062, 7158092.199068333022296 ], [ 663218.728158488404006, 7158170.620419437997043 ], [ 663230.164613550296053, 7158206.563538894057274 ], [ 663235.065955182071775, 7158239.239103223197162 ], [ 663231.798405556939542, 7158270.280891045928001 ], [ 663218.72818613552954, 7158298.055124445818365 ], [ 663187.686410268186592, 7158342.167144416831434 ], [ 663176.249975405284204, 7158399.349386317655444 ], [ 663166.447322264779359, 7158472.869410574436188 ], [ 663156.64466699375771, 7158536.586765212006867 ], [ 663155.010895192623138, 7158565.994774425402284 ], [ 663164.813571013044566, 7158597.036559443920851 ], [ 663187.686473349574953, 7158632.979676455259323 ], [ 663199.122929479693994, 7158673.824130745604634 ], [ 663200.756722192163579, 7158740.809039479121566 ], [ 663205.658076230320148, 7158830.666843300685287 ], [ 663207.291865044273436, 7158879.680191068910062 ], [ 663199.122986183385365, 7158935.228654036298394 ], [ 663176.250105098588392, 7158997.312233263626695 ], [ 663172.982555466704071, 7159028.354021118953824 ], [ 663172.982562197372317, 7159059.39580827113241 ], [ 663186.052796161733568, 7159098.606483960524201 ], [ 663197.489247692516074, 7159118.211820751428604 ], [ 663231.798596262349747, 7159149.253600506111979 ], [ 663254.671493301400915, 7159160.690043469890952 ], [ 663293.882171811768785, 7159170.492704641073942 ], [ 663321.656401982181706, 7159175.394033461809158 ], [ 663351.064410334220156, 7159180.295361927710474 ], [ 663362.500861161155626, 7159196.633142174221575 ], [ 663370.669757751747966, 7159222.773592754267156 ], [ 663370.669764137594029, 7159252.181601641699672 ], [ 663365.768435973674059, 7159281.589611588045955 ], [ 663352.698219377314672, 7159322.434071201831102 ], [ 663329.825334746623412, 7159368.179867748171091 ], [ 663324.924012609175406, 7159425.362108322791755 ], [ 663323.290242583141662, 7159462.939008928835392 ], [ 663337.994255809346214, 7159507.051019102334976 ], [ 663351.064489435404539, 7159544.627916541881859 ], [ 663351.064495820202865, 7159574.035925440490246 ], [ 663341.261837359401397, 7159623.049275727942586 ], [ 663344.529404367785901, 7159672.06262319535017 ], [ 663350.247642553993501, 7159739.047531137242913 ], [ 663353.515207080170512, 7159776.624430701136589 ], [ 663356.782774089835584, 7159825.637778179720044 ], [ 663360.050338261993602, 7159861.580899477005005 ], [ 663360.050349966739304, 7159915.495582485571504 ], [ 663348.613911190303043, 7159954.706263506785035 ], [ 663327.374809688539244, 7160023.324955564923584 ], [ 663319.205929049989209, 7160070.70452725328505 ], [ 663324.107274952344596, 7160122.98543094471097 ], [ 663335.543728274758905, 7160150.759659126400948 ], [ 663346.980181952589191, 7160180.167665584012866 ], [ 663348.613969714846462, 7160224.279678620398045 ], [ 663348.61397645319812, 7160255.321465820074081 ], [ 663351.881542754126713, 7160301.067256783135235 ], [ 663355.149104445939884, 7160325.573930185288191 ], [ 663369.853116980404593, 7160366.418383860960603 ], [ 663373.120684703229927, 7160418.699287926778197 ], [ 663373.120690378826112, 7160444.83974031265825 ], [ 663374.754476013127714, 7160479.149083718657494 ], [ 663390.275392546318471, 7160588.612224751152098 ], [ 663401.711860779090784, 7160685.005140485242009 ], [ 663421.317215332644992, 7160760.158936893567443 ], [ 663437.655007840367034, 7160809.172281611710787 ], [ 663471.964361110818572, 7160861.453179005533457 ], [ 663488.302157528349198, 7160928.438084757886827 ], [ 663514.442615257459693, 7160959.479866342619061 ], [ 663530.780400673975237, 7160975.817645566537976 ], [ 663537.315517326584086, 7160993.789205183275044 ], [ 663530.780408484395593, 7161011.760767625644803 ], [ 663514.442633719067089, 7161044.436336664482951 ], [ 663477.682633390533738, 7161085.280801491811872 ], [ 663449.908410246600397, 7161113.055038178339601 ], [ 663443.37330282269977, 7161137.561713721603155 ], [ 663454.80975474556908, 7161158.800828836858273 ], [ 663492.386662631062791, 7161202.912834169343114 ], [ 663521.794676389428787, 7161232.320836782455444 ], [ 663543.033799214405008, 7161261.728841161355376 ], [ 663543.033802410122007, 7161276.432845646515489 ], [ 663526.696026217890903, 7161302.573301590979099 ], [ 663516.89336561516393, 7161341.783982335589826 ], [ 663500.555594034376554, 7161389.16355587542057 ], [ 663480.950269627850503, 7161452.880912888795137 ], [ 663480.950277436058968, 7161488.824034968391061 ], [ 663492.386738239554688, 7161550.90760700777173 ], [ 663485.851630812976509, 7161575.414282568730414 ], [ 663469.513851418974809, 7161586.85073403455317 ], [ 663449.908515292219818, 7161596.653407926671207 ] ] ] ] } }
]
}
