{
"type": "FeatureCollection",
"name": "rio_faxinal",
"crs": { "type": "name", "properties": { "name": "urn:ogc:def:crs:EPSG::31982" } },
"features": [
{ "type": "Feature", "properties": { "AREA": 70249078.021349996, "PERIMETER": 47132.10837, "BACIAS1_": 30, "BACIAS1_ID": 0, "NOME_BACIA": "RIO FAXINAL", "SUB_AREA": 70.25, "SUBCODIGO": 29, "BACCODIGO": 2, "SUBNOME": "RIO FAXINAL", "SUBBAC_DAT": "2002-01-03", "SUBBAC_POP": 1853, "SUBBAC_P_1": 1917, "SUBBAC_DEN": 27.29, "SUBBAC_D_1": 26.38 }, "geometry": { "type": "MultiPolygon", "coordinates": [ [ [ [ 662367.530640620854683, 7162407.007666563615203 ], [ 662398.572426929487847, 7162410.275216462090611 ], [ 662436.149327410385013, 7162420.077878070063889 ], [ 662468.824897905811667, 7162451.119658348150551 ], [ 662503.134248359012417, 7162490.330329669639468 ], [ 662522.739592989324592, 7162519.738334480673075 ], [ 662543.978712634881958, 7162534.442334426566958 ], [ 662592.992064686957747, 7162563.850332919508219 ], [ 662630.568970826454461, 7162599.793446983210742 ], [ 662694.286328717833385, 7162639.004111982882023 ], [ 662762.905034615308978, 7162740.298350537195802 ], [ 662785.777935289195739, 7162768.072576366364956 ], [ 662824.988616811227985, 7162790.945463843643665 ], [ 662856.030403137090616, 7162794.213013725355268 ], [ 662885.438409152789973, 7162787.677894279360771 ], [ 662931.18419282825198, 7162761.537431967444718 ], [ 662998.169094746233895, 7162743.565856473520398 ], [ 663060.2526645680191, 7162737.03072998765856 ], [ 663107.632232442731038, 7162738.664498059079051 ], [ 663150.110465041012503, 7162737.030710626393557 ], [ 663176.250915380078368, 7162733.763148434460163 ], [ 663235.066925273393281, 7162710.890239843167365 ], [ 663254.672258242266253, 7162686.383561429567635 ], [ 663274.277584828669205, 7162632.468873992562294 ], [ 663279.178893521777354, 7162513.203058579936624 ], [ 663341.262433177907951, 7162367.79677839204669 ], [ 663372.304201401071623, 7162287.741636054590344 ], [ 663382.106854576384649, 7162214.221611421555281 ], [ 663357.600157974637114, 7162104.758472087793052 ], [ 663326.558341531315818, 7161962.619768628850579 ], [ 663305.319210896152072, 7161897.268642113544047 ], [ 663287.347640896216035, 7161851.522854224778712 ], [ 663285.713854199275374, 7161812.312175923958421 ], [ 663298.784069423796609, 7161764.932603066787124 ], [ 663337.177840892458335, 7161691.412572318688035 ], [ 663366.585839410778135, 7161650.568109050393105 ], [ 663405.79650776530616, 7161612.991200220771134 ], [ 663449.908515292219818, 7161596.653407926671207 ], [ 663469.513851418974809, 7161586.85073403455317 ], [ 663485.851630812976509, 7161575.414282568730414 ], [ 663492.386738239554688, 7161550.90760700777173 ], [ 663480.950277436058968, 7161488.824034968391061 ], [ 663480.950269627850503, 7161452.880912888795137 ], [ 663500.555594034376554, 7161389.16355587542057 ], [ 663516.89336561516393, 7161341.783982335589826 ], [ 663526.696026217890903, 7161302.573301590979099 ], [ 663543.033802410122007, 7161276.432845646515489 ], [ 663543.033799214405008, 7161261.728841161355376 ], [ 663521.794676389428787, 7161232.320836782455444 ], [ 663492.386662631062791, 7161202.912834169343114 ], [ 663454.80975474556908, 7161158.800828836858273 ], [ 663443.37330282269977, 7161137.561713721603155 ], [ 663449.908410246600397, 7161113.055038178339601 ], [ 663477.682633390533738, 7161085.280801491811872 ], [ 663514.442633719067089, 7161044.436336664482951 ], [ 663530.780408484395593, 7161011.760767625644803 ], [ 663537.315517326584086, 7160993.789205183275044 ], [ 663530.780400673975237, 7160975.817645566537976 ], [ 663514.442615257459693, 7160959.479866342619061 ], [ 663488.302157528349198, 7160928.438084757886827 ], [ 663471.964361110818572, 7160861.453179005533457 ], [ 663437.655007840367034, 7160809.172281611710787 ], [ 663421.317215332644992, 7160760.158936893567443 ], [ 663401.711860779090784, 7160685.005140485242009 ], [ 663390.275392546318471, 7160588.612224751152098 ], [ 663374.754476013127714, 7160479.149083718657494 ], [ 663373.120690378826112, 7160444.83974031265825 ], [ 663373.120684703229927, 7160418.699287926778197 ], [ 663369.853116980404593, 7160366.418383860960603 ], [ 663355.149104445939884, 7160325.573930185288191 ], [ 663351.881542754126713, 7160301.067256783135235 ], [ 663348.61397645319812, 7160255.321465820074081 ], [ 663348.613969714846462, 7160224.279678620398045 ], [ 663346.980181952589191, 7160180.167665584012866 ], [ 663335.543728274758905, 7160150.759659126400948 ], [ 663324.107274952344596, 7160122.98543094471097 ], [ 663319.205929049989209, 7160070.70452725328505 ], [ 663327.374809688539244, 7160023.324955564923584 ], [ 663348.613911190303043, 7159954.706263506785035 ], [ 663360.050349966739304, 7159915.495582485571504 ], [ 663360.050338261993602, 7159861.580899477005005 ], [ 663356.782774089835584, 7159825.637778179720044 ], [ 663353.515207080170512, 7159776.624430701136589 ], [ 663350.247642553993501, 7159739.047531137242913 ], [ 663344.529404367785901, 7159672.06262319535017 ], [ 663341.261837359401397, 7159623.049275727942586 ], [ 663351.064495820202865, 7159574.035925440490246 ], [ 663351.064489435404539, 7159544.627916541881859 ], [ 663337.994255809346214, 7159507.051019102334976 ], [ 663323.290242583141662, 7159462.939008928835392 ], [ 663324.924012609175406, 7159425.362108322791755 ], [ 663329.825334746623412, 7159368.179867748171091 ], [ 663352.698219377314672, 7159322.434071201831102 ], [ 663365.768435973674059, 7159281.589611588045955 ], [ 663370.669764137594029, 7159252.181601641699672 ], [ 663370.669757751747966, 7159222.773592754267156 ], [ 663362.500861161155626, 7159196.633142174221575 ], [ 663351.064410334220156, 7159180.295361927710474 ], [ 663321.656401982181706, 7159175.394033461809158 ], [ 663293.882171811768785, 7159170.492704641073942 ], [ 663254.671493301400915, 7159160.690043469890952 ], [ 663231.798596262349747, 7159149.253600506111979 ], [ 663197.489247692516074, 7159118.211820751428604 ], [ 663186.052796161733568, 7159098.606483960524201 ], [ 663172.982562197372317, 7159059.39580827113241 ], [ 663172.982555466704071, 7159028.354021118953824 ], [ 663176.250105098588392, 7158997.312233263626695 ], [ 663199.122986183385365, 7158935.228654036298394 ], [ 663207.291865044273436, 7158879.680191068910062 ], [ 663205.658076230320148, 7158830.666843300685287 ], [ 663200.756722192163579, 7158740.809039479121566 ], [ 663199.122929479693994, 7158673.824130745604634 ], [ 663187.686473349574953, 7158632.979676455259323 ], [ 663164.813571013044566, 7158597.036559443920851 ], [ 663155.010895192623138, 7158565.994774425402284 ], [ 663156.64466699375771, 7158536.586765212006867 ], [ 663166.447322264779359, 7158472.869410574436188 ], [ 663176.249975405284204, 7158399.349386317655444 ], [ 663187.686410268186592, 7158342.167144416831434 ], [ 663218.72818613552954, 7158298.055124445818365 ], [ 663231.798405556939542, 7158270.280891045928001 ], [ 663235.065955182071775, 7158239.239103223197162 ], [ 663230.164613550296053, 7158206.563538894057274 ], [ 663218.728158488404006, 7158170.620419437997043 ], [ 663191.770801498671062, 7158092.199068333022296 ], [ 663181.968123557511717, 7158051.354613725095987 ], [ 663150.926328566041775, 7158007.242607157677412 ], [ 663124.785869535990059, 7157969.665712610818446 ], [ 663090.476519961259328, 7157933.722598096355796 ], [ 663054.533394336700439, 7157907.582153541967273 ], [ 663039.829386468511075, 7157887.976817487739027 ], [ 663044.730717112193815, 7157870.005255477502942 ], [ 663072.504944754298776, 7157863.470136418938637 ], [ 663108.448067898862064, 7157878.174133090302348 ], [ 663155.827637594542466, 7157889.610570756718516 ], [ 663198.305869917967357, 7157887.97678332682699 ], [ 663230.981429971987382, 7157871.638993594795465 ], [ 663239.150314488215372, 7157842.230982997454703 ], [ 663239.150307044619694, 7157807.921639362350106 ], [ 663219.544947975198738, 7157711.528725761920214 ], [ 663222.812492635915987, 7157657.614042208530009 ], [ 663239.150261667091399, 7157598.798021038062871 ], [ 663273.459589956793934, 7157536.714439455419779 ], [ 663279.994694518041797, 7157499.137537889182568 ], [ 663283.262240592739545, 7157451.757967420853674 ], [ 663279.994675014866516, 7157409.279733168892562 ], [ 663262.023106892593205, 7157371.702836895361543 ], [ 663250.586650422774255, 7157329.224604411050677 ], [ 663248.952861608238891, 7157280.211256744340062 ], [ 663247.319075275328942, 7157242.63435695040971 ], [ 663248.952847426058725, 7157214.860126057639718 ], [ 663258.755501959705725, 7157147.87521499581635 ], [ 663288.163489309605211, 7157056.383625705726445 ], [ 663301.233703385572881, 7157004.102718351408839 ], [ 663301.233690262772143, 7156943.652922490611672 ], [ 663257.121658895164728, 7156848.893792557530105 ], [ 663222.812299794284627, 7156768.838664915412664 ], [ 663216.27717467781622, 7156711.656427014619112 ], [ 663206.474497460294515, 7156674.079529011622071 ], [ 663186.869154726038687, 7156652.840415784157813 ], [ 663150.926034827367403, 7156652.840423534624279 ], [ 663121.518025512923487, 7156643.037760280072689 ], [ 663088.842453113524243, 7156602.193310679867864 ], [ 663065.969549070694484, 7156558.081302434206009 ], [ 663049.631761989789084, 7156533.574631970375776 ], [ 663049.631752781569958, 7156491.096397068351507 ], [ 663046.364189346437342, 7156458.420832461677492 ], [ 663056.166851324378513, 7156425.745265040546656 ], [ 663079.039736233535223, 7156381.633246950805187 ], [ 663119.884184626396745, 7156353.859007636085153 ], [ 663147.658407604671083, 7156326.084771141409874 ], [ 663180.333960147341713, 7156275.437637878581882 ], [ 663211.375738764647394, 7156244.395844146609306 ], [ 663255.487743853125721, 7156218.255382392555475 ], [ 663306.134864479186945, 7156205.185145343653858 ], [ 663338.810428003780544, 7156205.185138290748 ], [ 663366.584653096157126, 7156187.213571380823851 ], [ 663394.358875704812817, 7156157.805556618608534 ], [ 663407.42909437045455, 7156126.76376676466316 ], [ 663412.330420379294083, 7156087.55308735370636 ], [ 663428.668191136675887, 7156036.905957626178861 ], [ 663433.569517499534413, 7155999.329056484624743 ], [ 663421.316176567110233, 7155978.089941693469882 ], [ 663404.978392325807363, 7155966.65349736995995 ], [ 663401.710833135410212, 7155953.583271961659193 ], [ 663403.344605986494571, 7155929.076597644016147 ], [ 663411.513492961064912, 7155911.105034972541034 ], [ 663421.31615633436013, 7155884.964580629020929 ], [ 663424.583708072081208, 7155863.725462490692735 ], [ 663421.316146397031844, 7155839.218789235688746 ], [ 663413.147250549867749, 7155816.345895301550627 ], [ 663411.513464921619743, 7155782.036552110686898 ], [ 663416.414785603643395, 7155718.319198762997985 ], [ 663411.51343191228807, 7155630.095173579640687 ], [ 663391.908085295232013, 7155590.884499488398433 ], [ 663341.260950164170936, 7155536.969827729277313 ], [ 663295.515153467189521, 7155501.026715811342001 ], [ 663285.712480162852444, 7155481.421378765255213 ], [ 663284.078697732416913, 7155461.816039958968759 ], [ 663293.881361105595715, 7155435.675585633143783 ], [ 663308.585357227595523, 7155401.366238933987916 ], [ 663303.684016673476435, 7155373.592009518295527 ], [ 663295.515116579597816, 7155331.113776443526149 ], [ 663266.107095256447792, 7155265.762652276083827 ], [ 663233.431515462463722, 7155190.608859241008759 ], [ 663207.291055814479478, 7155149.764408314600587 ], [ 663200.755938511807472, 7155128.525292312726378 ], [ 663202.389713493874297, 7155113.82128759752959 ], [ 663217.09371103241574, 7155086.047053962945938 ], [ 663241.600376902730204, 7155055.00526169128716 ], [ 663267.740821653045714, 7155027.231025592423975 ], [ 663272.642152273096144, 7155009.259463649243116 ], [ 663272.64214659971185, 7154983.119011455215514 ], [ 663262.839472592575476, 7154960.246117901057005 ], [ 663239.966572134988382, 7154932.4718923792243 ], [ 663221.995000881957822, 7154880.190991872921586 ], [ 663179.516748524038121, 7154788.699418369680643 ], [ 663156.643842760124244, 7154736.418518930673599 ], [ 663148.474943034583703, 7154695.574064152315259 ], [ 663141.939824318746105, 7154667.799835114739835 ], [ 663146.841153168352321, 7154641.659381874836981 ], [ 663176.249154962133616, 7154617.152701612561941 ], [ 663212.19227086333558, 7154599.181132985278964 ], [ 663253.03672092652414, 7154579.575785035267472 ], [ 663271.008275506785139, 7154555.069107236340642 ], [ 663316.75405972939916, 7154533.829979967325926 ], [ 663349.429615730419755, 7154499.520629430189729 ], [ 663372.302499855286442, 7154452.141054919920862 ], [ 663372.302495950832963, 7154434.169494049623609 ], [ 663383.73893606045749, 7154401.493926362134516 ], [ 663411.513159309630282, 7154375.353468189015985 ], [ 663436.019829764496535, 7154365.550793329253793 ], [ 663457.258939967956394, 7154337.776558306999505 ], [ 663455.625152919208631, 7154296.932102141901851 ], [ 663455.625141201540828, 7154243.01741954125464 ], [ 663434.386016090400517, 7154202.172967618331313 ], [ 663416.414448034367524, 7154164.596071509644389 ], [ 663377.203765521990135, 7154135.188071291893721 ], [ 663342.894414690206759, 7154092.709843933582306 ], [ 663316.753956848755479, 7154060.034284373745322 ], [ 663297.148608504096046, 7154012.65471906028688 ], [ 663300.416157041559927, 7153976.711596636101604 ], [ 663311.85259714606218, 7153944.036028969101608 ], [ 663313.486369996564463, 7153919.529354718513787 ], [ 663300.416138595668599, 7153891.755127121694386 ], [ 663277.543236040510237, 7153854.178232084959745 ], [ 663264.473002514685504, 7153816.60133493412286 ], [ 663254.670324621954933, 7153775.756880559027195 ], [ 663254.670318593736738, 7153747.982650149613619 ], [ 663262.839203418232501, 7153720.208417976275086 ], [ 663262.839198453119025, 7153697.335522344335914 ], [ 663253.036520207766443, 7153654.857289716601372 ], [ 663249.768956773797981, 7153622.181725237518549 ], [ 663249.768947907839902, 7153581.337268758565187 ], [ 663261.205388008616865, 7153548.661701111122966 ], [ 663295.514717881567776, 7153494.747011158615351 ], [ 663315.120045993244275, 7153449.001215679571033 ], [ 663318.387595592532307, 7153417.959428056143224 ], [ 663310.218696227297187, 7153378.748751610517502 ], [ 663290.613350026658736, 7153341.171855896711349 ], [ 663272.641778451856226, 7153287.257177243940532 ], [ 663274.275550592807122, 7153259.482946498319507 ], [ 663284.078215709654614, 7153241.511383540928364 ], [ 663313.486219572252594, 7153226.807372865267098 ], [ 663334.72533542511519, 7153225.173590021207929 ], [ 663364.133339642430656, 7153212.10335760563612 ], [ 663369.034672732232139, 7153205.568243514746428 ], [ 663370.668445223709568, 7153179.427791029214859 ], [ 663362.499550116248429, 7153159.822453696280718 ], [ 663346.161763806943782, 7153138.583339868113399 ], [ 663326.556419029831886, 7153107.541557195596397 ], [ 663323.288857723353431, 7153084.668662288226187 ], [ 663341.260411554598249, 7153056.894428024068475 ], [ 663375.569743529427797, 7153012.782407650724053 ], [ 663401.710183944902383, 7152965.402832527644932 ], [ 663437.653293016017415, 7152916.389477033168077 ], [ 663439.287066213786602, 7152893.516581072472036 ], [ 663437.653285559732467, 7152882.080133622512221 ], [ 663426.216838376363739, 7152882.080136094242334 ], [ 663411.512829174636863, 7152855.939687149599195 ], [ 663382.10481787356548, 7152836.334354411810637 ], [ 663364.133252338622697, 7152810.193906173110008 ], [ 663349.429241010453552, 7152774.250787686556578 ], [ 663347.795456454157829, 7152744.842779408209026 ], [ 663373.935896505601704, 7152695.829426048323512 ], [ 663387.006117949960753, 7152677.857862396165729 ], [ 663406.611452424433082, 7152661.520075589418411 ], [ 663418.047894279006869, 7152637.013399261981249 ], [ 663418.047886112704873, 7152599.436499355360866 ], [ 663418.047874396899715, 7152545.521816873922944 ], [ 663431.118085186462849, 7152478.5369055243209 ], [ 663455.624747766181827, 7152432.79110904596746 ], [ 663465.427406831644475, 7152387.045315741561353 ], [ 663473.59628701582551, 7152338.031966283917427 ], [ 663460.526050663786009, 7152287.38484316226095 ], [ 663437.653144953073934, 7152235.103943906724453 ], [ 663424.582913576974533, 7152207.329716375097632 ], [ 663424.582904699956998, 7152166.485259976238012 ], [ 663413.146444391692057, 7152106.035466976463795 ], [ 663382.10464501415845, 7152040.684343451634049 ], [ 663375.569516728632152, 7151968.798101614229381 ], [ 663334.725050841923803, 7151914.883428003638983 ], [ 663295.514364546746947, 7151867.503867062740028 ], [ 663200.755209242808633, 7151767.843413946218789 ], [ 663153.375632839743048, 7151723.731411278247833 ], [ 663135.404062729794532, 7151676.351845758035779 ], [ 663135.404052805970423, 7151630.606054624542594 ], [ 663133.770268615102395, 7151602.831824645400047 ], [ 663127.235142481280491, 7151540.748252376914024 ], [ 663123.967576936236583, 7151498.270018463023007 ], [ 663122.333789908559993, 7151457.425562451593578 ], [ 663115.798670866061002, 7151428.017555283382535 ], [ 663104.362219096859917, 7151406.778440442867577 ], [ 663070.052873717853799, 7151388.806887043640018 ], [ 663040.644862838671543, 7151370.835332584567368 ], [ 663024.307077638921328, 7151354.497553564608097 ], [ 663011.23684310389217, 7151312.01932177413255 ], [ 663001.434170569293201, 7151295.681541343219578 ], [ 662993.265275492565706, 7151276.076204058714211 ], [ 662988.363936392124742, 7151254.837087810970843 ], [ 662988.363928247010335, 7151217.260187970474362 ], [ 662994.899030638975091, 7151169.880617200396955 ], [ 662994.899020014563575, 7151120.867269588634372 ], [ 662994.899010453140363, 7151076.755256740376353 ], [ 662993.265225204406306, 7151044.079692021012306 ], [ 662976.927432576892897, 7150993.432569684460759 ], [ 662937.716731130843982, 7150875.800543896853924 ], [ 662932.815385307068937, 7150823.519640851765871 ], [ 662918.111368022160605, 7150759.802292155101895 ], [ 662896.872240912402049, 7150709.155170890502632 ], [ 662885.43577960669063, 7150643.804043246433139 ], [ 662869.097991594579071, 7150614.396038216538727 ], [ 662828.253529355162755, 7150576.819147203117609 ], [ 662790.676626630476676, 7150553.946259757503867 ], [ 662764.536170701612718, 7150529.439591595903039 ], [ 662725.325485575012863, 7150486.961365471594036 ], [ 662686.114797271206044, 7150429.77913507912308 ], [ 662666.509450118755922, 7150387.300904742442071 ], [ 662648.537876889458857, 7150325.217335030436516 ], [ 662622.397419206448831, 7150292.541775614023209 ], [ 662625.664968820055947, 7150261.499988125637174 ], [ 662624.031179350218736, 7150209.219084421172738 ], [ 662607.693385704420507, 7150153.670627378858626 ], [ 662583.186706193024293, 7150120.995067616924644 ], [ 662565.215141101973131, 7150096.488397708162665 ], [ 662548.877353466581553, 7150068.714170945808291 ], [ 662529.272005623904988, 7150022.968384122475982 ], [ 662508.032882797531784, 7149991.926601914688945 ], [ 662483.526201177155599, 7149949.448372648097575 ], [ 662447.583073480986059, 7149911.871480595320463 ], [ 662445.949291083030403, 7149892.266141934320331 ], [ 662457.38573680841364, 7149885.731026474386454 ], [ 662501.497748962021433, 7149893.899908252991736 ], [ 662547.243537159170955, 7149892.266120171174407 ], [ 662588.087980622658506, 7149843.252763863652945 ], [ 662617.49597588647157, 7149789.338075262494385 ], [ 662651.805309519404545, 7149753.394946372136474 ], [ 662671.410638629808091, 7149712.550485890358686 ], [ 662681.213301239069551, 7149683.142475271597505 ], [ 662682.847073392476887, 7149655.368244661949575 ], [ 662681.21328780753538, 7149621.058901754207909 ], [ 662674.678166676312685, 7149581.848225152119994 ], [ 662656.706599474069662, 7149547.538885761983693 ], [ 662633.833678704220802, 7149425.005521924234927 ], [ 662630.566113546141423, 7149384.161066378466785 ], [ 662624.03098959242925, 7149331.880163789726794 ], [ 662615.862090304377489, 7149292.669487554579973 ], [ 662604.425635757157579, 7149258.360146770253778 ], [ 662609.32696423411835, 7149230.58591547422111 ], [ 662625.664741604006849, 7149210.980572966858745 ], [ 662677.945639575715177, 7149196.276557479053736 ], [ 662722.057645326945931, 7149175.0374307455495 ], [ 662764.535872913664207, 7149153.798304364085197 ], [ 662797.211434362805448, 7149145.629406085237861 ], [ 662818.450546562904492, 7149127.657840767875314 ], [ 662826.619430999271572, 7149098.249830522574484 ], [ 662838.05587140051648, 7149067.20804132707417 ], [ 662851.126089963829145, 7149036.1662517786026 ], [ 662881.350971424835734, 7148969.181337060406804 ], [ 662935.265643639722839, 7148936.505760466679931 ], [ 662966.307427626335993, 7148931.604419033974409 ], [ 663015.320771731669083, 7148928.336851973086596 ], [ 663057.799001777078956, 7148918.53417332097888 ], [ 663090.474564274889417, 7148915.266609780490398 ], [ 663119.882568327710032, 7148902.196377446874976 ], [ 663113.347451787325554, 7148884.224818118847907 ], [ 663098.643445153953508, 7148869.52081705071032 ], [ 663072.50298431282863, 7148822.141253476031125 ], [ 663059.432747693033889, 7148769.86035234015435 ], [ 663059.432736353832297, 7148717.579448387026787 ], [ 663062.700279208249412, 7148655.495874246582389 ], [ 663062.700273893540725, 7148630.989200524054468 ], [ 663061.066490064375103, 7148604.848748903721571 ], [ 663052.897593951318413, 7148580.342076942324638 ], [ 663046.362477415124886, 7148562.370517624542117 ], [ 663043.094917551265098, 7148546.032735846936703 ], [ 663043.094914363930002, 7148531.328731615096331 ], [ 663065.967805054271594, 7148514.990944203920662 ], [ 663088.840696097235195, 7148500.28693504165858 ], [ 663105.178473439766094, 7148480.681592540815473 ], [ 663129.685141222085804, 7148459.442470034584403 ], [ 663142.755363662028685, 7148446.372241232544184 ], [ 663150.924251268384978, 7148431.6682352386415 ], [ 663150.924247368471697, 7148413.696674514561892 ], [ 663144.389128704089671, 7148385.922445714473724 ], [ 663130.502006904920563, 7148351.61310550943017 ], [ 663097.826433088863268, 7148302.599765129387379 ], [ 663073.319750779424794, 7148256.853979486040771 ], [ 663060.249519484350458, 7148229.079752100631595 ], [ 663058.61573707300704, 7148209.474413484334946 ], [ 663058.615729987388477, 7148176.798848539590836 ], [ 663076.587278038961813, 7148122.884162507019937 ], [ 663087.403972378233448, 7148096.924078841693699 ], [ 663058.782018391997553, 7148078.403998738154769 ], [ 662991.9548143169377, 7148024.45542399585247 ], [ 662922.774797038175166, 7148011.145435413345695 ], [ 662845.624780987389386, 7148011.145452030003071 ], [ 662760.484761547180824, 7148003.165468266233802 ], [ 662723.234745734604076, 7147965.915466519072652 ], [ 662662.044719768455252, 7147904.725463647395372 ], [ 662627.464701068238355, 7147851.515457145869732 ], [ 662574.254677351797, 7147792.985453257337213 ], [ 662526.364664527587593, 7147779.685460067354143 ], [ 662462.504650111077353, 7147774.365472396835685 ], [ 662427.9246331556933, 7147729.135467983782291 ], [ 662345.4445964936167, 7147638.675462020561099 ], [ 662268.294573588995263, 7147606.745470223948359 ], [ 662191.134553559473716, 7147588.125481906346977 ], [ 662100.674535938422196, 7147593.445502694696188 ], [ 662007.564520058687776, 7147609.405526822432876 ], [ 661935.724502286640927, 7147596.105538731440902 ], [ 661850.594482332118787, 7147585.465554173104465 ], [ 661792.054472476826049, 7147596.105569485574961 ], [ 661734.972151769674383, 7147606.584879817441106 ], [ 661672.176057056291029, 7147650.711887776851654 ], [ 661638.232237744261511, 7147747.451844591647387 ], [ 661629.746291580842808, 7147811.9451461173594 ], [ 661621.784505210700445, 7147912.705688780173659 ], [ 661605.824513901839964, 7147968.575706832110882 ], [ 661607.68283855332993, 7148012.213818397372961 ], [ 661579.214535243110731, 7148093.625745302066207 ], [ 661523.344533331459388, 7148138.855769099667668 ], [ 661472.794533092644997, 7148186.745792457833886 ], [ 661371.694529738160782, 7148269.215835683047771 ], [ 661334.44453453598544, 7148327.745858997106552 ], [ 661254.634524176712148, 7148357.015883702784777 ], [ 661174.814510957337916, 7148372.97590490989387 ], [ 661134.166347703081556, 7148380.5046048425138 ], [ 661102.923254915513098, 7148421.041040245443583 ], [ 661054.398338997154497, 7148453.48388209939003 ], [ 661011.968538813991472, 7148453.483891133219004 ], [ 660950.869625455816276, 7148448.392327841371298 ], [ 660896.559481220785528, 7148448.392339399084449 ], [ 660849.038111550034955, 7148478.941807292401791 ], [ 660789.636401452939026, 7148526.463198706507683 ], [ 660693.264461155515164, 7148609.766069607809186 ], [ 660640.283529808628373, 7148643.569485314190388 ], [ 660574.093046940863132, 7148669.027380864135921 ], [ 660553.72675118339248, 7148708.062803482636809 ], [ 660567.304292683489621, 7148733.520682096481323 ], [ 660586.844477005070075, 7148788.016139104962349 ], [ 660568.224487318773754, 7148854.536160569638014 ], [ 660538.954506760695949, 7148974.256198310293257 ], [ 660520.334524447098374, 7149075.356228901073337 ], [ 660496.384522838285193, 7149091.316238190978765 ], [ 660429.831820069346577, 7149108.600165435113013 ], [ 660342.074496757471934, 7149120.586278637871146 ], [ 660341.577845742693171, 7149156.12156297173351 ], [ 660361.944158538244665, 7149196.854169072583318 ], [ 660368.732936348300427, 7149242.678354360163212 ], [ 660356.852600971818902, 7149283.41096730530262 ], [ 660317.81719018809963, 7149308.868857097811997 ], [ 660271.993005574564449, 7149307.17167470511049 ], [ 660227.866011162404902, 7149296.988531453534961 ], [ 660188.830597841413692, 7149310.566076526418328 ], [ 660161.164506461587735, 7149344.06637591868639 ], [ 660147.854514436330646, 7149394.616392079740763 ], [ 660094.644532161066309, 7149530.306439178064466 ], [ 660065.384536210214719, 7149578.196458023041487 ], [ 660022.814532927470282, 7149604.796474061906338 ], [ 659993.544529608916491, 7149618.106483770534396 ], [ 659982.56961366138421, 7149665.068749214522541 ], [ 659983.470450301771052, 7149712.800648080185056 ], [ 659956.315382470842451, 7149733.16695904918015 ], [ 659916.394538856693543, 7149737.826531737111509 ], [ 659847.695106441853568, 7149792.568705590441823 ], [ 659785.377900283318013, 7149821.534891786985099 ], [ 659730.154525118530728, 7149857.546602763235569 ], [ 659739.527146198786795, 7149902.655501278117299 ], [ 659748.344613089459017, 7149953.796747122891247 ], [ 659743.054146217997186, 7149985.539591645821929 ], [ 659732.473204232635908, 7150010.228472085669637 ], [ 659711.311319138039835, 7150054.315759068354964 ], [ 659704.257363307639025, 7150096.639551770873368 ], [ 659721.89228397468105, 7150137.199847962707281 ], [ 659728.946257037576288, 7150175.996655091643333 ], [ 659721.892302330583334, 7150223.610921707004309 ], [ 659716.601839203154668, 7150272.988679250702262 ], [ 659689.856359411031008, 7150310.212330301292241 ], [ 659661.004098097444512, 7150323.789873216301203 ], [ 659659.306912573054433, 7150354.33933143876493 ], [ 659695.439979191520251, 7150435.229883434250951 ], [ 659707.784430368919857, 7150495.188585079275072 ], [ 659709.547932063112967, 7150544.56634115241468 ], [ 659723.655868829926476, 7150578.072672908194363 ], [ 659707.784453966887668, 7150606.288537087850273 ], [ 659683.095578575623222, 7150613.342507507652044 ], [ 659649.589240411063656, 7150588.653636354953051 ], [ 659607.265449961880222, 7150581.59968007914722 ], [ 659554.56464397686068, 7150591.846834482625127 ], [ 659523.531603128416464, 7150597.037830932997167 ], [ 659486.193382820812985, 7150615.706951951608062 ], [ 659480.064642332377844, 7150658.366867864504457 ], [ 659480.06464853824582, 7150687.626875639893115 ], [ 659488.054655872285366, 7150714.236881027929485 ], [ 659498.694664330454543, 7150743.496886559762061 ], [ 659483.821104417787865, 7150765.002801528200507 ], [ 659452.078267184551805, 7150786.164703849703074 ], [ 659401.333819265826605, 7150790.517756585031748 ], [ 659353.812446867697872, 7150809.186879750341177 ], [ 659340.234921555616893, 7150860.102645747363567 ], [ 659347.023707589716651, 7150944.962249555625021 ], [ 659331.748992058914155, 7151004.363976446911693 ], [ 659309.685508832684718, 7151065.462896877899766 ], [ 659307.988326887600124, 7151112.984276180155575 ], [ 659320.43472130317241, 7151190.467043063603342 ], [ 659349.704760779277422, 7151347.437078727409244 ], [ 659392.274782793479972, 7151408.627086075954139 ], [ 659458.784810471115634, 7151472.487089091911912 ], [ 659511.994835892925039, 7151538.997095620259643 ], [ 659525.294850575039163, 7151594.867107726633549 ], [ 659517.314863549312577, 7151664.037127875722945 ], [ 659474.744875363423489, 7151762.477163144387305 ], [ 659442.824884360074066, 7151836.977189781144261 ], [ 659413.554894476896152, 7151914.127216573804617 ], [ 659394.934909680509008, 7152004.587244688533247 ], [ 659347.044903409434482, 7152023.207259757444263 ], [ 659304.474893763661385, 7152020.547268013469875 ], [ 659261.90488017431926, 7151999.267271285876632 ], [ 659219.334863769472577, 7151964.677270995453 ], [ 659152.824835507781245, 7151898.167267210781574 ], [ 659107.594819672754966, 7151868.897268899716437 ], [ 659051.724795383168384, 7151810.367265006527305 ], [ 659006.494777308078483, 7151770.457263851538301 ], [ 658918.694735552184284, 7151661.377253169193864 ], [ 658881.454713012091815, 7151592.207242525182664 ], [ 658833.564700011978857, 7151578.90724903345108 ], [ 658806.95469435013365, 7151578.907254619523883 ], [ 658790.994698256719857, 7151613.487267201766372 ], [ 658764.384701580624096, 7151656.057284152135253 ], [ 658695.214693033951335, 7151685.327306482940912 ], [ 658642.004681706079282, 7151685.327317645773292 ], [ 658584.98465088615194, 7151690.029744116589427 ], [ 658546.224670289200731, 7151727.897349095903337 ], [ 658477.054663406684995, 7151765.137373538687825 ], [ 658373.294648028677329, 7151797.067403799854219 ], [ 658304.124634412699379, 7151802.387419700622559 ], [ 658250.914623635588214, 7151805.047431547194719 ], [ 658218.984620190924034, 7151821.007442491129041 ], [ 658184.394626812310889, 7151887.527467505075037 ], [ 658163.114630109164864, 7151924.767481908202171 ], [ 658107.244623791310005, 7151951.377500702627003 ], [ 658091.27462038595695, 7151951.377504041418433 ], [ 658064.674613593961112, 7151946.057508178055286 ], [ 658038.064608479384333, 7151948.717514448799193 ], [ 657984.854600485181436, 7151964.677529831416905 ], [ 657944.954593093367293, 7151969.99753958825022 ], [ 657921.004591339151375, 7151985.967548858374357 ], [ 657897.064600196667016, 7152052.477571644820273 ], [ 657870.454606247018091, 7152108.34759215079248 ], [ 657859.81461347010918, 7152153.577606475912035 ], [ 657846.514622915303335, 7152212.107624920085073 ], [ 657814.584623913513497, 7152249.3576415553689 ], [ 657756.054613640066236, 7152259.997656613588333 ], [ 657705.504609535913914, 7152291.927675707265735 ], [ 657649.634604844497517, 7152326.507696615532041 ], [ 657631.004600862856023, 7152326.507700497284532 ], [ 657599.084589022677392, 7152302.567700736224651 ], [ 657535.234575934358872, 7152305.22771474532783 ], [ 657482.024569018278271, 7152326.507731528021395 ], [ 657415.504558142158203, 7152342.467749649658799 ], [ 657380.924551307572983, 7152345.137757561169565 ], [ 657359.634541745181195, 7152321.187755572609603 ], [ 657346.334530551568605, 7152281.27774764969945 ], [ 657319.724520970834419, 7152262.657748196274042 ], [ 657277.164511877810583, 7152262.657757047563791 ], [ 657210.259238939266652, 7152263.680963308550417 ], [ 657123.702446835348383, 7152267.075365507975221 ], [ 657037.1456575661432, 7152284.04730456136167 ], [ 656977.743945509078912, 7152324.779927480965853 ], [ 656957.894470870029181, 7152393.017858280800283 ], [ 656955.234475853852928, 7152419.627865967340767 ], [ 656941.934483004268259, 7152467.517881561070681 ], [ 656915.334491191781126, 7152534.027904913760722 ], [ 656904.684500569477677, 7152589.897922106087208 ], [ 656896.704506077105179, 7152624.48793304245919 ], [ 656867.444504250423051, 7152645.767944818362594 ], [ 656830.194499047705904, 7152659.077956114895642 ], [ 656776.984484876855277, 7152645.767963572405279 ], [ 656739.734474681084976, 7152635.127968436107039 ], [ 656667.90446040709503, 7152640.447984744794667 ], [ 656620.014454030897468, 7152659.077999658882618 ], [ 656561.484448693227023, 7152693.658021056093276 ], [ 656510.934445061953738, 7152728.248040799051523 ], [ 656485.558356905239634, 7152786.416282966732979 ], [ 656431.114446775405668, 7152818.708081597462296 ], [ 656367.264438063954003, 7152842.648101227357984 ], [ 656282.124429206713103, 7152887.878130970522761 ], [ 656250.204429546953179, 7152922.468146855942905 ], [ 656212.954436475876719, 7152994.298173852264881 ], [ 656196.994448523502797, 7153068.798197174444795 ], [ 656159.744460412068292, 7153164.568230621516705 ], [ 656133.134466847404838, 7153223.108251864090562 ], [ 656106.534467202960514, 7153252.368265226483345 ], [ 656085.244462625822052, 7153252.368269620463252 ], [ 656071.94445700768847, 7153239.068268785253167 ], [ 656045.344445216003805, 7153209.798266396857798 ], [ 656021.394432344473898, 7153172.558261317200959 ], [ 655981.484417145838961, 7153140.628260957077146 ], [ 655933.594406859949231, 7153140.628270832821727 ], [ 655893.694398286985233, 7153140.628279055468738 ], [ 655869.744397553149611, 7153161.908289714716375 ], [ 655843.144398453761823, 7153193.838303785771132 ], [ 655797.9143981046509, 7153239.06832527089864 ], [ 655773.964403977384791, 7153292.278344522230327 ], [ 655752.684403257444501, 7153310.898353917524219 ], [ 655718.094395820051432, 7153310.898361036553979 ], [ 655659.564381581265479, 7153302.918370936065912 ], [ 655622.314368618070148, 7153278.97837215475738 ], [ 655571.764353345264681, 7153257.688376822508872 ], [ 655507.914333569584414, 7153228.428382078185678 ], [ 655470.664321161340922, 7153207.138384005054832 ], [ 655422.784306474262848, 7153185.858388117514551 ], [ 655369.564295038231649, 7153185.858399050310254 ], [ 655276.45427887653932, 7153204.478423177264631 ], [ 655193.974264445714653, 7153220.448444399982691 ], [ 655143.424253582721576, 7153220.448454769328237 ], [ 655111.494248365983367, 7153228.428463464602828 ], [ 655100.854248274001293, 7153239.068468506447971 ], [ 655098.19425263965968, 7153263.008475495502353 ], [ 655100.854259795742109, 7153294.938483543694019 ], [ 655092.874267407227308, 7153340.168497357517481 ], [ 655066.274277044809423, 7153414.65852286759764 ], [ 655061.366827704594471, 7153424.470792965963483 ], [ 655063.72339566971641, 7153440.83406070433557 ], [ 655070.258511383552104, 7153455.538063693791628 ], [ 655078.427404255722649, 7153465.340731570497155 ], [ 655091.4976329858182, 7153481.678511477075517 ], [ 655117.638083709753118, 7153481.678506116382778 ], [ 655133.975867433240637, 7153491.481172319501638 ], [ 655155.214990724460222, 7153525.790511397644877 ], [ 655173.186560036730953, 7153571.536298960447311 ], [ 655179.721683842130005, 7153625.450980162248015 ], [ 655174.820359781151637, 7153676.098107201978564 ], [ 655173.1865896997042, 7153715.308785755187273 ], [ 655158.482592230662704, 7153744.716797438450158 ], [ 655153.58126108837314, 7153761.054581036791205 ], [ 655150.313709464971907, 7153783.927477336488664 ], [ 655151.947491343365982, 7153801.899037855677307 ], [ 655160.11638826597482, 7153831.307044849731028 ], [ 655165.017727496335283, 7153854.179939476773143 ], [ 655179.721736430190504, 7153880.320388614200056 ], [ 655202.594634533976205, 7153898.291944776661694 ], [ 655246.70665054989513, 7153924.432387879118323 ], [ 655264.678214480518363, 7153944.037723308429122 ], [ 655285.917338464641944, 7153981.614618921652436 ], [ 655298.987570582190529, 7154014.290181437507272 ], [ 655315.325358707457781, 7154045.331965020857751 ], [ 655339.83203499042429, 7154063.303520848974586 ], [ 655365.972486746730283, 7154068.204850262030959 ], [ 655385.577827168279327, 7154079.641294055618346 ], [ 655400.281836113659665, 7154105.781743194907904 ], [ 655418.25341153005138, 7154180.935539470985532 ], [ 655421.520974962739274, 7154215.244882265105844 ], [ 655424.788535021129064, 7154233.216442458331585 ], [ 655431.323652096674778, 7154254.455558499321342 ], [ 655439.492547347210348, 7154275.694674206897616 ], [ 655454.196554608410224, 7154293.666232051327825 ], [ 655478.703230903716758, 7154311.637787880375981 ], [ 655498.30856896773912, 7154311.637783851474524 ], [ 655521.181464728433639, 7154318.172892190515995 ], [ 655542.420583667233586, 7154331.243113908916712 ], [ 655563.659702945966274, 7154345.947113888338208 ], [ 655578.363708521937951, 7154355.749780427664518 ], [ 655581.631270273355767, 7154381.89023192692548 ], [ 655581.631273991195485, 7154399.861792793497443 ], [ 655578.363721702713519, 7154419.467132594436407 ], [ 655579.997502577956766, 7154432.537358346395195 ], [ 655584.898840136011131, 7154447.24136168602854 ], [ 655624.109518976998515, 7154460.311579708009958 ], [ 655645.348638598225079, 7154476.649357946589589 ], [ 655663.320202890434302, 7154497.88847164157778 ], [ 655687.826878521125764, 7154512.592470947653055 ], [ 655722.13622081966605, 7154515.860020408406854 ], [ 655746.642895436030813, 7154525.662684928625822 ], [ 655779.318462947150692, 7154545.268017334863544 ], [ 655810.360252964310348, 7154568.140906595624983 ], [ 655828.331818277598359, 7154594.281355073675513 ], [ 655846.303383255726658, 7154618.788025288842618 ], [ 655877.345177001436241, 7154659.632475424557924 ], [ 655900.218077177414671, 7154687.406701155938208 ], [ 655916.555865002097562, 7154716.814706493169069 ], [ 655923.090984129928984, 7154747.856492115184665 ], [ 655916.555874824873172, 7154764.194276077672839 ], [ 655895.316760607296601, 7154773.996950022876263 ], [ 655877.345200701849535, 7154773.996953725814819 ], [ 655861.007421004818752, 7154783.799626660533249 ], [ 655846.303420493612066, 7154798.503634044900537 ], [ 655839.768315247842111, 7154834.446757147088647 ], [ 655852.838549435487948, 7154876.924989258870482 ], [ 655874.077671442879364, 7154904.699215333908796 ], [ 655911.654575525550172, 7154934.107216305099428 ], [ 655968.8368190479232, 7154970.050326282158494 ], [ 655994.977275922778063, 7154999.458329608663917 ], [ 656016.216398956486955, 7155032.133890471421182 ], [ 656027.652853627689183, 7155068.077009880915284 ], [ 656048.891977341845632, 7155104.020127270370722 ], [ 656073.398654355318286, 7155125.259239625185728 ], [ 656083.201325093978085, 7155133.428128914907575 ], [ 656104.440446779131889, 7155159.568576728925109 ], [ 656127.313344943802804, 7155177.540132896974683 ], [ 656159.988911474356428, 7155192.24413051456213 ], [ 656202.467141621862538, 7155180.807673909701407 ], [ 656233.508920818567276, 7155151.399658776819706 ], [ 656272.719596313196234, 7155148.132094154134393 ], [ 656311.930273505509831, 7155153.033420840278268 ], [ 656334.803170315921307, 7155164.469863950274885 ], [ 656364.211178125813603, 7155167.737414400093257 ], [ 656388.717853112029843, 7155179.173857170157135 ], [ 656431.196088352124207, 7155192.244074489921331 ], [ 656478.575658796355128, 7155208.581847317516804 ], [ 656514.518778624478728, 7155208.581839881837368 ], [ 656565.165902357664891, 7155210.215607667341828 ], [ 656601.109022866585292, 7155213.483156753703952 ], [ 656635.418371323961765, 7155246.158714901655912 ], [ 656655.023715879768133, 7155277.200497832149267 ], [ 656676.262835544999689, 7155293.538276063278317 ], [ 656695.868173975730315, 7155295.172050263732672 ], [ 656726.909959285752848, 7155295.172043836675584 ], [ 656745.698410672368482, 7155306.608487782999873 ], [ 656755.501080398797058, 7155309.876042276620865 ], [ 656770.205085668945685, 7155318.044930544681847 ], [ 656784.909092301153578, 7155332.748931862413883 ], [ 656796.345543949864805, 7155353.988046909682453 ], [ 656817.584665665635839, 7155380.128494712524116 ], [ 656830.654895488638431, 7155401.367609421722591 ], [ 656846.992680979543366, 7155419.339166928082705 ], [ 656860.06290807982441, 7155427.508055532351136 ], [ 656894.372255196096376, 7155453.648500626906753 ], [ 656910.710039668134414, 7155466.718723345547915 ], [ 656930.315380489453673, 7155479.788945384323597 ], [ 656943.385609296150506, 7155496.126725304871798 ], [ 656951.554504600702785, 7155517.365841031074524 ], [ 656962.990957278409041, 7155543.506290869787335 ], [ 656980.962521633366123, 7155564.745404563844204 ], [ 657007.102975839166902, 7155581.083181774243712 ], [ 657077.355445886380039, 7155621.927623776718974 ], [ 657105.129677589517087, 7155634.997844118624926 ], [ 657144.340362321236171, 7155675.842292564921081 ], [ 657157.410593182896264, 7155701.982742065563798 ], [ 657157.410597620299086, 7155723.221859494224191 ], [ 657157.410605471231975, 7155760.798759559169412 ], [ 657141.07283191033639, 7155800.009441282600164 ], [ 657132.903943423181772, 7155811.445890826173127 ], [ 657132.903948541847058, 7155835.952564785256982 ], [ 657154.143074038438499, 7155880.064573500305414 ], [ 657175.382198854582384, 7155920.909025689586997 ], [ 657191.719985389267094, 7155943.781917992979288 ], [ 657224.395550950430334, 7155953.584580790251493 ], [ 657245.634667233098298, 7155953.584576377645135 ], [ 657294.648009427823126, 7155938.880561811849475 ], [ 657350.196467055706307, 7155937.246771997772157 ], [ 657379.604476608568802, 7155948.683213729411364 ], [ 657409.012489923974499, 7155978.091216368600726 ], [ 657417.181383538525552, 7155991.161440784111619 ], [ 657419.632060374249704, 7156036.907231673598289 ], [ 657422.899622197030112, 7156063.047683224081993 ], [ 657431.068516837782227, 7156081.019242433831096 ], [ 657453.941416429821402, 7156105.525911642238498 ], [ 657470.279202977661043, 7156128.398803945630789 ], [ 657494.785880064941011, 7156149.637916283681989 ], [ 657529.095224156742916, 7156161.074356993660331 ], [ 657555.235678396653384, 7156177.412134198471904 ], [ 657571.573462895932607, 7156190.48235691152513 ], [ 657599.347699420410208, 7156226.42547295242548 ], [ 657614.051709168357775, 7156255.833478657528758 ], [ 657635.290829910896719, 7156277.072591675445437 ], [ 657663.065062675159425, 7156295.044146802276373 ], [ 657707.177078917622566, 7156321.184589847922325 ], [ 657743.120203253347427, 7156342.423699803650379 ], [ 657775.795771579374559, 7156365.296588700264692 ], [ 657815.00645741482731, 7156411.04237194545567 ], [ 657873.822486174409278, 7156479.661046819761395 ], [ 657891.794057435356081, 7156533.575725825503469 ], [ 657892.61095098243095, 7156554.814843107014894 ], [ 657882.808287063380703, 7156579.32151913549751 ], [ 657871.371841537998989, 7156587.490412851795554 ], [ 657825.626055667409673, 7156602.194426784291863 ], [ 657794.584273729822598, 7156618.532215914689004 ], [ 657758.641158289276063, 7156639.771340863779187 ], [ 657737.402049523894675, 7156675.714467137120664 ], [ 657737.402053634054027, 7156695.319806326180696 ], [ 657737.402060143300332, 7156726.361593376845121 ], [ 657725.965619069291279, 7156755.769604548811913 ], [ 657704.726510297274217, 7156791.712730826810002 ], [ 657688.388738455716521, 7156839.092303948476911 ], [ 657670.417183296638541, 7156861.965203419327736 ], [ 657639.375403742771596, 7156889.739440411329269 ], [ 657621.40384857961908, 7156912.612339884974062 ], [ 657601.798519347212277, 7156955.090578893199563 ], [ 657613.234976175474003, 7157000.836367970332503 ], [ 657645.910555483773351, 7157075.990161426365376 ], [ 657649.178134436253458, 7157183.819526351988316 ], [ 657632.023478628718294, 7157255.705773672088981 ], [ 657622.220814349944703, 7157278.578671453520656 ], [ 657607.516817931784317, 7157312.888018126599491 ], [ 657597.71415399457328, 7157337.394694175571203 ], [ 657597.714159812196158, 7157365.16892471909523 ], [ 657597.714166657999158, 7157397.84449006523937 ], [ 657618.953293594531715, 7157448.491611931473017 ], [ 657636.924860408646055, 7157481.167173536494374 ], [ 657677.769328921800479, 7157548.152073999866843 ], [ 657700.642230964032933, 7157584.09519112482667 ], [ 657713.712459136848338, 7157597.165414541959763 ], [ 657748.021809464786202, 7157638.009864087216556 ], [ 657764.359595026704483, 7157655.981421627104282 ], [ 657764.359598452923819, 7157672.319204308092594 ], [ 657757.824489504331723, 7157690.290766617283225 ], [ 657731.68404411431402, 7157716.431224354542792 ], [ 657716.980042896931991, 7157727.867675296962261 ], [ 657689.205817612586543, 7157745.839242034591734 ], [ 657666.332928578485735, 7157771.979699090123177 ], [ 657648.361375791719183, 7157806.289046468213201 ], [ 657648.361382981645875, 7157840.598390102386475 ], [ 657653.262724711326882, 7157874.907732715830207 ], [ 657677.769408707739785, 7157928.82241046987474 ], [ 657690.022760125575587, 7158000.708651734516025 ], [ 657706.360550487879664, 7158041.553105048835278 ], [ 657707.994336203206331, 7158077.49622662179172 ], [ 657707.994344422477297, 7158116.706905074417591 ], [ 657707.994350930443034, 7158147.748692186549306 ], [ 657711.261911058682017, 7158165.720252465456724 ], [ 657701.45924711227417, 7158190.226928543299437 ], [ 657685.121469759382308, 7158211.466049445793033 ], [ 657668.783691036165692, 7158226.170057274401188 ], [ 657654.079690150450915, 7158239.24028648994863 ], [ 657642.643245282350108, 7158250.676736757159233 ], [ 657632.840580305550247, 7158270.282078030519187 ], [ 657636.108139063697308, 7158281.718525232747197 ], [ 657654.079702817718498, 7158299.690082452259958 ], [ 657660.614818963920698, 7158316.027863784693182 ], [ 657652.445937646087259, 7158361.773657030425966 ], [ 657658.98106611892581, 7158436.927456069737673 ], [ 657652.44596024195198, 7158469.603022823110223 ], [ 657633.657517320709303, 7158499.011035595089197 ], [ 657615.685961093753576, 7158516.98260030336678 ], [ 657607.517072583432309, 7158528.419049896299839 ], [ 657602.615742146619596, 7158548.02439015544951 ], [ 657605.883305354043841, 7158580.699954872950912 ], [ 657605.883308776421472, 7158597.03773757070303 ], [ 657592.813089486444369, 7158626.445749154314399 ], [ 657586.277981208404526, 7158647.684868024662137 ], [ 657584.644207476521842, 7158668.923985878005624 ], [ 657587.911768972757272, 7158693.430659249424934 ], [ 657594.446888201520778, 7158724.472445024177432 ], [ 657579.742891068453901, 7158755.514235220849514 ], [ 657560.137560414383188, 7158791.457361251115799 ], [ 657560.137565889395773, 7158817.59781357832253 ], [ 657576.475349761312827, 7158827.400479799136519 ], [ 657607.517134873196483, 7158825.766695063561201 ], [ 657646.727805419126526, 7158797.992456300184131 ], [ 657710.445149372681044, 7158773.485768967308104 ], [ 657774.16249571996741, 7158760.41552952490747 ], [ 657824.809621066204272, 7158768.5844103153795 ], [ 657878.72430517943576, 7158788.189738314598799 ], [ 657913.033655226579867, 7158827.400409646332264 ], [ 657940.807892892276868, 7158868.244860615581274 ], [ 657991.45503197168, 7158941.764872225001454 ], [ 658027.398159872740507, 7158979.341764947399497 ], [ 658055.172395834117197, 7159012.01732456497848 ], [ 658060.073736559250392, 7159041.425332417711616 ], [ 658060.073741020751186, 7159062.664449941366911 ], [ 658051.904856287292205, 7159092.07246052660048 ], [ 658030.665743689052761, 7159110.044025944545865 ], [ 657997.990184500580654, 7159131.283150292001665 ], [ 657980.018629981321283, 7159157.42360638268292 ], [ 657953.878184204455465, 7159181.930285907350481 ], [ 657935.906627280870453, 7159196.634294098243117 ], [ 657909.766178073128685, 7159204.803190911188722 ], [ 657898.329732166952454, 7159211.33830638229847 ], [ 657890.160842967103235, 7159219.507199443876743 ], [ 657891.794623550027609, 7159230.943647004663944 ], [ 657899.963518578908406, 7159250.548984554596245 ], [ 657926.103976018726826, 7159281.590766258537769 ], [ 657962.04710393154528, 7159319.167659004218876 ], [ 657999.624011402367614, 7159363.279664494097233 ], [ 658032.299584328196943, 7159407.391671007499099 ], [ 658053.53871031885501, 7159453.137458183802664 ], [ 658073.144062591250986, 7159520.122363239526749 ], [ 658071.510291271843016, 7159552.797929022461176 ], [ 658073.144079411169514, 7159600.177498573437333 ], [ 658086.214308998081833, 7159619.78283510915935 ], [ 658107.453430190915242, 7159642.655726484954357 ], [ 658117.256103757303208, 7159663.89484197832644 ], [ 658131.960115307127126, 7159701.471739169210196 ], [ 658143.396569806034677, 7159735.781080501154065 ], [ 658159.734357138862833, 7159761.921529448591173 ], [ 658174.438363541266881, 7159774.991752556525171 ], [ 658197.311264986987226, 7159807.667313227429986 ], [ 658215.282835317892022, 7159856.680657653138041 ], [ 658223.451736201997846, 7159904.060225857421756 ], [ 658236.521971983136609, 7159953.073571313172579 ], [ 658259.394874467514455, 7159990.650466810911894 ], [ 658262.662438397295773, 7160026.593588133342564 ], [ 658265.929999233339913, 7160047.832705004140735 ], [ 658277.366449618479237, 7160062.536707069724798 ], [ 658292.070456372573972, 7160077.240708455443382 ], [ 658329.647357710869983, 7160091.94470505323261 ], [ 658377.026928161154501, 7160106.648699599318206 ], [ 658418.68827737425454, 7160132.7891432531178 ], [ 658449.730067012482323, 7160152.394476037472486 ], [ 658470.969186854083091, 7160168.732254326343536 ], [ 658497.109644695417956, 7160201.407814321108162 ], [ 658502.010986477136612, 7160235.717157039791346 ], [ 658502.010992671595886, 7160265.125165967270732 ], [ 658502.010997834033333, 7160289.631840070709586 ], [ 658529.785231798305176, 7160312.504730086773634 ], [ 658555.925683449138887, 7160315.772281158715487 ], [ 658583.699912596028298, 7160315.772275338880718 ], [ 658626.17814954277128, 7160335.377605721354485 ], [ 658647.417269049794413, 7160350.081605736166239 ], [ 658660.487494531786069, 7160350.081602996215224 ], [ 658688.261722646653652, 7160345.180262352339923 ], [ 658716.035950071411207, 7160337.011365160346031 ], [ 658740.542617678060196, 7160312.504685912281275 ], [ 658760.147947626421228, 7160273.29400322958827 ], [ 658781.387055756524205, 7160234.083320207893848 ], [ 658817.330170652363449, 7160209.576638561673462 ], [ 658851.639512190711685, 7160207.942853089421988 ], [ 658869.61107291537337, 7160211.210405861958861 ], [ 658895.751528357854113, 7160232.449517930857837 ], [ 658899.019090593559667, 7160260.223747899755836 ], [ 658903.920436189742759, 7160312.504651628434658 ], [ 658912.089339881786145, 7160372.954446045681834 ], [ 658908.821801108890213, 7160456.277138706296682 ], [ 658910.455587920732796, 7160497.121595218777657 ], [ 658912.089371281908825, 7160521.628268986940384 ], [ 658920.258267730474472, 7160547.768719661980867 ], [ 658949.666280593839474, 7160573.909165874123573 ], [ 658983.975630778237246, 7160613.119837254285812 ], [ 659019.918757769046351, 7160645.795395192690194 ], [ 659039.524098762660287, 7160658.865617271512747 ], [ 659067.298330685240217, 7160671.93583763204515 ], [ 659103.24145284795668, 7160681.738499723374844 ], [ 659168.592580283991992, 7160681.7384859835729 ], [ 659233.943708758917637, 7160686.639807062223554 ], [ 659292.759726564516313, 7160701.343799157068133 ], [ 659318.900177887058817, 7160702.977571929804981 ], [ 659356.477074434165843, 7160694.808672646060586 ], [ 659405.490420357789844, 7160696.442440598271787 ], [ 659447.96865665493533, 7160712.780214397236705 ], [ 659483.911779863527045, 7160727.484211296774447 ], [ 659536.192682855180465, 7160732.385535104200244 ], [ 659588.473584808292799, 7160732.385524081066251 ], [ 659634.219378523062915, 7160753.624632006511092 ], [ 659683.232733466778882, 7160797.736635087057948 ], [ 659706.105632928665727, 7160820.609526112675667 ], [ 659732.246088763000444, 7160843.482416443526745 ], [ 659751.851430120761506, 7160858.186416781507432 ], [ 659777.174996171845123, 7160877.791750735603273 ], [ 659798.414114328683354, 7160885.96063762716949 ], [ 659821.287011019652709, 7160895.76330244820565 ], [ 659842.526127443648875, 7160895.763297963887453 ], [ 659853.962572317803279, 7160884.326847622171044 ], [ 659865.399015110451728, 7160863.087727632373571 ], [ 659865.399005738086998, 7160818.975714208558202 ], [ 659881.736776839359663, 7160768.328584236092865 ], [ 659916.046107983682305, 7160717.68145046941936 ], [ 659948.721664410317317, 7160683.372099796310067 ], [ 659974.86210843839217, 7160650.696528779342771 ], [ 660020.607893819571473, 7160632.724958091042936 ], [ 660053.283462748629972, 7160657.231625301763415 ], [ 660077.790137622738257, 7160667.034289766103029 ], [ 660099.029254038701765, 7160667.034285271540284 ], [ 660134.972370652598329, 7160650.696494922041893 ], [ 660156.211483591701835, 7160634.358707683160901 ], [ 660187.253266339888796, 7160621.288474917411804 ], [ 660205.224826384801418, 7160621.288471112959087 ], [ 660239.534168285434134, 7160621.288463851436973 ], [ 660299.983961161109619, 7160621.288451051339507 ], [ 660317.955522596952505, 7160627.823560343123972 ], [ 660331.025750171393156, 7160637.626227222383022 ], [ 660357.166207760572433, 7160668.668008901178837 ], [ 660383.306664306437597, 7160694.808455755002797 ], [ 660411.080903568770736, 7160742.188019836321473 ], [ 660412.714686282677576, 7160763.427137061953545 ], [ 660404.545803363900632, 7160801.00403911434114 ], [ 660386.574249931494705, 7160832.045830147340894 ], [ 660383.306699478300288, 7160859.820061514154077 ], [ 660383.306705746450461, 7160889.228070467710495 ], [ 660414.348498254548758, 7160921.903629390522838 ], [ 660442.122734390897676, 7160954.579189007170498 ], [ 660478.065854495158419, 7160954.579181388020515 ], [ 660509.107639690046199, 7160952.945396529510617 ], [ 660533.614312487537973, 7160952.945391332730651 ], [ 660543.41698474471923, 7160967.649393729865551 ], [ 660546.684544951072894, 7160985.620954065583646 ], [ 660543.416992761660367, 7161005.226294061169028 ], [ 660530.346771102398634, 7161023.197857864201069 ], [ 660514.008994115050882, 7161046.070757184177637 ], [ 660502.57255482301116, 7161083.647659946233034 ], [ 660507.473897746647708, 7161122.858337519690394 ], [ 660525.44546512234956, 7161157.167677497491241 ], [ 660554.853483991697431, 7161211.082354359328747 ], [ 660572.82505485706497, 7161261.729477098211646 ], [ 660594.881070844712667, 7161310.7428206987679 ], [ 660603.04996875510551, 7161343.418384486809373 ], [ 660603.049977124202996, 7161382.629063114523888 ], [ 660611.218875036109239, 7161415.304626904428005 ], [ 660630.82422270195093, 7161459.416636204347014 ], [ 660645.528231622767635, 7161483.923307230696082 ], [ 660661.866018034517765, 7161505.16242135502398 ], [ 660692.907809881493449, 7161534.570423741824925 ], [ 660725.583379220683128, 7161560.71086923032999 ], [ 660746.822502295020968, 7161591.75265197455883 ], [ 660764.794069341383874, 7161624.428213691338897 ], [ 660782.765639183344319, 7161670.174001624807715 ], [ 660799.103428046684712, 7161702.84956369176507 ], [ 660831.779006475349888, 7161771.468244383111596 ], [ 660857.919462727382779, 7161795.974912982434034 ], [ 660893.862586713745259, 7161813.946466391906142 ], [ 660926.538155024289154, 7161835.185577049851418 ], [ 660949.411059795645997, 7161882.565142223611474 ], [ 660962.481295089470223, 7161928.310931210406125 ], [ 660975.55152374424506, 7161943.014932927675545 ], [ 661036.818212812417187, 7161975.690485445782542 ], [ 661084.197786231059581, 7162003.464706080965698 ], [ 661128.309803277021274, 7162031.238927412778139 ], [ 661175.689381951116957, 7162083.519822211936116 ], [ 661201.829838225385174, 7162108.026490812189877 ], [ 661249.209414109587669, 7162147.237159388139844 ], [ 661281.884980693575926, 7162160.307378649711609 ], [ 661314.560546227381565, 7162168.476263076066971 ], [ 661347.236110010533594, 7162168.476256111636758 ], [ 661383.179230172303505, 7162168.476248449645936 ], [ 661406.052127622882836, 7162181.546469797380269 ], [ 661437.093917775433511, 7162202.785580791532993 ], [ 661474.670823841006495, 7162238.72869489248842 ], [ 661495.909942756872624, 7162250.165138307027519 ], [ 661535.120621053734794, 7162258.334021331742406 ], [ 661572.697518006665632, 7162251.798900198191404 ], [ 661652.752644020947628, 7162227.292208936065435 ], [ 661723.00510405539535, 7162217.489524262025952 ], [ 661765.48333100497257, 7162189.715284461155534 ], [ 661809.595336142694578, 7162161.941044304519892 ], [ 661881.481574708828703, 7162153.772137546911836 ], [ 661934.57936726254411, 7162160.307239299640059 ], [ 661983.592715046135709, 7162170.109898482449353 ], [ 662024.437171888072044, 7162179.912559406831861 ], [ 662042.408736894256435, 7162202.785451452247798 ], [ 662078.351860576425679, 7162219.123226536437869 ], [ 662096.323422419140115, 7162227.292114078998566 ], [ 662120.830099834129214, 7162248.531226446852088 ], [ 662133.900331333396025, 7162276.30545437708497 ], [ 662158.407008398557082, 7162295.910788464359939 ], [ 662199.251467713620514, 7162317.149897329509258 ], [ 662244.997262303368188, 7162341.656561702489853 ], [ 662279.306608512415551, 7162361.261893686838448 ], [ 662313.615956836962141, 7162390.669895342551172 ], [ 662338.914385215612128, 7162397.569461261853576 ], [ 662349.559079123893753, 7162400.472557304427028 ], [ 662367.530640620854683, 7162407.007666563615203 ] ] ] ] } }
]
}
