{
"type": "FeatureCollection",
"name": "rio_do_despique",
"crs": { "type": "name", "properties": { "name": "urn:ogc:def:crs:EPSG::31982" } },
"features": [
{ "type": "Feature", "properties": { "AREA": 74167424.614399999, "PERIMETER": 58855.75537, "BACIAS1_": 29, "BACIAS1_ID": 0, "NOME_BACIA": "RIO DO DESPIQUE", "SUB_AREA": 74.17, "SUBCODIGO": 28, "BACCODIGO": 2, "SUBNOME": "RIO DO DESPIQUE", "SUBBAC_DAT": "2002-01-03", "SUBBAC_POP": 2283, "SUBBAC_P_1": 1517, "SUBBAC_DEN": 20.46, "SUBBAC_D_1": 30.78 }, "geometry": { "type": "MultiPolygon", "coordinates": [ [ [ [ 673728.824821052956395, 7165217.103789126500487 ], [ 673746.796387241454795, 7165243.244237560778856 ], [ 673782.7395135902334, 7165269.38468187302351 ], [ 673810.513749715639278, 7165298.792684628628194 ], [ 673854.625765916658565, 7165320.031792206689715 ], [ 673885.6675569282379, 7165342.904681069776416 ], [ 673915.075565216131508, 7165346.172230886295438 ], [ 673933.047124241711572, 7165341.270891902968287 ], [ 673965.722681369865313, 7165311.862875262275338 ], [ 673996.764463698025793, 7165297.15886356215924 ], [ 674026.172468584729359, 7165285.722408808767796 ], [ 674070.284478368586861, 7165279.187285527586937 ], [ 674094.791152821388096, 7165285.722393032163382 ], [ 674116.030270505696535, 7165290.6237230040133 ], [ 674155.240950992330909, 7165306.961496837437153 ], [ 674189.550298027344979, 7165328.200606652535498 ], [ 674228.760976626886986, 7165336.369489055126905 ], [ 674266.337874762015417, 7165334.735702123492956 ], [ 674305.548552229069173, 7165338.003249667584896 ], [ 674339.857894348562695, 7165338.003241768106818 ], [ 674390.505015026312321, 7165323.299225536175072 ], [ 674465.658815080299973, 7165336.369434504769742 ], [ 674519.573505027918145, 7165377.213879209943116 ], [ 674560.417965240078047, 7165400.086765788495541 ], [ 674607.797533692093566, 7165403.354311434552073 ], [ 674638.839319424354471, 7165403.35430427454412 ], [ 674674.782434815075248, 7165382.11517827399075 ], [ 674717.260657680453733, 7165338.003154771402478 ], [ 674728.69709936552681, 7165313.496477853506804 ], [ 674753.203763962723315, 7165277.553349924273789 ], [ 674771.17532260203734, 7165271.018232636153698 ], [ 674807.118432291434146, 7165225.272432358004153 ], [ 674831.625094227492809, 7165177.892856437712908 ], [ 674834.892639234196395, 7165128.879507137462497 ], [ 674834.892623672843911, 7165061.894597466103733 ], [ 674834.892615703400224, 7165027.585253490135074 ], [ 674838.160166022717021, 7165001.444800183176994 ], [ 674854.497943804133683, 7164983.473235281184316 ], [ 674874.103275314671919, 7164954.065221631899476 ], [ 674895.342381227295846, 7164908.319424767047167 ], [ 674923.116603711852804, 7164878.911409235559404 ], [ 674952.52460894791875, 7164869.108732732012868 ], [ 675001.537952145095915, 7164857.67227341607213 ], [ 675022.777064504101872, 7164839.700707383453846 ], [ 675047.283729452174157, 7164805.391357749700546 ], [ 675065.255281997495331, 7164772.715787915512919 ], [ 675078.325500337639824, 7164741.673997497186065 ], [ 675079.959271311992779, 7164710.632209725677967 ], [ 675079.959266750141978, 7164691.026870318688452 ], [ 675084.860595634789206, 7164666.520194929093122 ], [ 675094.663259101565927, 7164642.013518407940865 ], [ 675119.986812377814204, 7164604.436612024903297 ], [ 675142.859698738204315, 7164568.493484495207667 ], [ 675142.859690754674375, 7164534.184140542522073 ], [ 675151.028576023643836, 7164509.677464401349425 ], [ 675170.633908653748222, 7164485.170785613358021 ], [ 675185.337908979970962, 7164470.466777660883963 ], [ 675206.577019801246934, 7164445.960098497569561 ], [ 675219.647236986784264, 7164410.016973242163658 ], [ 675218.013450806494802, 7164375.707629674114287 ], [ 675214.745883768890053, 7164329.961838504299521 ], [ 675201.675651370547712, 7164300.553832435049117 ], [ 675201.675643383758143, 7164266.244488494470716 ], [ 675203.309415491647087, 7164240.104035589843988 ], [ 675213.11208009137772, 7164220.49869392812252 ], [ 675226.182301457738504, 7164202.527129793539643 ], [ 675242.520079210400581, 7164184.55556490086019 ], [ 675268.660512427799404, 7164107.767979566007853 ], [ 675298.068506213254295, 7164048.951954588294029 ], [ 675304.603606428718194, 7163995.037269758991897 ], [ 675301.336038243956864, 7163944.390143767930567 ], [ 675289.899578715325333, 7163892.109241388738155 ], [ 675294.800907586934045, 7163867.60256602242589 ], [ 675324.208910495275632, 7163847.997219827026129 ], [ 675355.250694638350978, 7163841.462099511176348 ], [ 675381.391146108158864, 7163843.095871737226844 ], [ 675409.165375770186074, 7163844.729643584229052 ], [ 675432.038275422761217, 7163865.968755950219929 ], [ 675454.911172030260786, 7163874.137642061337829 ], [ 675497.389409241150133, 7163892.109193315729499 ], [ 675534.966309968731366, 7163901.911854297854006 ], [ 675580.71209823328536, 7163897.010508842766285 ], [ 675636.260549936210737, 7163867.602486882358789 ], [ 675673.837439607130364, 7163830.025577677413821 ], [ 675691.808989812270738, 7163787.547338177450001 ], [ 675703.245428770780563, 7163751.604213323444128 ], [ 675722.850759456050582, 7163718.928643139079213 ], [ 675740.822313852375373, 7163694.42196474224329 ], [ 675762.061426922795363, 7163679.717955278232694 ], [ 675806.173434308730066, 7163663.380162220448256 ], [ 675851.919221792952158, 7163655.211260186508298 ], [ 675900.932566807372496, 7163651.943692237138748 ], [ 675915.636568632209674, 7163643.774797412566841 ], [ 675956.481016188743524, 7163612.733000571839511 ], [ 676013.663240317371674, 7163558.818303991109133 ], [ 676051.240133009967394, 7163534.311621036380529 ], [ 676079.014352723839693, 7163493.467157544568181 ], [ 676093.718350337585434, 7163467.326701626181602 ], [ 676108.422343744663522, 7163423.214684616774321 ], [ 676111.689892864320427, 7163392.172896517440677 ], [ 676108.422328833956271, 7163359.497331658378243 ], [ 676110.056104349787347, 7163348.06088331155479 ], [ 676110.056090204045177, 7163287.6110869217664 ], [ 676126.393854151014239, 7163210.82350393012166 ], [ 676172.139629749231972, 7163152.007475185208023 ], [ 676221.152963635046035, 7163101.360337086953223 ], [ 676279.968966278596781, 7163049.079418422654271 ], [ 676325.714743769029155, 7162998.432281085290015 ], [ 676346.953852980048396, 7162967.390488815493882 ], [ 676355.122733598458581, 7162923.278473351150751 ], [ 676335.517383055295795, 7162870.997572962194681 ], [ 676325.714698215946555, 7162804.012665775604546 ], [ 676293.039118707296439, 7162737.027763921767473 ], [ 676246.476424969732761, 7162671.676643583923578 ], [ 676246.476422292646021, 7162660.240195629186928 ], [ 676246.476416169898584, 7162634.099743159487844 ], [ 676261.180409549968317, 7162589.987726197578013 ], [ 676284.053298474638723, 7162565.481046682223678 ], [ 676328.165304635302164, 7162544.241918778046966 ], [ 676367.375979283708148, 7162536.073018250986934 ], [ 676395.150207752827555, 7162532.805455218069255 ], [ 676432.727099996991456, 7162506.664993995800614 ], [ 676435.994648332358338, 7162472.355649376288056 ], [ 676409.854188865516335, 7162436.412533331662416 ], [ 676367.375948652625084, 7162405.37075593136251 ], [ 676306.926148735918105, 7162375.96276099793613 ], [ 676266.081687485100701, 7162348.188539769500494 ], [ 676236.673672797973268, 7162317.146759323775768 ], [ 676215.434546768548898, 7162276.302307303063571 ], [ 676213.800754806026816, 7162217.486289657652378 ], [ 676213.800744859385304, 7162175.008054420351982 ], [ 676195.829162971233018, 7162081.882696745917201 ], [ 676164.787370108882897, 7162050.840916687622666 ], [ 676125.57668974599801, 7162034.503143032081425 ], [ 676097.802456707926467, 7162018.165366715751588 ], [ 676035.718883230234496, 7162008.362711488269269 ], [ 675998.141980297397822, 7161988.757380889728665 ], [ 675994.874417806277052, 7161962.616929203271866 ], [ 676003.043302636826411, 7161936.476474860683084 ], [ 676040.620191807392985, 7161897.265787456184626 ], [ 676099.436197429196909, 7161858.055095111951232 ], [ 676153.350871919305064, 7161833.548408402130008 ], [ 676186.026431484846398, 7161815.576839745976031 ], [ 676210.533102018176578, 7161805.774164376780391 ], [ 676243.208662729593925, 7161792.703930548392236 ], [ 676297.123337209923193, 7161768.197243832983077 ], [ 676342.869120363611728, 7161742.056780737824738 ], [ 676355.122451415518299, 7161719.183882 ], [ 676351.854877043166198, 7161642.396303733810782 ], [ 676345.319755100412294, 7161603.185626605525613 ], [ 676348.587305350461975, 7161577.045173410326242 ], [ 676377.995308524812572, 7161559.073605512268841 ], [ 676405.769536189036444, 7161552.538485932163894 ], [ 676448.247766014188528, 7161539.468249815516174 ], [ 676510.33133064256981, 7161511.694004635326564 ], [ 676543.006889036507346, 7161488.821101137436926 ], [ 676572.414886834798381, 7161447.976637359708548 ], [ 676587.118879405432381, 7161400.597063906490803 ], [ 676642.667315926868469, 7161307.471689184196293 ], [ 676667.173970712232403, 7161230.684104477055371 ], [ 676688.413072952884249, 7161170.234303302131593 ], [ 676717.821072649443522, 7161137.558730915188789 ], [ 676737.426407441147603, 7161122.8547218516469 ], [ 676763.566858435515314, 7161122.854715749621391 ], [ 676779.904643761576153, 7161137.558716418221593 ], [ 676840.354453579988331, 7161209.444946447387338 ], [ 676925.310930844512768, 7161258.458274880424142 ], [ 676977.591840142617002, 7161289.500049909576774 ], [ 677020.070075323805213, 7161299.302709633484483 ], [ 677054.379416107665747, 7161294.401366779580712 ], [ 677073.98475281894207, 7161287.866249089129269 ], [ 677087.054973321268335, 7161266.627128438092768 ], [ 677098.491413327399641, 7161235.585338513366878 ], [ 677101.758957397891209, 7161183.304432909935713 ], [ 677106.660277730436064, 7161122.854635547846556 ], [ 677106.660268502542749, 7161083.643956923857331 ], [ 677085.421140920603648, 7161036.264391893520951 ], [ 677059.280679933028296, 7160993.786162840202451 ], [ 677026.605103511596099, 7160939.871487384662032 ], [ 676993.929527094122022, 7160885.956811931915581 ], [ 676962.887724258820526, 7160812.436796797439456 ], [ 676949.817488009925, 7160766.69100814498961 ], [ 676940.014808517764322, 7160722.578997006639838 ], [ 676966.155249891337007, 7160681.73453401774168 ], [ 677039.675253662513569, 7160619.650942374020815 ], [ 677113.195258958265185, 7160564.102463828399777 ], [ 677186.715265012346208, 7160511.821541830897331 ], [ 677211.221930103958584, 7160479.145970599725842 ], [ 677227.559702341677621, 7160438.301509910263121 ], [ 677232.461031509679742, 7160415.428612921386957 ], [ 677232.461027277051471, 7160397.45705190114677 ], [ 677224.292127113323659, 7160358.246375230140984 ], [ 677214.489451844012365, 7160332.105925135314465 ], [ 677193.250333124538884, 7160322.303260463289917 ], [ 677168.743658421095461, 7160314.134374829009175 ], [ 677139.335649930173531, 7160309.233046889305115 ], [ 677116.462751873303205, 7160294.529047774150968 ], [ 677096.857407882111147, 7160270.02237824909389 ], [ 677073.984506367938593, 7160240.614374665543437 ], [ 677051.11160639161244, 7160217.741484181955457 ], [ 677024.971149278455414, 7160191.601037911139429 ], [ 676993.929361071554013, 7160180.164597254246473 ], [ 676956.352457434637472, 7160157.291710205376148 ], [ 676917.141776384785771, 7160137.686380084604025 ], [ 676900.803992614615709, 7160129.517492532730103 ], [ 676887.733764061238617, 7160116.44726939778775 ], [ 676882.832426434149966, 7160103.377044353634119 ], [ 676874.663529750076123, 7160078.870372155681252 ], [ 676882.015521210152656, 7160034.758357049897313 ], [ 676888.550627035787329, 7160005.35034659691155 ], [ 676891.818174571264535, 7159967.773445542901754 ], [ 676896.71949606470298, 7159912.224983101710677 ], [ 676929.395048612030223, 7159864.845405537635088 ], [ 676953.901709467871115, 7159814.198273339308798 ], [ 677007.816379170399159, 7159770.086247358471155 ], [ 677025.78793073981069, 7159734.143121149390936 ], [ 677027.421702389605343, 7159706.368890127167106 ], [ 677017.619027134263888, 7159680.228440053761005 ], [ 677006.18257600243669, 7159663.890660002827644 ], [ 676983.309674894204363, 7159636.116434713825583 ], [ 676984.943444238975644, 7159598.539534056559205 ], [ 676989.844769565854222, 7159559.328854369930923 ], [ 676986.577202822430991, 7159515.216841774061322 ], [ 676968.60563588514924, 7159485.808837072923779 ], [ 676944.098950067069381, 7159430.260381544008851 ], [ 676921.226042051799595, 7159373.078147361055017 ], [ 676909.789585549151525, 7159333.867471504956484 ], [ 676932.662469357484952, 7159288.121674541383982 ], [ 676952.267802175367251, 7159265.248774150386453 ], [ 676980.042027827817947, 7159250.544763209298253 ], [ 677027.421592831262387, 7159240.74208249617368 ], [ 677051.928263269830495, 7159230.93940713070333 ], [ 677087.871379065793008, 7159212.967837732285261 ], [ 677148.32116221904289, 7159172.123366791754961 ], [ 677171.194047545781359, 7159132.912682915106416 ], [ 677174.461593138286844, 7159087.166890546679497 ], [ 677174.461582750431262, 7159043.054877215996385 ], [ 677171.19401907583233, 7159012.013090822845697 ], [ 677161.391344594070688, 7158989.14019731990993 ], [ 677122.180661291000433, 7158959.732197615318 ], [ 677096.040203449199907, 7158930.32419485040009 ], [ 677086.237530508777127, 7158913.98641443066299 ], [ 677087.871305616339669, 7158900.916187879629433 ], [ 677096.040194605127908, 7158892.74729461222887 ], [ 677107.476640342501923, 7158886.212178852409124 ], [ 677128.715754788601771, 7158878.043282524682581 ], [ 677149.954870388144627, 7158874.77572101354599 ], [ 677198.968213161919266, 7158863.339261640794575 ], [ 677234.911333171417937, 7158863.339253224432468 ], [ 677265.953117862110958, 7158860.071689411066473 ], [ 677306.797567027970217, 7158837.198784049600363 ], [ 677324.7691235645907, 7158822.494775398634374 ], [ 677332.938007929478772, 7158794.720542879775167 ], [ 677331.304225896252319, 7158778.382760553620756 ], [ 677331.304220889811404, 7158757.14364302996546 ], [ 677319.867762449430302, 7158709.764075859449804 ], [ 677319.867751667159609, 7158664.018284281715751 ], [ 677329.67041190143209, 7158626.441381761804223 ], [ 677334.57173913018778, 7158595.399593473412097 ], [ 677332.937955941073596, 7158574.160476338118315 ], [ 677321.501503279199824, 7158551.28758323378861 ], [ 677313.332602360518649, 7158508.809350118041039 ], [ 677308.431254724040627, 7158453.260890079662204 ], [ 677303.529910938814282, 7158414.050212746486068 ], [ 677305.163679493707605, 7158373.205755611881614 ], [ 677334.571673276019283, 7158316.02350927516818 ], [ 677372.148549483739771, 7158222.898139091208577 ], [ 677404.824102312442847, 7158177.152339884079993 ], [ 677421.161874873214401, 7158137.941657586023211 ], [ 677470.175209115375765, 7158090.562076279893517 ], [ 677513.47031663544476, 7158030.112270160578191 ], [ 677528.174312548479065, 7157997.436701329424977 ], [ 677549.413418868556619, 7157954.958461348898709 ], [ 677557.582299743546173, 7157912.480224437080324 ], [ 677552.680952865164727, 7157860.199320985004306 ], [ 677552.680937054101378, 7157793.214411964640021 ], [ 677552.680925871944055, 7157745.83484216965735 ], [ 677560.849803660064936, 7157690.286379123106599 ], [ 677559.216014683712274, 7157644.540587989613414 ], [ 677544.512003740295768, 7157613.498804342932999 ], [ 677508.568878394318745, 7157590.625917017459869 ], [ 677467.724417740479112, 7157564.485474305227399 ], [ 677457.92174481053371, 7157548.147693922743201 ], [ 677446.485290233278647, 7157517.105909509584308 ], [ 677446.48528252588585, 7157484.430344147607684 ], [ 677448.1190549232997, 7157459.923669744282961 ], [ 677449.752826166106388, 7157430.515660539269447 ], [ 677459.55549254314974, 7157419.079210365191102 ], [ 677474.25949384260457, 7157409.276537309400737 ], [ 677511.836387334857136, 7157389.671189281158149 ], [ 677537.159939855104312, 7157350.46050491463393 ], [ 677553.497711233678274, 7157306.348487852141261 ], [ 677584.539490075083449, 7157278.574250020086765 ], [ 677610.679933606996201, 7157247.532456800341606 ], [ 677625.383929884876125, 7157216.490666268393397 ], [ 677623.750144762219861, 7157187.082657837308943 ], [ 677610.679912776686251, 7157159.308430360630155 ], [ 677604.144790419377387, 7157118.463975213468075 ], [ 677607.412337518413551, 7157079.253296033479273 ], [ 677627.017667942913249, 7157046.577726089395583 ], [ 677646.6229999094503, 7157020.437269216403365 ], [ 677664.594554852927104, 7156999.198147523216903 ], [ 677674.397221606574021, 7156989.395475621335208 ], [ 677690.735003388836049, 7156989.395471783354878 ], [ 677711.974119704565965, 7156989.395466796122491 ], [ 677729.945679664844647, 7156989.395462575368583 ], [ 677733.213234863127582, 7156984.494127007201314 ], [ 677733.213232547626831, 7156974.691457405686378 ], [ 677720.143005191581324, 7156966.522569140419364 ], [ 677703.80522109568119, 7156956.719903377816081 ], [ 677677.664766000118107, 7156938.748348577879369 ], [ 677666.228311036480591, 7156906.072785928845406 ], [ 677659.693189835990779, 7156870.12966559547931 ], [ 677651.524284284794703, 7156808.046093381941319 ], [ 677643.35538297961466, 7156763.934082103893161 ], [ 677623.750040217651986, 7156744.328747506253421 ], [ 677596.792684086132795, 7156675.710066651925445 ], [ 677588.623790112091228, 7156662.639842436648905 ], [ 677555.948214995441958, 7156613.626502119004726 ], [ 677508.568638600292616, 7156574.415834849700332 ], [ 677490.597067855298519, 7156528.670047618448734 ], [ 677466.090384790906683, 7156484.558040185831487 ], [ 677461.1890344574349, 7156417.573132440447807 ], [ 677459.555244716699235, 7156368.559784855693579 ], [ 677459.555231612175703, 7156313.01132382825017 ], [ 677456.287668706499971, 7156285.237094081938267 ], [ 677456.287655217223801, 7156228.054854794405401 ], [ 677453.020091540063731, 7156197.013068519532681 ], [ 677435.048524663434364, 7156167.605063961818814 ], [ 677428.513403864577413, 7156133.295721927657723 ], [ 677428.513396927970462, 7156103.887713157571852 ], [ 677433.414727217168547, 7156085.916151092387736 ], [ 677464.456503699882887, 7156048.339243721216917 ], [ 677462.822719356860034, 7156022.198791865259409 ], [ 677453.836929752258584, 7155981.35433735512197 ], [ 677440.766692011267878, 7155929.073435949161649 ], [ 677401.555998066090979, 7155853.91964497603476 ], [ 677347.641294000204653, 7155750.991626963019371 ], [ 677306.796826905221678, 7155697.076953815296292 ], [ 677282.290147729218006, 7155669.302729070186615 ], [ 677254.515912974951789, 7155644.796061615459621 ], [ 677238.178126216749661, 7155623.556948013603687 ], [ 677231.643007357371971, 7155597.41649732273072 ], [ 677231.643000813317485, 7155569.64226683601737 ], [ 677233.27677128824871, 7155536.966701177880168 ], [ 677228.375432144617662, 7155517.361363161355257 ], [ 677228.375426754704677, 7155494.48846746981144 ], [ 677233.276746652205475, 7155432.40489230491221 ], [ 677234.910514817340299, 7155389.926657072268426 ], [ 677257.783400021144189, 7155350.715973393060267 ], [ 677277.388731184531935, 7155321.30796005949378 ], [ 677288.82516877958551, 7155280.463500798679888 ], [ 677293.726495215669274, 7155246.154156124219298 ], [ 677282.290041448315606, 7155218.379928330890834 ], [ 677264.318474215455353, 7155187.338145545683801 ], [ 677252.882020450779237, 7155159.563917756080627 ], [ 677257.783347657765262, 7155128.5221296120435 ], [ 677270.853566889418289, 7155102.381674342788756 ], [ 677288.825122952694073, 7155086.043887505307794 ], [ 677314.965566804283299, 7155056.635872650891542 ], [ 677324.768228530767374, 7155025.594083363190293 ], [ 677324.768220826052129, 7154992.918518110178411 ], [ 677318.233090798486955, 7154919.398497831076384 ], [ 677318.233081554761156, 7154880.187819534912705 ], [ 677298.627730377367698, 7154824.639363212510943 ], [ 677298.627721905941144, 7154788.696241445839405 ], [ 677300.261491605895571, 7154752.753119298256934 ], [ 677303.529042559908703, 7154729.880222864449024 ], [ 677306.79659466969315, 7154711.908661216497421 ], [ 677328.035706684575416, 7154693.937095358967781 ], [ 677344.37348340859171, 7154672.697974123992026 ], [ 677354.176145513076335, 7154643.289963115006685 ], [ 677383.584138756501488, 7154584.473938796669245 ], [ 677421.1610274851555, 7154545.263251706957817 ], [ 677484.878366586752236, 7154504.418780224397779 ], [ 677527.356591751449741, 7154473.376983292400837 ], [ 677553.497034029103816, 7154437.433855406939983 ], [ 677569.834802641300485, 7154381.885390689596534 ], [ 677571.468574255821295, 7154354.111159864813089 ], [ 677569.834786826046184, 7154314.900481980293989 ], [ 677530.624094107770361, 7154244.648025961592793 ], [ 677509.384970927610993, 7154215.240022249519825 ], [ 677509.384965529781766, 7154192.367126598022878 ], [ 677525.722741851583123, 7154169.494227113202214 ], [ 677533.891630011727102, 7154158.057777371257544 ], [ 677520.821394609287381, 7154115.579545659944415 ], [ 677504.483605950605124, 7154086.171540804207325 ], [ 677488.145813821349293, 7154042.059531601145864 ], [ 677478.343140935525298, 7154025.721751298755407 ], [ 677391.752893210272305, 7154006.11643248051405 ], [ 677337.838211619178765, 7153997.947553817182779 ], [ 677310.063981544692069, 7153993.046225547790527 ], [ 677288.824862232431769, 7153979.976004442200065 ], [ 677290.45863886422012, 7153973.440891016274691 ], [ 677326.401754787308164, 7153957.10309999063611 ], [ 677347.640867935144342, 7153944.032868929207325 ], [ 677365.612427822197787, 7153944.03286471683532 ], [ 677393.386658280040137, 7153950.567971247248352 ], [ 677424.428447778802365, 7153968.539524830877781 ], [ 677463.639123897184618, 7153968.539515633136034 ], [ 677504.483577801845968, 7153966.905727790668607 ], [ 677542.877367148641497, 7153976.70838834438473 ], [ 677588.62315325147938, 7153965.271929785609245 ], [ 677616.397377539426088, 7153945.666584140621126 ], [ 677662.143161711050197, 7153926.061234278604388 ], [ 677719.325392309343442, 7153903.188325204886496 ], [ 677761.803619746235199, 7153881.94919784553349 ], [ 677783.042729410575703, 7153854.174962431192398 ], [ 677830.422285947715864, 7153810.062938275747001 ], [ 677856.562727801967412, 7153772.486032152548432 ], [ 677881.069395346217789, 7153751.246909011155367 ], [ 677928.448959216708317, 7153738.176671791821718 ], [ 677959.490743695409037, 7153734.909107971936464 ], [ 678011.771648263209499, 7153747.97932174988091 ], [ 678059.151222961721942, 7153780.654875796288252 ], [ 678083.657901332131587, 7153805.161543928086758 ], [ 678137.572586400900036, 7153828.034426876343787 ], [ 678162.07926322799176, 7153846.005981963127851 ], [ 678184.952157626859844, 7153846.00597657635808 ], [ 678214.36016355000902, 7153841.104634870775044 ], [ 678235.599276678403839, 7153828.034403787925839 ], [ 678235.599271644838154, 7153806.795286405831575 ], [ 678214.360148063511588, 7153775.753504472784698 ], [ 678201.28991572605446, 7153746.345498872920871 ], [ 678199.656133296783082, 7153728.373938400298357 ], [ 678199.656129813054577, 7153713.669934063218534 ], [ 678202.923682670574635, 7153698.965928955003619 ], [ 678209.458793807192706, 7153692.430814377963543 ], [ 678220.895239067263901, 7153684.261920383200049 ], [ 678233.965462499647401, 7153676.0930260065943 ], [ 678275.626802373444661, 7153661.389011854305863 ], [ 678285.429465977591462, 7153638.516113908961415 ], [ 678290.330794680630788, 7153614.00943886116147 ], [ 678288.697011087322608, 7153591.136543611064553 ], [ 678288.697002953384072, 7153556.827200163155794 ], [ 678288.696992496028543, 7153512.715187160298228 ], [ 678308.302324346383102, 7153486.574730392545462 ], [ 678326.273879572399892, 7153466.969387043267488 ], [ 678362.216995836817659, 7153452.265374236740172 ], [ 678389.991220861207694, 7153435.927585097029805 ], [ 678414.497891479171813, 7153427.758688022382557 ], [ 678437.370782765094191, 7153414.68845655489713 ], [ 678465.145009722560644, 7153406.519558706320822 ], [ 678488.01790216891095, 7153398.350662015378475 ], [ 678517.425907296943478, 7153390.181763781234622 ], [ 678540.298795863986015, 7153365.675084499642253 ], [ 678556.636571359820664, 7153339.534628497436643 ], [ 678559.904121882980689, 7153315.027953843586147 ], [ 678556.636558947502635, 7153287.253724213689566 ], [ 678543.566327768843621, 7153262.747053418308496 ], [ 678527.228539085830562, 7153233.339048616588116 ], [ 678497.820524271577597, 7153200.663490381091833 ], [ 678491.285406938521191, 7153181.058152819052339 ], [ 678491.285401897504926, 7153159.819035459309816 ], [ 678494.552952421014197, 7153135.312360809184611 ], [ 678519.059620702057146, 7153117.340794184245169 ], [ 678535.397395417094231, 7153087.932781677693129 ], [ 678543.566279285121709, 7153058.524771097116172 ], [ 678537.031162727740593, 7153042.18699005804956 ], [ 678520.693374826223589, 7153016.046541780233383 ], [ 678495.369803504203446, 7152975.202091300860047 ], [ 678462.694223831640556, 7152906.583412170410156 ], [ 678423.483534976257943, 7152852.668738908134401 ], [ 678387.540404403232969, 7152806.922956164926291 ], [ 678353.231055877869949, 7152777.514955615624785 ], [ 678331.991933094104752, 7152749.740730242803693 ], [ 678322.189257495105267, 7152721.966502174735069 ], [ 678322.189246647758409, 7152676.220710961148143 ], [ 678304.217668584780768, 7152599.433137101121247 ], [ 678304.217658512992784, 7152556.954902410507202 ], [ 678302.583870660862885, 7152516.110446367412806 ], [ 678314.020300794043578, 7152444.224200360476971 ], [ 678335.259406521334313, 7152400.112182416021824 ], [ 678345.062066231621429, 7152360.901501942425966 ], [ 678343.428281476488337, 7152333.12727196328342 ], [ 678327.090494372649118, 7152310.254380218684673 ], [ 678309.118926389026456, 7152275.945041066035628 ], [ 678310.752694097114727, 7152231.833027753978968 ], [ 678315.65401775308419, 7152186.087235418148339 ], [ 678315.654010005411692, 7152153.411670289933681 ], [ 678320.55533520958852, 7152114.200990984216332 ], [ 678340.160666247247718, 7152084.792977750301361 ], [ 678340.160660435096361, 7152060.286303907632828 ], [ 678340.160653459257446, 7152030.878295296803117 ], [ 678338.526867931592278, 7151999.836508819833398 ], [ 678330.357966633979231, 7151955.724497832357883 ], [ 678345.061964327120222, 7151931.217820528894663 ], [ 678394.075301590608433, 7151898.542243855074048 ], [ 678430.018417003797367, 7151880.570674564689398 ], [ 678464.327758512226865, 7151880.570666471496224 ], [ 678497.00332534359768, 7151895.274663063697517 ], [ 678528.045110518345609, 7151895.274655738845468 ], [ 678565.62200681027025, 7151888.739533845335245 ], [ 678604.832679327228107, 7151874.035520289093256 ], [ 678629.339349891874008, 7151865.866623222827911 ], [ 678655.479799400782213, 7151860.965282282792032 ], [ 678662.014909352525137, 7151849.528832947835326 ], [ 678660.38112497376278, 7151823.388381242752075 ], [ 678645.677112157456577, 7151784.177706582471728 ], [ 678640.775770669104531, 7151754.769699141383171 ], [ 678637.508208903716877, 7151731.896804336458445 ], [ 678650.578428025357425, 7151705.756349163129926 ], [ 678671.817539924755692, 7151687.784783337265253 ], [ 678693.05665104277432, 7151666.545661002397537 ], [ 678706.126869774190709, 7151638.771427575498819 ], [ 678719.197084623505361, 7151594.65941159799695 ], [ 678732.267305683344603, 7151576.687847703695297 ], [ 678760.041529074311256, 7151553.814945569261909 ], [ 678773.111748579773121, 7151529.308268655091524 ], [ 678776.379297921201214, 7151499.900259295478463 ], [ 678776.379290928132832, 7151470.492250705137849 ], [ 678776.379282383131795, 7151434.549129100516438 ], [ 678778.013053557602689, 7151405.141120128333569 ], [ 678800.885940502164885, 7151374.099327883683145 ], [ 678830.29393233533483, 7151310.381969003006816 ], [ 678866.237034496269189, 7151236.861939056776464 ], [ 678903.813916370389052, 7151169.877021744847298 ], [ 678921.785464917076752, 7151122.497448122128844 ], [ 678923.419233364053071, 7151081.652991387993097 ], [ 678915.25033709523268, 7151058.780097763054073 ], [ 678902.18010516546201, 7151031.005870538763702 ], [ 678879.307205021614209, 7151006.499202139675617 ], [ 678869.504530590493232, 7150983.626308904960752 ], [ 678862.969410545192659, 7150952.584523629397154 ], [ 678871.13829476328101, 7150924.810291385278106 ], [ 678898.912518126540817, 7150901.937389266677201 ], [ 678946.292077912483364, 7150872.529369493946433 ], [ 678980.601408097310923, 7150825.149792026728392 ], [ 679001.840515682124533, 7150789.206665426492691 ], [ 679052.48762167012319, 7150717.320410293526947 ], [ 679068.825397868873551, 7150694.44751088321209 ], [ 679091.698286334285513, 7150669.940831668674946 ], [ 679130.908956831553951, 7150647.067926840856671 ], [ 679161.95073884120211, 7150633.997693464159966 ], [ 679196.260074063320644, 7150607.857233289629221 ], [ 679222.400519631104544, 7150586.618109807372093 ], [ 679246.646683704224415, 7150576.22688926383853 ], [ 679175.878776251571253, 7150514.692420419305563 ], [ 679145.94875724427402, 7150461.482413366436958 ], [ 679106.048737716395408, 7150414.922410446219146 ], [ 679056.158707371214405, 7150331.78240017965436 ], [ 679002.948688212549314, 7150298.522403938695788 ], [ 678966.368663071189076, 7150225.36239317804575 ], [ 678939.758643997367471, 7150168.822384471073747 ], [ 678949.738631065003574, 7150105.63236534781754 ], [ 678966.368626659386791, 7150072.382352594286203 ], [ 678989.648619693471119, 7150022.492333857342601 ], [ 679002.948609040118754, 7149965.962315726093948 ], [ 678999.618590127909556, 7149889.472296245396137 ], [ 678956.388558063888922, 7149793.022280926816165 ], [ 678943.088530729175545, 7149689.932256781496108 ], [ 678936.438507167622447, 7149596.812233716249466 ], [ 678916.478495055809617, 7149563.552229639142752 ], [ 678856.618473768001422, 7149526.972234121523798 ], [ 678839.988466316950507, 7149510.342233658768237 ], [ 678766.828443822334521, 7149480.412243040278554 ], [ 678687.008419147226959, 7149447.162253112532198 ], [ 678633.913383906707168, 7149425.971007789485157 ], [ 678615.244264539564028, 7149395.421554367057979 ], [ 678618.638640897814184, 7149363.174903629347682 ], [ 678635.610548092285171, 7149308.864752368070185 ], [ 678632.216154798865318, 7149269.829334834590554 ], [ 678593.898337967810221, 7149187.762206582352519 ], [ 678553.988313798326999, 7149121.242198447696865 ], [ 678514.078291218727827, 7149061.38219207432121 ], [ 678494.12827519478742, 7149011.502183625474572 ], [ 678476.074412975111045, 7148945.665680373087525 ], [ 678457.405287987086922, 7148891.355537556111813 ], [ 678437.038972201873548, 7148842.13697144575417 ], [ 678425.158619683934376, 7148806.495940133929253 ], [ 678382.728811419685371, 7148772.5521081360057 ], [ 678184.838148126727901, 7148748.772187311202288 ], [ 678114.998124063480645, 7148708.86219325195998 ], [ 678051.818091162596829, 7148625.722186239436269 ], [ 677991.948059754795395, 7148545.91217933036387 ], [ 677945.388027988257818, 7148452.792165791615844 ], [ 677922.118005814845674, 7148379.622152027674019 ], [ 677902.15797882899642, 7148283.182131376117468 ], [ 677848.947941769263707, 7148173.432115061208606 ], [ 677799.067911712219939, 7148090.292104962281883 ], [ 677745.857883330783807, 7148017.13209826964885 ], [ 677719.247865997254848, 7147967.242091435939074 ], [ 677689.317832258879207, 7147850.852067943662405 ], [ 677647.844436790561303, 7147777.997710958123207 ], [ 677610.506198622751981, 7147718.595996296033263 ], [ 677569.773582060472108, 7147682.954971805214882 ], [ 677486.611156942206435, 7147611.672923220321536 ], [ 677372.899282548227347, 7147569.24314745888114 ], [ 677274.462142220349051, 7147552.27124956343323 ], [ 677187.905351134366356, 7147557.36284614354372 ], [ 677091.165403217077255, 7147542.088139926083386 ], [ 677010.887619131011888, 7147544.892146897502244 ], [ 676931.067601781105623, 7147541.562164705246687 ], [ 676808.01757389458362, 7147531.582190873101354 ], [ 676761.457557195564732, 7147501.652193926274776 ], [ 676738.177542983321473, 7147461.752188924700022 ], [ 676688.297514659818262, 7147385.262180572375655 ], [ 676635.087481746682897, 7147292.142168655060232 ], [ 676608.47746138763614, 7147228.952158355154097 ], [ 676588.527429133304395, 7147109.232131739147007 ], [ 676595.177411759039387, 7147029.412109345197678 ], [ 676591.8573954468593, 7146962.902092762291431 ], [ 676570.127302440349013, 7146881.880536112934351 ], [ 676525.337345769978128, 7146809.922068385407329 ], [ 676535.31733299116604, 7146746.732049582526088 ], [ 676541.967321868287399, 7146693.52203416172415 ], [ 676531.987310435506515, 7146653.612026094458997 ], [ 676488.75729136611335, 7146610.382024921476841 ], [ 676435.54726477782242, 7146543.87202001735568 ], [ 676412.267248269286938, 7146493.982012460008264 ], [ 676405.617234411067329, 7146440.772000159136951 ], [ 676405.617218022351153, 7146370.931981988251209 ], [ 676425.567182326572947, 7146201.331933230161667 ], [ 676451.323668938945048, 7146058.742397726513445 ], [ 676481.873101867851801, 7145960.305249143391848 ], [ 676507.330967550282367, 7145899.206327822990716 ], [ 676542.971988826524466, 7145853.382132971659303 ], [ 676563.338286070036702, 7145824.529862623661757 ], [ 676582.007392107625492, 7145799.07197686098516 ], [ 676609.162460944382474, 7145785.494433769956231 ], [ 676619.345609763870016, 7145771.916894644498825 ], [ 676617.648414173163474, 7145756.64216619823128 ], [ 676576.915800156421028, 7145731.184294312261045 ], [ 676537.880382527015172, 7145724.395535051822662 ], [ 676498.84496490098536, 7145717.60677579138428 ], [ 676458.112344913301058, 7145666.69102249853313 ], [ 676427.562870167661458, 7145586.923001248389482 ], [ 676346.097637389437295, 7145515.640952346846461 ], [ 676266.32958946377039, 7145413.809445379301906 ], [ 676222.202595454989932, 7145405.323495201766491 ], [ 676161.103678257321008, 7145383.260012237355113 ], [ 676045.694614261388779, 7145349.316197263076901 ], [ 675974.412548647378571, 7145342.527445487678051 ], [ 675923.396874296711758, 7145326.681823400780559 ], [ 675913.416866029845551, 7145300.081818841397762 ], [ 675918.872089765733108, 7145290.991596026346087 ], [ 675902.562049803556874, 7145286.642255865037441 ], [ 675861.717597895185463, 7145294.811156572774053 ], [ 675837.210930192144588, 7145314.416501168161631 ], [ 675812.704264779575169, 7145343.824515208601952 ], [ 675798.000268664443865, 7145374.866305213421583 ], [ 675789.831387070356868, 7145414.076984906569123 ], [ 675788.197615412529558, 7145441.851215392351151 ], [ 675788.197621525265276, 7145467.991667253896594 ], [ 675796.366524136159569, 7145518.638790847733617 ], [ 675780.028755213017575, 7145572.553476622328162 ], [ 675760.423426541266963, 7145611.764158984646201 ], [ 675732.649207864538766, 7145654.242399729788303 ], [ 675704.874983455985785, 7145672.213966846466064 ], [ 675677.100757136708125, 7145682.01664275303483 ], [ 675647.692754191695713, 7145698.354432006366551 ], [ 675631.354982198914513, 7145739.19889185205102 ], [ 675619.918544665677473, 7145780.043350564315915 ], [ 675619.918551154434681, 7145807.817580685019493 ], [ 675616.651005153078586, 7145851.929593985900283 ], [ 675622.369243959779851, 7145917.280722357332706 ], [ 675624.003035092493519, 7145972.829182228073478 ], [ 675624.003041581367142, 7146000.603412354364991 ], [ 675630.538161069503985, 7146030.011419205926359 ], [ 675651.777289291494526, 7146082.292318044230342 ], [ 675651.777297691907734, 7146118.235439387150109 ], [ 675648.509755508275703, 7146178.685235141776502 ], [ 675648.509763907059096, 7146214.62835649214685 ], [ 675656.678664988139644, 7146258.740367161110044 ], [ 675668.11512008914724, 7146293.049707615748048 ], [ 675676.28401468147058, 7146309.387488149106503 ], [ 675681.185354493092746, 7146332.260382421314716 ], [ 675681.185359837720171, 7146355.133277829736471 ], [ 675679.55158511956688, 7146369.837282401509583 ], [ 675669.748919624718837, 7146384.541288869455457 ], [ 675648.509803228080273, 7146382.907515560276806 ], [ 675630.538237795815803, 7146358.40084608271718 ], [ 675625.636898368131369, 7146337.16173005476594 ], [ 675606.03155516658444, 7146314.288839199580252 ], [ 675591.327549481531605, 7146304.486173154786229 ], [ 675570.088433086173609, 7146302.852399842813611 ], [ 675552.116877960157581, 7146322.457742935977876 ], [ 675525.976431677583605, 7146340.42930968105793 ], [ 675508.004871972254477, 7146340.429313853383064 ], [ 675488.399531824165024, 7146330.62664894387126 ], [ 675470.427967925439589, 7146312.655092435888946 ], [ 675441.01995465438813, 7146284.880869120359421 ], [ 675372.401261096354574, 7146237.501315983012319 ], [ 675320.120357857667841, 7146227.698658647015691 ], [ 675285.811017369967885, 7146230.966223087161779 ], [ 675266.205683322274126, 7146247.304010067135096 ], [ 675251.501687166281044, 7146278.345800098031759 ], [ 675228.628799854312092, 7146307.753813778050244 ], [ 675173.080350963631645, 7146343.696948003023863 ], [ 675148.573683587834239, 7146364.936070846393704 ], [ 675089.757677997578867, 7146399.245427582412958 ], [ 675029.307887019705959, 7146402.512998064979911 ], [ 674993.364770269719884, 7146413.949454087764025 ], [ 674980.294549591839314, 7146433.554796036332846 ], [ 674977.026999366469681, 7146459.695248691365123 ], [ 674975.393230718560517, 7146500.539705163799226 ], [ 674960.689235686440952, 7146536.482829932123423 ], [ 674935.36568302102387, 7146574.059735401533544 ], [ 674935.365687584970146, 7146593.665074331685901 ], [ 674943.534592430805787, 7146654.114867469295859 ], [ 674948.435943627962843, 7146726.001109084114432 ], [ 674940.267072238726541, 7146809.323801437392831 ], [ 674943.534648703411222, 7146895.91404764726758 ], [ 674953.337330186273903, 7146949.828727455809712 ], [ 674964.773787166923285, 7146992.306959177367389 ], [ 674982.745358297019266, 7147041.320302365347743 ], [ 675000.716928667970933, 7147087.066089069470763 ], [ 675000.716935893986374, 7147118.107875725254416 ], [ 674984.379157749703154, 7147132.811883714050055 ], [ 674963.14004057215061, 7147127.910553894005716 ], [ 674935.365806966670789, 7147106.67144313082099 ], [ 674909.225350377848372, 7147080.530997255817056 ], [ 674873.282223330694251, 7147047.85544066876173 ], [ 674838.972877105232328, 7147026.616331415250897 ], [ 674814.466203998192213, 7147023.348780592903495 ], [ 674803.029755003284663, 7147015.179892010986805 ], [ 674773.62174021138344, 7146980.870555665344 ], [ 674755.65018352959305, 7146993.940785778686404 ], [ 674740.946187717607245, 7147026.616354073397815 ], [ 674736.044864260591567, 7147073.995924312621355 ], [ 674727.875981831806712, 7147109.939047591760755 ], [ 674737.678659506840631, 7147147.51594496704638 ], [ 674760.55155863869004, 7147168.75505687110126 ], [ 674786.692014084779657, 7147189.994168017059565 ], [ 674812.01559185248334, 7147260.24662671610713 ], [ 674833.254717771778814, 7147302.724856192246079 ], [ 674861.028962022275664, 7147369.709757841192186 ], [ 674865.930301814572886, 7147392.582652147859335 ], [ 674851.226304479758255, 7147418.723107480444014 ], [ 674841.423640096094459, 7147438.328448697924614 ], [ 674813.649419398978353, 7147472.637798282317817 ], [ 674795.677860805997625, 7147477.539137174375355 ], [ 674766.269853592384607, 7147475.905365725979209 ], [ 674748.298291960498318, 7147467.7364786490798 ], [ 674717.25650697061792, 7147467.736485822126269 ], [ 674674.778271841583773, 7147454.666269667446613 ], [ 674630.666257796110585, 7147438.328497395850718 ], [ 674602.892026844667271, 7147428.525834335014224 ], [ 674589.821802723687142, 7147433.427172088995576 ], [ 674588.188026463496499, 7147441.596063694916666 ], [ 674588.188029878190719, 7147456.300067910924554 ], [ 674589.821813727146946, 7147480.806741220876575 ], [ 674596.356935463729315, 7147520.017417615279555 ], [ 674588.188048470532522, 7147536.355201963335276 ], [ 674571.850273343967274, 7147564.129435919225216 ], [ 674552.244942280929536, 7147593.537448876537383 ], [ 674527.738274087081663, 7147611.509015239775181 ], [ 674516.301829259376973, 7147621.311687357723713 ], [ 674508.132943021249957, 7147640.917028199881315 ], [ 674516.3018398770364, 7147667.057478255592287 ], [ 674527.738292293506674, 7147689.930371062830091 ], [ 674550.611194090684876, 7147722.605930717661977 ], [ 674570.216538815526292, 7147752.013934629037976 ], [ 674580.019218007102609, 7147796.125945022329688 ], [ 674606.159685613936745, 7147869.645960090681911 ], [ 674632.300143736414611, 7147902.321518993005157 ], [ 674671.5108248507604, 7147925.19440539367497 ], [ 674700.918835877906531, 7147943.165959319099784 ], [ 674704.186397511162795, 7147966.038854019716382 ], [ 674692.749954956816509, 7147985.644195629283786 ], [ 674664.975730437086895, 7148003.615762760862708 ], [ 674620.863725468050689, 7148026.488668408244848 ], [ 674586.554390208097175, 7148052.629128284752369 ], [ 674568.582832358428277, 7148060.798023669049144 ], [ 674548.977497868007049, 7148075.502032419666648 ], [ 674537.541054929490201, 7148093.473595779389143 ], [ 674539.174834984587505, 7148101.64248663932085 ], [ 674545.709953309502453, 7148126.149158840999007 ], [ 674563.681519506382756, 7148153.923384898342192 ], [ 674581.653086083591916, 7148183.331389203667641 ], [ 674586.554428148898296, 7148216.006953025236726 ], [ 674584.920655300258659, 7148238.8798488676548 ], [ 674584.920659474446438, 7148256.851409592665732 ], [ 674578.385551768820733, 7148278.090528321452439 ], [ 674566.949107310269028, 7148289.526978695765138 ], [ 674534.273550952086225, 7148318.934994696639478 ], [ 674522.837108768522739, 7148340.174114558845758 ], [ 674504.865557358949445, 7148376.117240158841014 ], [ 674491.795339289819822, 7148407.159029886126518 ], [ 674493.429121239925735, 7148423.496811991557479 ], [ 674506.49935258354526, 7148449.637260943651199 ], [ 674531.006034457823262, 7148490.481711491942406 ], [ 674563.681616998626851, 7148573.804394610226154 ], [ 674563.681622309261002, 7148596.677290089428425 ], [ 674571.850521833868697, 7148634.254187919199467 ], [ 674606.159876852994785, 7148693.070196947082877 ], [ 674612.694997460581362, 7148727.37953865993768 ], [ 674625.765232228906825, 7148768.223991859704256 ], [ 674624.131460899487138, 7148797.632000717334449 ], [ 674620.863911789143458, 7148828.673788201063871 ], [ 674609.427476808195934, 7148880.954694809392095 ], [ 674609.427490088506602, 7148938.136933527886868 ], [ 674601.258611426223069, 7148990.417839390225708 ], [ 674573.484399385517463, 7149062.304088775068521 ], [ 674580.019521134905517, 7149101.514765251427889 ], [ 674602.892424113349989, 7149139.091659711673856 ], [ 674614.328878070460632, 7149168.499665565788746 ], [ 674614.328883382724598, 7149191.372561061754823 ], [ 674614.328886798233725, 7149206.076565309427679 ], [ 674622.497781778685749, 7149224.048124171793461 ], [ 674661.708463341114111, 7149248.554788864217699 ], [ 674696.017807386233471, 7149259.991228688508272 ], [ 674720.524479425745085, 7149258.35744477622211 ], [ 674736.862259900080971, 7149253.456106254830956 ], [ 674759.735152639797889, 7149246.920987968333066 ], [ 674789.143155744299293, 7149230.583198675885797 ], [ 674815.283604423515499, 7149222.414301386103034 ], [ 674836.52272165985778, 7149227.315631224773824 ], [ 674847.959171829163097, 7149240.385854579508305 ], [ 674843.057841144269332, 7149256.723638211376965 ], [ 674816.91739360219799, 7149269.793870253488421 ], [ 674782.60805601219181, 7149286.131660681217909 ], [ 674749.93249962059781, 7149315.539676730521023 ], [ 674717.25694664218463, 7149359.651697032153606 ], [ 674681.313838854199275, 7149410.298831089399755 ], [ 674645.370732202660292, 7149465.84729989990592 ], [ 674604.526289919624105, 7149516.494435092434287 ], [ 674594.723631571512669, 7149562.240228367969394 ], [ 674591.45609307801351, 7149639.027806902304292 ], [ 674593.089881862862967, 7149684.773597546853125 ], [ 674619.230341563699767, 7149723.984269532375038 ], [ 674650.272136136423796, 7149764.828718639910221 ], [ 674669.877482814947143, 7149802.405613885261118 ], [ 674713.989498517126776, 7149825.278499212116003 ], [ 674769.537957563297823, 7149831.813599383458495 ], [ 674826.720195151865482, 7149839.982477424666286 ], [ 674844.691759120090865, 7149857.954034030437469 ], [ 674843.057986655621789, 7149882.460708178579807 ], [ 674828.353986231028102, 7149895.530937587842345 ], [ 674808.748648277833126, 7149895.530942119657993 ], [ 674776.07308160548564, 7149880.826945410110056 ], [ 674753.200183911016211, 7149866.122946433722973 ], [ 674694.384167020907626, 7149853.052734011784196 ], [ 674648.638380364747718, 7149861.221635831519961 ], [ 674617.596599827520549, 7149880.826982012018561 ], [ 674597.174375450587831, 7149892.263434486463666 ], [ 674562.865039342897944, 7149915.136337922886014 ], [ 674541.62592512415722, 7149923.305234083905816 ], [ 674499.147693272214383, 7149924.939022136852145 ], [ 674470.556575044291094, 7149923.305250480771065 ], [ 674415.008120921207592, 7149938.009267553687096 ], [ 674374.163673672126606, 7149967.417285496369004 ], [ 674356.192120320862159, 7149995.191519914194942 ], [ 674352.924567784648389, 7150011.529303181916475 ], [ 674352.924572709249333, 7150032.768420454114676 ], [ 674354.558358448906802, 7150065.443985110148787 ], [ 674341.488139584893361, 7150093.218218401074409 ], [ 674313.713922931812704, 7150145.499128857627511 ], [ 674271.235702425590716, 7150196.146264455281198 ], [ 674225.489925210480578, 7150245.159622551873326 ], [ 674189.546815454727039, 7150287.637865385040641 ], [ 674184.645488911424764, 7150321.947209808975458 ], [ 674197.715725196991116, 7150369.326776115223765 ], [ 674218.954850789625198, 7150410.171227531507611 ], [ 674218.954863659921102, 7150465.719688115641475 ], [ 674218.954874637420289, 7150513.099257441237569 ], [ 674210.785995552898385, 7150563.746385155245662 ], [ 674186.279330659657717, 7150596.421955855563283 ], [ 674148.702437423169613, 7150616.027303542010486 ], [ 674117.660657220403664, 7150637.266427975147963 ], [ 674094.787767459522001, 7150656.871772274374962 ], [ 674078.449991867644712, 7150683.012228082865477 ], [ 674073.548667207942344, 7150725.49046378955245 ], [ 674094.78779318172019, 7150767.968693483620882 ], [ 674137.266034540953115, 7150807.179361782968044 ], [ 674179.744280447950587, 7150865.995369122363627 ], [ 674186.279398026526906, 7150887.234484910964966 ], [ 674186.279405217152089, 7150918.276271726936102 ], [ 674176.476742282626219, 7150944.416726040653884 ], [ 674147.068744773510844, 7150985.261189153417945 ], [ 674104.590520804165863, 7151021.204320512712002 ], [ 674089.886525638517924, 7151057.147445481270552 ], [ 674071.914969603763893, 7151073.485232156701386 ], [ 674042.50697699887678, 7151135.568812571465969 ], [ 674037.605647797696292, 7151158.441709256730974 ], [ 674042.506988720269874, 7151186.2159384470433 ], [ 674045.774548454908654, 7151200.919941982254386 ], [ 674045.774551859474741, 7151215.623946269974113 ], [ 674039.239441466401331, 7151225.426617298275232 ], [ 674024.535439866012894, 7151233.595511952415109 ], [ 674009.83143713104073, 7151236.86307184305042 ], [ 673977.15587873221375, 7151258.10219666454941 ], [ 673946.114100011065602, 7151285.876434126868844 ], [ 673924.874991413205862, 7151318.552004096098244 ], [ 673911.804776290198788, 7151362.664019973017275 ], [ 673908.537227516295388, 7151395.339585814625025 ], [ 673908.537235072231852, 7151428.015150907449424 ], [ 673902.002126186387613, 7151444.352934955619276 ], [ 673866.059014088241383, 7151477.028508311137557 ], [ 673849.721236204146408, 7151493.366294614970684 ], [ 673825.214567111688666, 7151508.070304539054632 ], [ 673802.34167278429959, 7151508.070309794507921 ], [ 673781.102553603472188, 7151495.000088637694716 ], [ 673753.328321381355636, 7151480.296090723946691 ], [ 673723.920313258189708, 7151475.394762713462114 ], [ 673674.906972047640011, 7151491.73255651537329 ], [ 673640.597631691489369, 7151496.633899157866836 ], [ 673614.457178392214701, 7151485.197457374073565 ], [ 673598.119391073239967, 7151460.690787304192781 ], [ 673588.316713778767735, 7151424.747667951509356 ], [ 673570.345149804721586, 7151406.776111274026334 ], [ 673537.669586485950276, 7151406.776118770241737 ], [ 673503.360245000454597, 7151406.776126641780138 ], [ 673473.952239143429324, 7151411.677468150854111 ], [ 673446.17801333614625, 7151424.747700555250049 ], [ 673413.502452277578413, 7151434.550377575680614 ], [ 673372.657995489542373, 7151423.113939156755805 ], [ 673338.348654003348202, 7151423.11394701898098 ], [ 673315.475762692978606, 7151436.184178296476603 ], [ 673289.335318059544079, 7151462.324636361561716 ], [ 673272.997540916549042, 7151481.929979162290692 ], [ 673272.997545810649171, 7151503.169096471741796 ], [ 673281.166441159904934, 7151522.774433659389615 ], [ 673304.039340380812064, 7151544.013545732013881 ], [ 673310.574456811067648, 7151560.351326783187687 ], [ 673318.743349902098998, 7151570.15399444103241 ], [ 673333.447357164695859, 7151586.491773622110486 ], [ 673351.418921514530666, 7151606.09710856154561 ], [ 673353.052703071385622, 7151620.801112483255565 ], [ 673351.418931683758274, 7151650.209121448919177 ], [ 673343.250046122935601, 7151673.08201889321208 ], [ 673344.88382956222631, 7151695.954914091154933 ], [ 673353.052722656284459, 7151705.7575817508623 ], [ 673372.658062162110582, 7151712.292690277099609 ], [ 673387.362070181872696, 7151731.898025969974697 ], [ 673390.629632919095457, 7151759.67225556075573 ], [ 673384.911419884068891, 7151805.418048024177551 ], [ 673383.277653770172037, 7151857.698952574282885 ], [ 673386.545220652711578, 7151903.444742981344461 ], [ 673371.841227697092108, 7151949.190537513233721 ], [ 673347.334560462273657, 7151972.063438709825277 ], [ 673340.799449298763648, 7151978.598553231917322 ], [ 673309.757661110023037, 7151965.528334299102426 ], [ 673293.419877554406412, 7151957.359446762129664 ], [ 673273.814541432075202, 7151965.528342531993985 ], [ 673264.011876569828019, 7151983.499905589967966 ], [ 673254.209213212132454, 7152008.006581674329937 ], [ 673249.307883604429662, 7152029.245700124651194 ], [ 673228.068775332067162, 7152063.555048363283277 ], [ 673197.026998053304851, 7152097.864398848265409 ], [ 673172.52033231430687, 7152127.27241306938231 ], [ 673146.379887651884928, 7152153.412871150299907 ], [ 673102.267876750789583, 7152151.779102989472449 ], [ 673033.649188450188376, 7152128.906223103404045 ], [ 672978.100733385421336, 7152140.342683602124453 ], [ 672951.960285334615037, 7152151.779137369245291 ], [ 672940.523845675867051, 7152184.45470510981977 ], [ 672943.79140652040951, 7152204.060043438337743 ], [ 672951.960299613652751, 7152213.862711109220982 ], [ 673014.043871865607798, 7152222.031588193029165 ], [ 673079.395000078715384, 7152228.566686269827187 ], [ 673139.844794542295858, 7152238.369341974146664 ], [ 673169.252802314353175, 7152241.636891756206751 ], [ 673201.928370561799966, 7152262.876001609489322 ], [ 673218.266157508362085, 7152285.748893457464874 ], [ 673221.533719112398103, 7152308.621788301505148 ], [ 673219.899946213583462, 7152331.494684267789125 ], [ 673219.899956374196336, 7152375.606697196140885 ], [ 673219.899965783348307, 7152416.451153615489602 ], [ 673219.083090998698026, 7152478.534727562218904 ], [ 673207.64665285195224, 7152517.745408347807825 ], [ 673199.477773298160173, 7152566.758757931180298 ], [ 673189.675111812306568, 7152599.434325316920877 ], [ 673181.506229623453692, 7152637.011227105744183 ], [ 673184.77379160374403, 7152661.517900217324495 ], [ 673192.942686586407945, 7152679.489459175616503 ], [ 673206.012915322673507, 7152694.193460500799119 ], [ 673228.885812695603818, 7152707.263681322336197 ], [ 673253.39248748566024, 7152717.066345255821943 ], [ 673277.899165665614419, 7152741.573013504035771 ], [ 673290.969393650768325, 7152753.009458312764764 ], [ 673384.094766981899738, 7152829.797015082091093 ], [ 673420.037891598418355, 7152851.036124194040895 ], [ 673431.474343679612502, 7152872.275238922797143 ], [ 673431.474348201183602, 7152891.880578016862273 ], [ 673431.474351968150586, 7152908.218360595405102 ], [ 673413.502798889763653, 7152937.626373359933496 ], [ 673385.728572647902183, 7152949.062827529385686 ], [ 673353.05301114404574, 7152957.231726307421923 ], [ 673330.180122044635937, 7152980.104627161286771 ], [ 673315.476124168024398, 7153004.611304400488734 ], [ 673294.237010601675138, 7153016.047757073305547 ], [ 673281.166785245761275, 7153016.047760066576302 ], [ 673253.392554859165102, 7153009.512653396464884 ], [ 673227.252101890277117, 7152999.709989834576845 ], [ 673168.436083653010428, 7152981.738442460075021 ], [ 673139.028079988434911, 7152996.442453514784575 ], [ 673127.591637692414224, 7153017.681573487818241 ], [ 673127.59163994982373, 7153027.484243035316467 ], [ 673140.661884864210151, 7153112.440709471702576 ], [ 673152.098350859712809, 7153194.129619773477316 ], [ 673143.929467533598654, 7153226.805186812765896 ], [ 673122.690358094405383, 7153256.213200330734253 ], [ 673091.6485788814025, 7153282.353659571148455 ], [ 673072.043252496165223, 7153333.000790078192949 ], [ 673058.973041045013815, 7153393.450588645413518 ], [ 673042.635267988429405, 7153431.02749233879149 ], [ 673021.396155907656066, 7153448.999058046378195 ], [ 673009.959709467133507, 7153452.266617180779576 ], [ 672985.453036911319941, 7153452.26662278547883 ], [ 672977.284143804339692, 7153442.463955098763108 ], [ 672964.213912053848617, 7153414.689727682620287 ], [ 672946.242348799016327, 7153399.985727461054921 ], [ 672918.468122156336904, 7153409.788403363898396 ], [ 672911.933012106106617, 7153421.224852669984102 ], [ 672916.834350749151781, 7153439.196412399411201 ], [ 672934.805914003867656, 7153453.900412623770535 ], [ 672975.650377282872796, 7153493.111081503331661 ], [ 673004.241504661971703, 7153533.955531444400549 ], [ 673000.973958468879573, 7153578.067545193247497 ], [ 672983.002411367255263, 7153633.616010122001171 ], [ 672981.368645972455852, 7153689.164471318945289 ], [ 672933.989094418706372, 7153756.149390794336796 ], [ 672909.482430868200026, 7153795.360074631869793 ], [ 672883.341986513347365, 7153823.134311022236943 ], [ 672862.102872916264459, 7153834.570763696916401 ], [ 672819.62464309274219, 7153846.007221220992506 ], [ 672796.751752448151819, 7153862.345009043812752 ], [ 672786.949090177309699, 7153891.753019962459803 ], [ 672782.047763920621946, 7153927.69614280294627 ], [ 672768.977546055801213, 7153960.371710988692939 ], [ 672736.301989379106089, 7153989.779727135784924 ], [ 672716.696652446058579, 7153994.681066391989589 ], [ 672677.485977078089491, 7153997.94863186404109 ], [ 672659.514423567685299, 7154025.722866389900446 ], [ 672630.10642397752963, 7154058.39843830652535 ], [ 672602.332195058348589, 7154058.39844464417547 ], [ 672568.022852702997625, 7154055.13089594990015 ], [ 672558.220188919687644, 7154078.003793835639954 ], [ 672543.516198117751628, 7154133.552258044481277 ], [ 672530.445988857420161, 7154203.804726231843233 ], [ 672530.446003850200213, 7154269.155856661498547 ], [ 672536.981129655847326, 7154326.338094302453101 ], [ 672563.938480369397439, 7154373.717657725326717 ], [ 672601.515391457243823, 7154430.899888295680285 ], [ 672617.853185931337066, 7154486.448345448821783 ], [ 672627.655867341905832, 7154540.363025836646557 ], [ 672629.28965188912116, 7154568.137255910784006 ], [ 672643.993662570021115, 7154599.179039524868131 ], [ 672643.993667070986703, 7154618.784378663636744 ], [ 672643.993672319687903, 7154641.657274326309562 ], [ 672624.388342118822038, 7154675.966622295789421 ], [ 672604.783009665436111, 7154700.473300694487989 ], [ 672586.811461008619517, 7154749.486652648076415 ], [ 672586.811467381892726, 7154777.260883102193475 ], [ 672598.247922093374655, 7154809.93644573353231 ], [ 672609.684374180622399, 7154831.175560532137752 ], [ 672639.092390301870182, 7154870.386232112534344 ], [ 672661.965296356473118, 7154921.033353021368384 ], [ 672665.232860205462202, 7154953.708917522802949 ], [ 672661.965310983825475, 7154984.750705253332853 ], [ 672655.430203164694831, 7155005.989824157208204 ], [ 672645.627535246429034, 7155010.891161181032658 ], [ 672630.923538056900725, 7155038.665394999086857 ], [ 672637.458658251678571, 7155071.340958758257329 ], [ 672655.430234666564502, 7155143.227198213338852 ], [ 672661.965357865206897, 7155188.972988083958626 ], [ 672686.472042855690233, 7155242.887665166519582 ], [ 672715.880063498043455, 7155301.703675923869014 ], [ 672719.147627725498751, 7155336.013018704019487 ], [ 672709.344972183345817, 7155394.829038418829441 ], [ 672699.542320015607402, 7155468.349062509834766 ], [ 672688.10588854632806, 7155536.967752188444138 ], [ 672688.105902049923316, 7155595.783769682049751 ], [ 672684.838360327994451, 7155659.50112271681428 ], [ 672684.838362203445286, 7155667.670014036819339 ], [ 672666.866806401638314, 7155685.641579041257501 ], [ 672657.064139600726776, 7155695.444250862114131 ], [ 672629.289914745371789, 7155713.415818102657795 ], [ 672601.515692138113081, 7155741.19005492888391 ], [ 672567.206362449331209, 7155793.470967206172645 ], [ 672537.79836428409908, 7155832.681652255356312 ], [ 672521.460586650762707, 7155850.653216886334121 ], [ 672505.122809017077088, 7155868.624781519174576 ], [ 672496.953926381072961, 7155904.567905199714005 ], [ 672503.489057442173362, 7155984.623038670048118 ], [ 672508.390405834768899, 7156045.072833345271647 ], [ 672480.616192577173933, 7156113.691526798531413 ], [ 672462.64464724692516, 7156177.408883230760694 ], [ 672441.405547434813343, 7156249.295131735503674 ], [ 672439.771781992050819, 7156304.843593126162887 ], [ 672444.673123263288289, 7156334.251600785180926 ], [ 672459.377130598877557, 7156350.589380089193583 ], [ 672477.348692041588947, 7156357.124489054083824 ], [ 672511.658033377840184, 7156355.490702966228127 ], [ 672538.615369171486236, 7156337.519135899841785 ], [ 672566.389597799628973, 7156335.885351302102208 ], [ 672612.135386746027507, 7156335.88534086663276 ], [ 672657.88117569219321, 7156335.885330431163311 ], [ 672698.725630108849145, 7156335.885321110486984 ], [ 672739.570081523852423, 7156322.815085664391518 ], [ 672790.217201246879995, 7156306.477291447110474 ], [ 672840.864320967230015, 7156290.13949722610414 ], [ 672906.215447654714808, 7156288.505704030394554 ], [ 672945.426129902713001, 7156314.646147314459085 ], [ 672978.101706583518535, 7156371.828379133716226 ], [ 673045.086631750687957, 7156458.418611895292997 ], [ 673087.56487788434606, 7156517.234619744122028 ], [ 673156.183579372940585, 7156595.655960807576776 ], [ 673203.563169083208777, 7156693.682645929977298 ], [ 673229.703629704890773, 7156736.160874865949154 ], [ 673229.703634595731273, 7156757.399992327205837 ], [ 673221.534747094265185, 7156772.103998593986034 ], [ 673197.028079696465284, 7156794.97689993493259 ], [ 673165.986300337710418, 7156821.117359301075339 ], [ 673149.648525705561042, 7156852.15915010496974 ], [ 673149.648531722370535, 7156878.299602368846536 ], [ 673157.817428629146889, 7156904.440052764490247 ], [ 673179.056558106676675, 7156961.622287238016725 ], [ 673213.365915269358084, 7157028.607188327237964 ], [ 673237.872605625307187, 7157105.394761268049479 ], [ 673259.111734360689297, 7157159.309439219534397 ], [ 673267.280638423981145, 7157216.491676704958081 ], [ 673270.548200802179053, 7157242.632128234952688 ], [ 673286.885990868438967, 7157278.575246376916766 ], [ 673301.590005014790222, 7157324.321034501306713 ], [ 673317.927794332965277, 7157356.99659611005336 ], [ 673321.195357464603148, 7157386.404604179784656 ], [ 673329.364254382555373, 7157412.545054592192173 ], [ 673352.237155665992759, 7157441.953058174811304 ], [ 673371.842496449593455, 7157453.389501556754112 ], [ 673432.292293219594285, 7157471.361048653721809 ], [ 673463.334082767716609, 7157489.332602484151721 ], [ 673500.910988048883155, 7157520.374380961060524 ], [ 673554.82567399344407, 7157546.514820886775851 ], [ 673618.543038447154686, 7157613.499715264886618 ], [ 673639.782162699033506, 7157647.809054024517536 ], [ 673646.317283713840879, 7157683.75217442959547 ], [ 673644.68351119, 7157708.258848827332258 ], [ 673633.247068081400357, 7157726.230412405915558 ], [ 673602.20528983103577, 7157757.272206630557775 ], [ 673558.093292922829278, 7157817.722012685611844 ], [ 673540.121740104630589, 7157848.763803914189339 ], [ 673536.854190151207149, 7157876.538035230711102 ], [ 673536.854194673942402, 7157896.143374458886683 ], [ 673543.389311539358459, 7157914.114933915436268 ], [ 673562.994657993782312, 7157950.058051336556673 ], [ 673580.966227777302265, 7157992.536282208748162 ], [ 673602.205358446342871, 7158054.619851563125849 ], [ 673616.909371496061794, 7158095.464304919354618 ], [ 673634.880940155824646, 7158133.041200990788639 ], [ 673634.880946942837909, 7158162.449209839105606 ], [ 673634.880957877729088, 7158209.828779654577374 ], [ 673641.416080405586399, 7158252.307013165205717 ], [ 673657.753873528097756, 7158301.320357507094741 ], [ 673661.021440448239446, 7158347.066148310899734 ], [ 673656.120112316333689, 7158374.84038002230227 ], [ 673638.14855685015209, 7158394.445723384618759 ], [ 673618.543222823063843, 7158412.417288850992918 ], [ 673567.896110137808137, 7158459.796870300546288 ], [ 673551.558338500792161, 7158503.908887341618538 ], [ 673522.150344801601022, 7158562.724911812692881 ], [ 673502.545013782451861, 7158593.76670344453305 ], [ 673486.207235357607715, 7158608.470711622387171 ], [ 673432.292556870030239, 7158615.005837062373757 ], [ 673409.419657809077762, 7158595.400503057986498 ], [ 673378.377867465140298, 7158574.161392657086253 ], [ 673347.336081262445077, 7158570.8938432270661 ], [ 673330.998301705461927, 7158580.696516592055559 ], [ 673304.857855693553574, 7158601.935640092939138 ], [ 673295.055190367624164, 7158618.273425040766597 ], [ 673286.886306608095765, 7158649.315214050933719 ], [ 673283.618757019517943, 7158678.72322366759181 ], [ 673290.153878025594167, 7158714.666344123892486 ], [ 673296.688997526653111, 7158744.074351500719786 ], [ 673290.153893453767523, 7158781.651253222487867 ], [ 673291.787693086080253, 7158874.776614287868142 ], [ 673293.421486696926877, 7158941.761523028835654 ], [ 673285.252610084600747, 7159003.8450992051512 ], [ 673293.421514920890331, 7159064.294893372803926 ], [ 673314.66064936039038, 7159142.716245541349053 ], [ 673324.463322972878814, 7159162.321582555770874 ], [ 673352.237557350890711, 7159185.194471996277571 ], [ 673360.406454288517125, 7159211.334922472015023 ], [ 673360.406457300879993, 7159224.405148644000292 ], [ 673337.533569137798622, 7159252.17938450537622 ], [ 673298.322898766957223, 7159278.319845834746957 ], [ 673252.577116413158365, 7159307.72786520421505 ], [ 673216.634002026868984, 7159332.234547508880496 ], [ 673183.958444757154211, 7159360.008785611018538 ], [ 673167.620670069009066, 7159391.050576519221067 ], [ 673156.184231433318928, 7159428.627479396760464 ], [ 673149.649126595351845, 7159462.936824606731534 ], [ 673148.015358940465376, 7159508.682616606354713 ], [ 673146.381589779513888, 7159547.893295519053936 ], [ 673134.945147006423213, 7159567.498637401498854 ], [ 673103.90336414729245, 7159578.935092411935329 ], [ 673066.326468552579172, 7159590.371548913419247 ], [ 673032.017127821571194, 7159595.272891575470567 ], [ 672987.905122494208626, 7159619.779575748369098 ], [ 672937.258013066952117, 7159681.863161684013903 ], [ 672900.498011812800542, 7159716.17251380905509 ], [ 672885.794017165782861, 7159755.383195718750358 ], [ 672884.16024611517787, 7159786.424983277916908 ], [ 672877.625142012606375, 7159824.001885051839054 ], [ 672882.526482947403565, 7159851.776114573702216 ], [ 672893.962935868185014, 7159876.282786056399345 ], [ 672908.666945909848437, 7159904.057013342157006 ], [ 672918.469623652519658, 7159941.633911387994885 ], [ 672913.568298486759886, 7159982.478369342163205 ], [ 672898.864302709931508, 7160016.787716444581747 ], [ 672875.991411877097562, 7160033.125504404306412 ], [ 672843.315848560072482, 7160034.759290140122175 ], [ 672797.570059387944639, 7160034.759300583973527 ], [ 672748.55671684758272, 7160047.829537961632013 ], [ 672728.9513827561168, 7160065.801103445701301 ], [ 672733.852722561452538, 7160088.673998158425093 ], [ 672756.725622775615193, 7160113.180667042732239 ], [ 672792.668754474376328, 7160163.827785322442651 ], [ 672817.175446762237698, 7160248.784249971620739 ], [ 672840.048352237907238, 7160296.163814696483314 ], [ 672856.386140846530907, 7160325.571819897741079 ], [ 672877.625266640912741, 7160366.416271900758147 ], [ 672875.991495962487534, 7160399.091837761923671 ], [ 672871.090169289032929, 7160433.401182640343904 ], [ 672844.949726576800458, 7160469.344310650601983 ], [ 672822.076837231521495, 7160492.217211715877056 ], [ 672800.837729070335627, 7160528.160338604822755 ], [ 672804.105290321283974, 7160549.399455429986119 ], [ 672818.809297746513039, 7160565.737234819680452 ], [ 672831.87952773552388, 7160585.342571130953729 ], [ 672849.85109528619796, 7160618.018132522702217 ], [ 672864.555104966275394, 7160644.15858156234026 ], [ 672916.836019308771938, 7160698.073252690955997 ], [ 672959.314261912018992, 7160740.551478136330843 ], [ 672982.187166285701096, 7160783.029708060435951 ], [ 672993.623622980783693, 7160823.874162329360843 ], [ 672990.356080880621448, 7160885.957737537100911 ], [ 672975.652088093920611, 7160933.337310886010528 ], [ 672957.680544940056279, 7161006.857337394729257 ], [ 672926.638774784165435, 7161073.84225379023701 ], [ 672908.667221485171467, 7161103.25026686117053 ], [ 672880.892999438219704, 7161134.292060449719429 ], [ 672859.653884132159874, 7161139.193400128744543 ], [ 672849.851215010508895, 7161139.193402365781367 ], [ 672823.710763641865924, 7161137.559630058705807 ], [ 672799.204091584659182, 7161140.827192204073071 ], [ 672791.035201774677262, 7161145.728528898209333 ], [ 672791.03520590160042, 7161163.700089934282005 ], [ 672792.668990467209369, 7161191.474320254288614 ], [ 672782.866326220915653, 7161212.713440079241991 ], [ 672756.725881976424716, 7161242.121455017477274 ], [ 672732.219215167337097, 7161268.261913031339645 ], [ 672717.515215980820358, 7161287.867255699820817 ], [ 672710.980109230382368, 7161314.007709611207247 ], [ 672709.34633554390166, 7161333.613049300387502 ], [ 672709.346339668147266, 7161351.584610341116786 ], [ 672714.247676481376402, 7161361.387278879992664 ], [ 672730.58546023152303, 7161369.556166535243392 ], [ 672737.12057673255913, 7161385.893947808071971 ], [ 672737.120579733746126, 7161398.96417402010411 ], [ 672724.050357981934212, 7161415.301959768868983 ], [ 672706.078802042175084, 7161433.273524913936853 ], [ 672684.839691601227969, 7161459.413982183672488 ], [ 672661.966801470844075, 7161479.019326720386744 ], [ 672640.727686526603065, 7161485.554444671608508 ], [ 672619.488570086890832, 7161485.554449515417218 ], [ 672609.685902458033524, 7161492.089564858935773 ], [ 672588.446787514258176, 7161498.624682810157537 ], [ 672578.644121384713799, 7161511.694911258295178 ], [ 672565.57390000205487, 7161529.666475283913314 ], [ 672545.96856362069957, 7161537.835371135734022 ], [ 672531.264560304232873, 7161539.469152765348554 ], [ 672511.659219425637275, 7161528.0327092949301 ], [ 672493.687655987450853, 7161513.328708900138736 ], [ 672454.476977979764342, 7161506.793604724109173 ], [ 672433.237858916632831, 7161495.35716162994504 ], [ 672410.364965410670266, 7161500.258501670323312 ], [ 672400.562298528966494, 7161510.061173562891781 ], [ 672397.294745146878995, 7161523.131400520913303 ], [ 672400.562304142862558, 7161534.567847713828087 ], [ 672425.068982203956693, 7161557.440738008357584 ], [ 672454.476993706310168, 7161575.41229235380888 ], [ 672501.85656490502879, 7161591.750064324587584 ], [ 672532.898359095444903, 7161629.326957620680332 ], [ 672560.672593164024875, 7161650.566068891435862 ], [ 672578.644158480106853, 7161673.438960675150156 ], [ 672609.685948553844355, 7161693.044292921200395 ], [ 672647.262851383304223, 7161712.649623678065836 ], [ 672686.473533902666532, 7161738.790067169815302 ], [ 672699.543763908557594, 7161758.395403514616191 ], [ 672707.712659725220874, 7161779.634519256651402 ], [ 672699.543772907461971, 7161797.606082170270383 ], [ 672683.205997021519579, 7161823.746538337320089 ], [ 672660.333105380064808, 7161836.81676977314055 ], [ 672612.953542407485656, 7161856.422119910828769 ], [ 672572.109097806271166, 7161900.534142717719078 ], [ 672542.701101647806354, 7161949.547497749328613 ], [ 672529.630880257347599, 7161967.519061787053943 ], [ 672519.828214495908469, 7161982.22306852042675 ], [ 672521.461996056023054, 7161996.927072647027671 ], [ 672531.26466893509496, 7162013.26485319249332 ], [ 672557.405123329954222, 7162027.968851733952761 ], [ 672596.6158099839231, 7162072.080856298096478 ], [ 672629.291380512993783, 7162101.488857852295041 ], [ 672660.333170981379226, 7162122.727968387305737 ], [ 672706.078966654487886, 7162150.502188679762185 ], [ 672738.754533064900897, 7162161.938629170879722 ], [ 672756.726095022400841, 7162170.107516460120678 ], [ 672773.06388291856274, 7162196.24796518497169 ], [ 672797.570566263166256, 7162241.99375138245523 ], [ 672815.542129725683481, 7162256.697751784697175 ], [ 672846.583916076458991, 7162259.965301254764199 ], [ 672867.823032164364122, 7162258.331518126651645 ], [ 672887.428369688452221, 7162255.063957091420889 ], [ 672903.766151208081283, 7162253.430175082758069 ], [ 672921.737710917717777, 7162251.796392698772252 ], [ 672967.483496468747035, 7162235.458599464967847 ], [ 673001.792840700712986, 7162245.261261293664575 ], [ 673037.735966505366378, 7162269.767927253618836 ], [ 673063.876423550071195, 7162295.908373732119799 ], [ 673086.749321962706745, 7162312.246151288039982 ], [ 673114.523552314145491, 7162317.147479770705104 ], [ 673142.297781163593754, 7162315.513695141300559 ], [ 673157.001784869702533, 7162315.513691779226065 ], [ 673173.339569397736341, 7162326.950135992839932 ], [ 673173.339572405559011, 7162340.02036221884191 ], [ 673171.705800231662579, 7162366.160815050825477 ], [ 673161.90313861251343, 7162398.836382867768407 ], [ 673160.269364555599168, 7162416.807944308035076 ], [ 673174.973372025880963, 7162433.145723730325699 ], [ 673189.677375734783709, 7162433.145720369182527 ], [ 673215.817829030216672, 7162442.948384059593081 ], [ 673250.127176661044359, 7162467.455050390213728 ], [ 673266.464965331135318, 7162496.863055672496557 ], [ 673274.633861548732966, 7162519.735949706286192 ], [ 673266.464979626005515, 7162558.94663027394563 ], [ 673261.563650697818957, 7162583.453305582515895 ], [ 673241.958318057120778, 7162607.959984256885946 ], [ 673215.817872654180974, 7162632.466664426028728 ], [ 673191.311203932971694, 7162650.438231104984879 ], [ 673174.973427293123677, 7162673.311130753718317 ], [ 673139.030320635880344, 7162732.127157032489777 ], [ 673132.495213887304999, 7162758.267611000686884 ], [ 673124.326327820541337, 7162779.506730500608683 ], [ 673109.622326359152794, 7162789.309403540566564 ], [ 673091.650766261620447, 7162789.309407649561763 ], [ 673067.144092274480499, 7162784.408078415319324 ], [ 673034.468527709483169, 7162781.14052932523191 ], [ 673009.961861610761844, 7162810.548543959856033 ], [ 673009.961866118246689, 7162830.153883315622807 ], [ 673011.595648439368233, 7162848.125444019213319 ], [ 673027.933434481034055, 7162866.097001360729337 ], [ 673047.538777277688496, 7162885.702336236834526 ], [ 673057.341451307875104, 7162906.941451633349061 ], [ 673057.341458446579054, 7162937.983238950371742 ], [ 673063.876585111021996, 7162998.433033816516399 ], [ 673076.946817404823378, 7163027.841039869002998 ], [ 673090.017054959782399, 7163080.121941844001412 ], [ 673104.721063942182809, 7163102.994834406301379 ], [ 673121.058850365690887, 7163122.600170033052564 ], [ 673134.129076648037881, 7163125.867723607458174 ], [ 673148.833079619216733, 7163122.600163681432605 ], [ 673179.874863, 7163112.797486899420619 ], [ 673201.113977231900208, 7163102.99481235910207 ], [ 673258.296212050132453, 7163094.825907871127129 ], [ 673300.774444648297504, 7163093.192119870334864 ], [ 673356.322903907857835, 7163096.459663711488247 ], [ 673416.772701505688019, 7163116.064989229664207 ], [ 673460.884720958187245, 7163152.008101291023195 ], [ 673482.123843096196651, 7163176.51477063074708 ], [ 673504.996744558215141, 7163205.922774435020983 ], [ 673527.869647904764861, 7163243.499669644981623 ], [ 673532.770988883567043, 7163271.273899292573333 ], [ 673522.96832726849243, 7163303.949467153288424 ], [ 673490.292766444501467, 7163317.019700888544321 ], [ 673449.448310518753715, 7163312.118375403806567 ], [ 673397.16740612196736, 7163302.315717697143555 ], [ 673351.421616376261227, 7163300.681949893012643 ], [ 673304.042060476494953, 7163351.329087443649769 ], [ 673269.732730859424919, 7163405.24377856682986 ], [ 673263.197628999012522, 7163452.623350211419165 ], [ 673253.394970000721514, 7163496.735366045497358 ], [ 673243.592314011417329, 7163553.917608129791915 ], [ 673233.789657643763348, 7163609.46607193723321 ], [ 673202.747884770738892, 7163665.014540608040988 ], [ 673189.677667501149699, 7163700.957665793597698 ], [ 673186.410123522626236, 7163754.872349835000932 ], [ 673179.875022030551918, 7163803.885699782520533 ], [ 673181.508815638022497, 7163870.870608965866268 ], [ 673204.381720868404955, 7163916.616395629942417 ], [ 673212.550619354122318, 7163949.291959402151406 ], [ 673215.818185892305337, 7163993.403972273692489 ], [ 673215.818192286184058, 7164021.178203070536256 ], [ 673196.212865243665874, 7164070.191556027159095 ], [ 673196.21286562026944, 7164071.825334310531616 ], [ 673189.677761116647162, 7164107.768458019942045 ], [ 673170.072430312284268, 7164140.444028154015541 ], [ 673150.467107024160214, 7164205.795163942500949 ], [ 673152.100899500772357, 7164267.8787383120507 ], [ 673158.636020170757547, 7164302.188080759719014 ], [ 673166.804917906643823, 7164331.596087984740734 ], [ 673186.410268265753984, 7164383.876988554373384 ], [ 673204.381835545180365, 7164414.918771823868155 ], [ 673251.761416717432439, 7164473.734779177233577 ], [ 673312.211220819503069, 7164521.114335557445884 ], [ 673339.985455014975742, 7164542.353446884080768 ], [ 673388.998803860973567, 7164555.42366192676127 ], [ 673411.871703478507698, 7164576.662774374708533 ], [ 673431.477049342123792, 7164609.338335555046797 ], [ 673434.744616273092106, 7164655.084126748144627 ], [ 673442.913522683549672, 7164722.069034510292113 ], [ 673454.34998360206373, 7164780.885050111450255 ], [ 673444.547323844395578, 7164821.729509457945824 ], [ 673423.308213331736624, 7164847.869966868311167 ], [ 673387.365101317293011, 7164883.813097350299358 ], [ 673364.492213358404115, 7164913.22111170552671 ], [ 673364.49222050816752, 7164944.262899106368423 ], [ 673375.928671262459829, 7164958.966901047155261 ], [ 673393.900232918094844, 7164965.502010067924857 ], [ 673420.040683669038117, 7164963.868225796148181 ], [ 673452.71624606999103, 7164957.333105174824595 ], [ 673488.659364862716757, 7164950.79798380099237 ], [ 673519.701149445143528, 7164945.896641835570335 ], [ 673552.376714105950668, 7164949.164190913550556 ], [ 673580.150944557855837, 7164954.06551940087229 ], [ 673609.55895772727672, 7164978.572186921723187 ], [ 673648.769638186669908, 7164994.909960774704814 ], [ 673696.1492062327452, 7164996.543728190474212 ], [ 673743.528773902449757, 7164996.543717319145799 ], [ 673803.978568267775699, 7165001.445038297213614 ], [ 673839.921694228774868, 7165025.951704312115908 ], [ 673857.89326003997121, 7165050.458374455571175 ], [ 673857.893263438018039, 7165065.162379015237093 ], [ 673856.259489770745859, 7165084.767718806862831 ], [ 673830.11904316698201, 7165104.37306422367692 ], [ 673813.781264605582692, 7165119.077072536572814 ], [ 673771.303037551464513, 7165145.2175348456949 ], [ 673740.261255979770795, 7165163.189103102311492 ], [ 673722.289701858069748, 7165189.329559782519937 ], [ 673728.824821052956395, 7165217.103789126500487 ] ] ] ] } }
]
}
