{
"type": "FeatureCollection",
"name": "rio_piraquara",
"crs": { "type": "name", "properties": { "name": "urn:ogc:def:crs:EPSG::31982" } },
"features": [
{ "type": "Feature", "properties": { "AREA": 102193656.51071, "PERIMETER": 59961.43806, "BACIAS1_": 19, "BACIAS1_ID": 0, "NOME_BACIA": "RIO PIRAQUARA", "SUB_AREA": 102.19, "SUBCODIGO": 18, "BACCODIGO": 2, "SUBNOME": "RIO PIRAQUARA", "SUBBAC_DAT": "2002-01-03", "SUBBAC_POP": 6168, "SUBBAC_P_1": 4209, "SUBBAC_DEN": 41.19, "SUBBAC_D_1": 60.43 }, "geometry": { "type": "MultiPolygon", "coordinates": [ [ [ [ 687751.183453188510612, 7181428.72314777970314 ], [ 687766.066030099173076, 7181458.358306 ], [ 687790.437054114881903, 7181474.605647497810423 ], [ 687847.302769395057112, 7181482.729307172819972 ], [ 687887.921139247599058, 7181495.727175132371485 ], [ 687922.040574901970103, 7181526.597126992419362 ], [ 687956.160008937353268, 7181550.968139837495983 ], [ 687993.528913519345224, 7181580.213356135413051 ], [ 688040.646234608837403, 7181643.577999847009778 ], [ 688152.7529581268318, 7181770.307282835245132 ], [ 688201.495010253507644, 7181819.049313362687826 ], [ 688253.486532528768294, 7181871.040812589228153 ], [ 688300.603846755810082, 7181906.784965484403074 ], [ 688307.102794756414369, 7181944.153863220475614 ], [ 688294.104925957974046, 7181978.273296295665205 ], [ 688272.983389513916336, 7182035.139017954468727 ], [ 688242.113441420253366, 7182077.382129244506359 ], [ 688199.870351878344081, 7182124.499447626061738 ], [ 688164.126200182829052, 7182168.367294883355498 ], [ 688125.132581991376355, 7182223.608286233618855 ], [ 688092.637898809276521, 7182264.226663175970316 ], [ 688048.770074174855836, 7182309.719247207976878 ], [ 688011.401185364462435, 7182343.838686339557171 ], [ 687980.531236837035976, 7182384.457062881439924 ], [ 687938.288152934401296, 7182454.320667844265699 ], [ 687905.793476619408466, 7182522.559535639360547 ], [ 687900.919285988202319, 7182576.175783789716661 ], [ 687917.166643595555797, 7182620.04361817240715 ], [ 687936.663470945321023, 7182665.536186508834362 ], [ 687961.846865578554571, 7182694.781405875459313 ], [ 688005.714706048835069, 7182712.653477312996984 ], [ 688039.834141762927175, 7182743.523429216817021 ], [ 688059.330968715250492, 7182787.391262801364064 ], [ 688080.452529122936539, 7182826.384891714900732 ], [ 688125.945108328363858, 7182860.504310313612223 ], [ 688156.815073093632236, 7182884.875323997810483 ], [ 688184.435568528948352, 7182909.246338490396738 ], [ 688215.305536139756441, 7182944.990495475009084 ], [ 688239.676568735623732, 7182995.357266880571842 ], [ 688268.921810614294372, 7183066.845588920637965 ], [ 688286.793911446584389, 7183144.832852819934487 ], [ 688283.544457131065428, 7183204.948039645329118 ], [ 688281.919738700264134, 7183269.937430340796709 ], [ 688306.290774964960292, 7183334.926814587786794 ], [ 688304.666048009996302, 7183365.796775385737419 ], [ 688359.094697173452005, 7183516.897094335407019 ], [ 688362.344175445614383, 7183552.641258205287158 ], [ 688367.218393260147423, 7183607.882238768041134 ], [ 688373.717345338547602, 7183661.49848417378962 ], [ 688388.339974013855681, 7183728.112605632282794 ], [ 688389.96472492988687, 7183793.101995566859841 ], [ 688396.463671730249189, 7183825.596689125522971 ], [ 688407.83682091650553, 7183851.592442437075078 ], [ 688427.333642232697457, 7183872.713989453390241 ], [ 688464.702540041063912, 7183874.338714923709631 ], [ 688508.570372055983171, 7183858.091356428340077 ], [ 688515.069310327409767, 7183856.466620054095984 ], [ 688536.190860220813192, 7183853.217145284637809 ], [ 688555.687679101480171, 7183864.590283746831119 ], [ 688570.310294786584564, 7183879.212892937473953 ], [ 688583.308179868850857, 7183910.082850120961666 ], [ 688594.681332721142098, 7183950.701216264627874 ], [ 688599.555546082207002, 7183988.070114506408572 ], [ 688615.802900914801285, 7184020.564805645495653 ], [ 688648.297602854087017, 7184054.684227501042187 ], [ 688720.59830909781158, 7184108.300456557422876 ], [ 688744.969333218643442, 7184124.547798085026443 ], [ 688786.459492878988385, 7184178.042901874519885 ], [ 688818.01615282043349, 7184202.17445420101285 ], [ 688856.997906867298298, 7184222.593456955626607 ], [ 688882.985739953583106, 7184224.449724342674017 ], [ 688910.829842609120533, 7184209.599526520818472 ], [ 688942.386494645732455, 7184202.174423215910792 ], [ 688979.511967489728704, 7184192.893044658005238 ], [ 689029.631355246994644, 7184178.042841279879212 ], [ 689076.038198277237825, 7184174.330281987786293 ], [ 689107.594854967785068, 7184185.467917280271649 ], [ 689140.592245797859505, 7184205.784437451511621 ], [ 689168.21274375775829, 7184239.903860509395599 ], [ 689192.583771156729199, 7184269.149080102331936 ], [ 689229.95267836865969, 7184308.142705007456243 ], [ 689268.946316992165521, 7184334.138451430015266 ], [ 689306.315217680996284, 7184347.136320177465677 ], [ 689350.183054607361555, 7184350.385778741911054 ], [ 689389.176685477839783, 7184345.511564722284675 ], [ 689437.918719471781515, 7184321.140531146898866 ], [ 689481.786544140893966, 7184275.647946912795305 ], [ 689532.153307486092672, 7184230.15536105632782 ], [ 689553.27485656645149, 7184223.656416736543179 ], [ 689576.021141135366634, 7184220.406941529363394 ], [ 689610.140567578957416, 7184213.907993959262967 ], [ 689647.509461319074035, 7184199.285371776670218 ], [ 689671.880478103994392, 7184186.28748760279268 ], [ 689702.750434384448454, 7184176.539071323350072 ], [ 689723.871982235577889, 7184165.165922720916569 ], [ 689733.620387393864803, 7184153.792776965536177 ], [ 689751.492463449365459, 7184132.671220621094108 ], [ 689751.492459358647466, 7184116.423873028717935 ], [ 689749.867719370406121, 7184095.302321565337479 ], [ 689731.995628590579145, 7184057.933426575735211 ], [ 689712.49880641582422, 7184033.562410067766905 ], [ 689673.505164520232938, 7183994.568785607814789 ], [ 689660.507278165547177, 7183958.824624160304666 ], [ 689660.507268761983141, 7183921.455724705941975 ], [ 689668.630926572019234, 7183859.71580183878541 ], [ 689689.75246255507227, 7183801.225345242768526 ], [ 689718.997676379512995, 7183760.606968957930803 ], [ 689759.61603452404961, 7183726.487528867088258 ], [ 689788.861252844566479, 7183703.741234926506877 ], [ 689829.479612618102692, 7183676.120733865536749 ], [ 689881.471116712316871, 7183654.999168986454606 ], [ 689926.963684992399067, 7183645.250749040395021 ], [ 689975.705722201266326, 7183633.877593519166112 ], [ 690027.697229975252412, 7183627.37864145450294 ], [ 690069.94032891432289, 7183617.63022231683135 ], [ 690100.810283529339358, 7183601.382866993546486 ], [ 690173.923330927384086, 7183551.01607115380466 ], [ 690258.409525510040112, 7183518.521354793570936 ], [ 690318.524700873997062, 7183489.2761140614748 ], [ 690385.951186757534742, 7183477.902953825891018 ], [ 690403.823266061604954, 7183469.779275548644364 ], [ 690416.821140539599583, 7183458.406128976494074 ], [ 690437.94268753787037, 7183443.783510850742459 ], [ 690470.437372699030675, 7183411.288807530887425 ], [ 690493.183651078259572, 7183383.668310932815075 ], [ 690509.430985032464378, 7183333.301529364660382 ], [ 690524.053583492757753, 7183279.685278689488769 ], [ 690535.426718777511269, 7183250.440050194971263 ], [ 690559.797728531411849, 7183209.821675133891404 ], [ 690576.04506576329004, 7183172.452771633863449 ], [ 690600.416074279230088, 7183126.960192304104567 ], [ 690623.16234689229168, 7183076.593409113585949 ], [ 690654.032292840187438, 7183026.226623883470893 ], [ 690670.279631295707077, 7182993.731924660503864 ], [ 690686.526971396058798, 7182967.73616446275264 ], [ 690709.273249343386851, 7182938.490933122113347 ], [ 690755.578173800255172, 7182884.874674498103559 ], [ 690802.695464349351823, 7182826.384211402386427 ], [ 690857.936426991480403, 7182763.019541995599866 ], [ 690929.424732592655346, 7182685.032255690544844 ], [ 691028.533533284324221, 7182629.791249013505876 ], [ 691080.525034799706191, 7182598.9212755439803 ], [ 691140.640207173652016, 7182558.302891488187015 ], [ 691174.759624872123823, 7182517.684513987973332 ], [ 691213.753242444596253, 7182460.818787699565291 ], [ 691253.559226520126686, 7182400.703591698780656 ], [ 691286.053911189315841, 7182366.584153632633388 ], [ 691315.299119921401143, 7182306.468960300087929 ], [ 691346.169064967893064, 7182252.852705581113696 ], [ 691391.661624891567044, 7182210.609590459614992 ], [ 691422.531574054388329, 7182173.240683298557997 ], [ 691445.277847819845192, 7182127.748104411177337 ], [ 691463.14991428446956, 7182069.257648719474673 ], [ 691502.143528094515204, 7181997.769309656694531 ], [ 691552.510287034674548, 7181936.02937625348568 ], [ 691601.252306756912731, 7181856.417360965162516 ], [ 691609.375970167224295, 7181817.423724805936217 ], [ 691607.751220627920702, 7181758.933274064213037 ], [ 691609.375941659556702, 7181705.317026766017079 ], [ 691609.375918109319173, 7181612.707145789638162 ], [ 691612.625379589153454, 7181581.837184646166861 ], [ 691686.550776662887074, 7181463.23152893409133 ], [ 691699.548646124894731, 7181432.361565330065787 ], [ 691715.795984914293513, 7181401.491600904613733 ], [ 691756.414343668147922, 7181370.621630316600204 ], [ 691798.65744163072668, 7181357.623741601593792 ], [ 691845.774741517263465, 7181336.502177882939577 ], [ 691884.768366424599662, 7181308.881677207536995 ], [ 691905.889906713739038, 7181268.263303030282259 ], [ 691912.388833368197083, 7181221.145993545651436 ], [ 691930.260909705772065, 7181201.649171985685825 ], [ 691962.755599260679446, 7181187.026550977490842 ], [ 691992.000822795089334, 7181185.401808817870915 ], [ 692030.994458456407301, 7181200.024411717429757 ], [ 692063.48916043213103, 7181234.143833298236132 ], [ 692089.484924168791622, 7181269.887991275638342 ], [ 692126.853828485473059, 7181297.508472610265017 ], [ 692156.099054512102157, 7181305.632138963788748 ], [ 692196.717423187568784, 7181313.755802430212498 ], [ 692235.711059273453429, 7181330.003140075132251 ], [ 692268.205760021228343, 7181359.248357391916215 ], [ 692294.201517137233168, 7181368.996759317815304 ], [ 692331.570415245369077, 7181372.246219344437122 ], [ 692365.689841951825656, 7181367.372006424702704 ], [ 692399.809266997966915, 7181355.998854491859674 ], [ 692438.802892300882377, 7181330.003088539466262 ], [ 692472.109947107965127, 7181307.256793537177145 ], [ 692499.730433078599162, 7181294.258908497169614 ], [ 692532.225126360775903, 7181294.25890024472028 ], [ 692580.967165454640053, 7181291.009418355301023 ], [ 692634.583403556724079, 7181268.263118186034262 ], [ 692673.57703092484735, 7181250.391025991179049 ], [ 692696.323316221358255, 7181250.391020208597183 ], [ 692730.442747075925581, 7181261.764154803939164 ], [ 692775.935323489829898, 7181284.510429780930281 ], [ 692811.679490258218721, 7181300.757768223062158 ], [ 692847.423655365360901, 7181310.506167648360133 ], [ 692899.415170441381633, 7181333.252440962940454 ], [ 692946.532478200620972, 7181343.000837489962578 ], [ 692990.400317049352452, 7181354.373969595879316 ], [ 693053.764966874849051, 7181346.250279693864286 ], [ 693100.882265475927852, 7181320.254511636681855 ], [ 693136.626419759821147, 7181287.759807465597987 ], [ 693170.745840209769085, 7181258.514573214575648 ], [ 693188.617917764699087, 7181243.891955880448222 ], [ 693214.613671973464079, 7181242.267214501276612 ], [ 693243.858896759920754, 7181245.516676552593708 ], [ 693277.978324704919942, 7181245.516667852178216 ], [ 693303.161707828054205, 7181229.269313897937536 ], [ 693338.905854596057907, 7181167.529384166933596 ], [ 693340.530580088146962, 7181131.785219188779593 ], [ 693343.780036490876228, 7181081.418441021814942 ], [ 693350.278968892176636, 7181057.04741807281971 ], [ 693363.276838695979677, 7181027.802189208567142 ], [ 693382.773646736517549, 7180996.932223934680223 ], [ 693397.39625286962837, 7180974.185933667235076 ], [ 693426.641473475145176, 7180961.188048183917999 ], [ 693480.257713613798842, 7180946.5654217293486 ], [ 693543.622364234179258, 7180941.691201293841004 ], [ 693590.739668637979776, 7180938.441719754599035 ], [ 693637.856974294874817, 7180940.066442470997572 ], [ 693660.603266264777631, 7180966.062192698940635 ], [ 693686.599024638533592, 7180980.684798828326166 ], [ 693736.965800459729508, 7180985.558990215882659 ], [ 693772.709964728681371, 7180992.057920088991523 ], [ 693808.45412607153412, 7180987.183706692419946 ], [ 693836.074613261269405, 7180979.060025868006051 ], [ 693868.569306531455368, 7180979.060017555952072 ], [ 693918.936082354048267, 7180983.934208928607404 ], [ 693944.931838642805815, 7180990.43314128741622 ], [ 693961.179184859269299, 7180988.808402378112078 ], [ 693977.426525639602914, 7180966.062111685052514 ], [ 693988.799661590950564, 7180940.066352732479572 ], [ 693993.673862652154639, 7180928.69320821762085 ], [ 694016.420137480832636, 7180888.074833586812019 ], [ 694024.543805357767269, 7180866.953279727138579 ], [ 694024.543799500563182, 7180844.206993192434311 ], [ 694022.919058143394068, 7180818.211237572133541 ], [ 694022.91905144858174, 7180792.215481538325548 ], [ 694021.294311347533949, 7180771.09393017552793 ], [ 694019.669571244157851, 7180749.972378814592957 ], [ 694024.543771050055511, 7180733.725030047819018 ], [ 694032.667443945305422, 7180732.100293215364218 ], [ 694063.537402124260552, 7180730.475550560280681 ], [ 694086.283689497504383, 7180738.599218495190144 ], [ 694094.407368671847507, 7180761.345502943731844 ], [ 694104.155785023001954, 7180793.840195490047336 ], [ 694115.528931430308148, 7180808.462805348448455 ], [ 694136.650485819787718, 7180823.085412708111107 ], [ 694156.147306801518425, 7180842.582224739715457 ], [ 694169.145189130329527, 7180862.079038439318538 ], [ 694193.516213266993873, 7180878.326379718258977 ], [ 694219.511969136656262, 7180883.200577314943075 ], [ 694239.008785514393821, 7180884.825307070277631 ], [ 694295.06212469516322, 7180858.829536667093635 ], [ 694343.804162497399375, 7180850.705850409343839 ], [ 694397.420406382181682, 7180850.705836657434702 ], [ 694442.912976534338668, 7180849.081090237013996 ], [ 694498.153968085069209, 7180899.44785338640213 ], [ 694512.776582151651382, 7180907.571523396298289 ], [ 694540.397073526750319, 7180915.695190070196986 ], [ 694576.14124367327895, 7180944.940406439825892 ], [ 694608.635943657136522, 7180970.93615413736552 ], [ 694655.753250995650887, 7180979.059815800748765 ], [ 694693.122148257214576, 7180979.059806202538311 ], [ 694748.363125135540031, 7180972.560852999798954 ], [ 694808.478306424920447, 7180967.686633294448256 ], [ 694844.222471541259438, 7180977.435032624751329 ], [ 694876.717169856303371, 7180996.931841298937798 ], [ 694912.461339179193601, 7181022.927588149905205 ], [ 694948.205510185449384, 7181055.422274013049901 ], [ 694987.199154727393761, 7181104.164306567050517 ], [ 695039.190674482611939, 7181144.782662013545632 ], [ 695117.177949708886445, 7181188.650480274111032 ], [ 695182.979723379481584, 7181265.012996728532016 ], [ 695217.099159324774519, 7181295.882948255166411 ], [ 695243.094925320358016, 7181339.750779898837209 ], [ 695286.962778521003202, 7181406.364893490448594 ], [ 695311.333810700336471, 7181453.482195063494146 ], [ 695334.080104847555049, 7181487.601619029417634 ], [ 695355.201658858451992, 7181500.59949161671102 ], [ 695386.071617487119511, 7181500.599483661353588 ], [ 695418.566308672889136, 7181492.475801514461637 ], [ 695454.310464550973848, 7181466.480036236345768 ], [ 695483.55568008357659, 7181433.985333625227213 ], [ 695506.301956112263724, 7181398.241163177415729 ], [ 695542.046110718045384, 7181367.371193641796708 ], [ 695590.788141791825183, 7181333.251751244068146 ], [ 695663.901190714444965, 7181291.008628787472844 ], [ 695694.77114806859754, 7181286.134416557848454 ], [ 695738.638983579119667, 7181284.509670477360487 ], [ 695785.756288841832429, 7181284.509658308699727 ], [ 695836.123063431237824, 7181284.509645296260715 ], [ 695857.244611954083666, 7181276.385966073721647 ], [ 695881.615627269959077, 7181258.513877488672733 ], [ 695917.359774249140173, 7181198.398682383820415 ], [ 695940.106050672475249, 7181164.279246690683067 ], [ 695992.097546395147219, 7181112.287721153348684 ], [ 696012.406725466367789, 7181096.040368372574449 ], [ 696028.654064495582134, 7181066.795138618908823 ], [ 696048.150870313984342, 7181027.80149951018393 ], [ 696057.899271530448459, 7181001.805740945972502 ], [ 696062.773467065300792, 7180969.311044631525874 ], [ 696083.895006275502965, 7180925.443200848996639 ], [ 696119.63915702921804, 7180879.950618531554937 ], [ 696168.381187622435391, 7180844.2064413651824 ], [ 696223.622154748765752, 7180800.338588755577803 ], [ 696254.492111231666058, 7180792.214907001703978 ], [ 696308.108347494155169, 7180762.969667577184737 ], [ 696353.600911286892369, 7180736.973899757489562 ], [ 696379.596660389797762, 7180715.852341246791184 ], [ 696392.594530917238444, 7180689.856581846252084 ], [ 696400.718198726419359, 7180668.735027965158224 ], [ 696412.091337131685577, 7180652.487677499651909 ], [ 696426.71394655527547, 7180642.739265197888017 ], [ 696442.961293183732778, 7180642.739260987378657 ], [ 696470.581783298868686, 7180645.988723332062364 ], [ 696503.076480367686599, 7180660.611327676102519 ], [ 696530.696973450947553, 7180675.23393328115344 ], [ 696569.690607903990895, 7180684.982331681996584 ], [ 696610.308979987981729, 7180706.103872923180461 ], [ 696647.677881476236507, 7180722.351210748776793 ], [ 696670.42416845401749, 7180728.850143855437636 ], [ 696722.415675974916667, 7180722.3511913549155 ], [ 696766.283506782259792, 7180702.854362942278385 ], [ 696819.899743869202211, 7180676.858592988923192 ], [ 696875.140717737609521, 7180658.986496370285749 ], [ 696916.571449941606261, 7180652.487546600401402 ], [ 696957.189815664780326, 7180649.238066541031003 ], [ 697004.307123010279611, 7180657.361728056333959 ], [ 697028.678143377997912, 7180658.986456472426653 ], [ 697079.044918351224624, 7180660.611178129911423 ], [ 697129.411692899302579, 7180660.611165032722056 ], [ 697178.153729809913784, 7180649.238009091466665 ], [ 697205.774214399862103, 7180631.365919632837176 ], [ 697259.390451041166671, 7180603.745414899662137 ], [ 697298.38407954457216, 7180590.747526735067368 ], [ 697339.002444834914058, 7180585.873311905190349 ], [ 697387.74448471609503, 7180585.873299213126302 ], [ 697433.237055697478354, 7180587.498022115789354 ], [ 697459.232814132119529, 7180602.120628111064434 ], [ 697486.853311064885929, 7180631.365846447646618 ], [ 697512.8490780221764, 7180678.483147480525076 ], [ 697530.721166980452836, 7180707.728368360549212 ], [ 697550.217991030309349, 7180738.598323568701744 ], [ 697550.217997846775688, 7180764.594079604372382 ], [ 697555.092205244116485, 7180777.591956350952387 ], [ 697569.71482062083669, 7180790.589830558747053 ], [ 697587.586905322852544, 7180803.587703917175531 ], [ 697620.081602848367766, 7180819.835042968392372 ], [ 697641.203158584656194, 7180839.331854488700628 ], [ 697685.071011970518157, 7180905.945967898704112 ], [ 697707.8173023739364, 7180925.442778995260596 ], [ 697751.685145110357553, 7180951.438523593358696 ], [ 697770.369593313429505, 7180949.813783967867494 ], [ 697786.616936535108835, 7180936.815901705063879 ], [ 697804.489009304554202, 7180904.321201989427209 ], [ 697820.736348686972633, 7180876.700706958770752 ], [ 697846.732098606415093, 7180858.828617895022035 ], [ 697895.474134664982557, 7180844.205992402508855 ], [ 697918.220419951016083, 7180844.205986462533474 ], [ 697960.463516500080004, 7180826.333893151953816 ], [ 697981.585060718702152, 7180801.962866351008415 ], [ 698009.205543160671368, 7180775.967103099450469 ], [ 698048.199170805863105, 7180759.719745389185846 ], [ 698080.693862359505147, 7180753.220797888934612 ], [ 698111.563816257752478, 7180735.348707547411323 ], [ 698184.676864983164705, 7180693.105584879405797 ], [ 698210.672611469984986, 7180662.235617792233825 ], [ 698243.167301734676585, 7180650.862466030754149 ], [ 698265.913588296971284, 7180655.736664334312081 ], [ 698288.659869729657657, 7180641.114045618101954 ], [ 698322.77929037832655, 7180613.493545908480883 ], [ 698361.772910309373401, 7180568.000962654128671 ], [ 698376.395508584449999, 7180516.009446769021451 ], [ 698386.143901585950516, 7180459.143727911636233 ], [ 698375.583119863294996, 7180434.772709402255714 ], [ 698367.45943671267014, 7180397.403812242671847 ], [ 698357.711021039402112, 7180368.15858927089721 ], [ 698356.086278250091709, 7180337.288629421964288 ], [ 698359.335744579439051, 7180325.915485311299562 ], [ 698377.207820302224718, 7180304.793928869068623 ], [ 698414.576714108348824, 7180291.79604107607156 ], [ 698440.572463994612917, 7180273.92395200766623 ], [ 698489.314497863990255, 7180251.177652727812529 ], [ 698526.683390379534103, 7180233.30556067917496 ], [ 698552.679143258952536, 7180226.806614863686264 ], [ 698585.173834785120562, 7180220.307667346671224 ], [ 698612.79432318196632, 7180217.058190608397126 ], [ 698642.039549237815663, 7180225.181856699287891 ], [ 698672.909512099693529, 7180241.429196119308472 ], [ 698694.031064419774339, 7180247.928129585459828 ], [ 698724.901022998266853, 7180247.928121492266655 ], [ 698768.768855012836866, 7180233.305497230030596 ], [ 698804.513015862321481, 7180226.806548850610852 ], [ 698837.007706528063864, 7180217.058131819590926 ], [ 698856.504518184112385, 7180200.810779193416238 ], [ 698867.877653526724316, 7180173.190285443328321 ], [ 698869.502382613602094, 7180152.068733254447579 ], [ 698874.376580165931955, 7180127.697710711508989 ], [ 698874.37657458987087, 7180106.576158951967955 ], [ 698874.37656772765331, 7180080.580402940511703 ], [ 698874.376566012739204, 7180074.081463934853673 ], [ 698882.50023974920623, 7180075.706196555867791 ], [ 698892.248649435583502, 7180082.205132999457419 ], [ 698901.997062122682109, 7180100.077212699688971 ], [ 698923.118623450049199, 7180140.69557592831552 ], [ 698936.116513614077121, 7180189.437615044414997 ], [ 698949.114396485616453, 7180210.559163395315409 ], [ 698978.359625549986959, 7180230.055972730740905 ], [ 699010.854323510546237, 7180247.928046462126076 ], [ 699030.351144175510854, 7180265.800123604014516 ], [ 699062.845840850844979, 7180278.797993079759181 ], [ 699101.83948046900332, 7180308.043208359740674 ], [ 699114.837362489313819, 7180325.915287209674716 ], [ 699160.329945484991185, 7180373.032583044841886 ], [ 699189.575173272867687, 7180387.65518812276423 ], [ 699213.94619879196398, 7180408.776733485050499 ], [ 699241.566696644178592, 7180441.271421255543828 ], [ 699262.688249835278839, 7180451.019824212417006 ], [ 699296.807678605779074, 7180454.269284744746983 ], [ 699322.803430196479894, 7180442.896134648472071 ], [ 699360.98468530504033, 7180407.151960071176291 ], [ 699382.106231186189689, 7180389.27987225074321 ], [ 699406.477250691037625, 7180387.65513108856976 ], [ 699443.846150075900368, 7180395.778795011341572 ], [ 699494.212935792282224, 7180438.021885294467211 ], [ 699554.328128629596904, 7180477.015503507107496 ], [ 699586.822825323324651, 7180490.013372965157032 ], [ 699627.441197053180076, 7180509.510179286822677 ], [ 699643.688550136401318, 7180533.881196284666657 ], [ 699663.185370824299753, 7180551.753273418173194 ], [ 699694.055333290249109, 7180566.375878053717315 ], [ 699737.923170045949519, 7180569.625335996039212 ], [ 699775.2920677192742, 7180571.250060899183154 ], [ 699812.660967546282336, 7180580.998459560796618 ], [ 699838.656731199938804, 7180615.117882495746017 ], [ 699851.654612381593324, 7180629.740491839125752 ], [ 699876.02563534094952, 7180641.113628675229847 ], [ 699898.771924932370894, 7180657.360970196314156 ], [ 699913.394545089104213, 7180688.230926628224552 ], [ 699918.268756837816909, 7180717.476150881499052 ], [ 699928.017169989761896, 7180736.972965335473418 ], [ 699947.513991119689308, 7180756.469777220860124 ], [ 699975.94685074465815, 7180767.842912985011935 ], [ 699997.068401365424506, 7180767.842907413840294 ], [ 700036.062031554756686, 7180761.343958111479878 ], [ 700071.806191554991528, 7180751.595540164038539 ], [ 700110.799819155246951, 7180735.348182349465787 ], [ 700153.042918236809783, 7180727.224497433751822 ], [ 700179.038673277013004, 7180728.84922531992197 ], [ 700185.53761711041443, 7180748.346040630713105 ], [ 700180.66342045890633, 7180775.966532707214355 ], [ 700153.04293636395596, 7180795.463357027620077 ], [ 700107.55037011008244, 7180811.710716564208269 ], [ 700071.806211401941255, 7180826.333338771015406 ], [ 700055.558869515080005, 7180844.205425336956978 ], [ 700040.936270485399291, 7180892.947471771389246 ], [ 700040.936282994458452, 7180940.064779596403241 ], [ 700045.810495182056911, 7180970.934738611802459 ], [ 700068.556786943110637, 7180995.30575389880687 ], [ 700079.929940805886872, 7181037.548854470252991 ], [ 700076.680480107665062, 7181070.043550386093557 ], [ 700071.806283881189302, 7181099.28877722658217 ], [ 700078.305228577577509, 7181122.035062054172158 ], [ 700094.552578668226488, 7181135.032935789786279 ], [ 700114.049400677205995, 7181157.779217187315226 ], [ 700120.548347532167099, 7181188.649175779893994 ], [ 700131.921499242889695, 7181222.768602595664561 ], [ 700153.043058940442279, 7181256.888026839122176 ], [ 700167.665676096919924, 7181276.384840017184615 ], [ 700183.913030509604141, 7181305.630061287432909 ], [ 700190.411977368523367, 7181336.500019887462258 ], [ 700190.411989886546507, 7181383.617327740415931 ], [ 700172.53992325393483, 7181438.858314085751772 ], [ 700131.921566563774832, 7181476.22722414880991 ], [ 700092.927940220572054, 7181497.348786243237555 ], [ 700047.435373491374776, 7181511.971411037258804 ], [ 700016.565419604536146, 7181529.843501477502286 ], [ 699998.693343468243256, 7181549.340323238633573 ], [ 699960.512090054340661, 7181591.583436917513609 ], [ 699944.264748147805221, 7181609.455523500218987 ], [ 699934.516349210869521, 7181643.574955906718969 ], [ 699934.516357402200811, 7181674.444916238076985 ], [ 699934.516366455587558, 7181708.564346078783274 ], [ 699934.516375938779674, 7181744.308510674163699 ], [ 699934.516383699839935, 7181773.553736255504191 ], [ 699939.390595455886796, 7181802.79896055161953 ], [ 699950.763741562492214, 7181815.796835584565997 ], [ 699976.759497503051534, 7181820.67103299126029 ], [ 700015.75312688597478, 7181810.922614176757634 ], [ 700067.744629707187414, 7181786.551579137332737 ], [ 700111.612459630472586, 7181763.805280994623899 ], [ 700165.228699269122444, 7181747.557919293642044 ], [ 700223.719146354822442, 7181744.308434339240193 ], [ 700246.465433396631852, 7181750.807367345318198 ], [ 700270.836460285354406, 7181776.803116977214813 ], [ 700290.333279291749932, 7181788.176255106925964 ], [ 700311.454832532908767, 7181797.924658056348562 ], [ 700343.949528432218358, 7181807.673057993873954 ], [ 700400.815243449760601, 7181814.171981979161501 ], [ 700469.054094210034236, 7181794.675146881490946 ], [ 700516.171393885510042, 7181773.553582610562444 ], [ 700545.416615266818553, 7181763.805166345089674 ], [ 700574.661840107175522, 7181767.054628115147352 ], [ 700599.032863980275579, 7181781.677234457805753 ], [ 700618.529686884954572, 7181807.67298537120223 ], [ 700620.15443279792089, 7181849.916088562458754 ], [ 700605.531838975613937, 7181918.154952130280435 ], [ 700599.032909828703851, 7181953.899118456989527 ], [ 700590.909246015595272, 7181989.643285213038325 ], [ 700534.043548278510571, 7182048.133751440793276 ], [ 700509.672532180789858, 7182062.75637068413198 ], [ 700493.425189412198961, 7182077.378987777978182 ], [ 700482.052053234539926, 7182101.750012116506696 ], [ 700482.052063609706238, 7182140.743646239861846 ], [ 700477.177866527810693, 7182166.739403612911701 ], [ 700465.80473467009142, 7182207.357775506563485 ], [ 700456.056334019987844, 7182234.978268928825855 ], [ 700435.747164088417776, 7182285.345051721669734 ], [ 700409.75141720531974, 7182314.590284192934632 ], [ 700385.380406280513853, 7182348.709720507264137 ], [ 700370.757805082132109, 7182389.328093267977238 ], [ 700365.883614043239504, 7182438.070137232542038 ], [ 700367.508358646417037, 7182475.439036191441119 ], [ 700400.00306235300377, 7182514.43266174569726 ], [ 700419.499885270372033, 7182540.42841268889606 ], [ 700451.994583364343271, 7182558.300486415624619 ], [ 700489.363484596833587, 7182572.923089338466525 ], [ 700526.732390585937537, 7182605.417774578556418 ], [ 700537.441852277494036, 7182626.836684905923903 ], [ 700537.441849873168394, 7182617.806295522488654 ], [ 700573.171845793491229, 7182568.326270766556263 ], [ 700648.654940077103674, 7182539.066413244232535 ], [ 700696.235890364856459, 7182515.804598428308964 ], [ 700729.861858554766513, 7182466.626197849400342 ], [ 700779.341854285565205, 7182403.396165200509131 ], [ 700828.821852939901873, 7182351.166135956533253 ], [ 700864.355217509553768, 7182319.136589668691158 ], [ 700902.419980992912315, 7182312.79245170392096 ], [ 700938.370033326325938, 7182299.046831771731377 ], [ 700990.180400531971827, 7182270.498242589645088 ], [ 701065.221868256572634, 7182183.486021503806114 ], [ 701103.701869953190908, 7182153.246001959778368 ], [ 701158.68187510210555, 7182120.265977192670107 ], [ 701232.9018829226261, 7182079.025944764725864 ], [ 701304.371896650642157, 7182062.535920700058341 ], [ 701364.851904644980095, 7182035.045896153897047 ], [ 701419.821903158910573, 7181977.325863743200898 ], [ 701461.061907737050205, 7181955.335846001282334 ], [ 701551.771915292367339, 7181897.605804082006216 ], [ 701612.24192105664406, 7181861.865776984021068 ], [ 701664.471931352396496, 7181850.87575970031321 ], [ 701708.461935875704512, 7181826.135740369558334 ], [ 701771.681949685327709, 7181817.885721 ], [ 701826.661962141399272, 7181812.385704670101404 ], [ 701881.631972386501729, 7181798.64568579569459 ], [ 701922.871983572142199, 7181801.395675657317042 ], [ 701959.049075828399509, 7181803.048344126902521 ], [ 701988.244229055708274, 7181805.481265863403678 ], [ 702015.006456815404817, 7181822.511765334755182 ], [ 702056.366260867100209, 7181839.542260915972292 ], [ 702097.726069486699998, 7181873.603263100609183 ], [ 702156.116376600693911, 7181880.902036072686315 ], [ 702186.762066651135683, 7181861.865623956546187 ], [ 702227.992069722618908, 7181834.375604481436312 ], [ 702258.232072959188372, 7181817.885591330006719 ], [ 702310.136926608392969, 7181728.70282353553921 ], [ 702363.691762349219061, 7181675.147956176660955 ], [ 702420.412071958300658, 7181661.205499756149948 ], [ 702486.392071669921279, 7181597.975462659262121 ], [ 702579.852079064236023, 7181537.505419066175818 ], [ 702637.572081837337464, 7181493.51539009436965 ], [ 702684.302076651365496, 7181430.295358140952885 ], [ 702733.782052922411822, 7181295.605303470045328 ], [ 702745.269957769662142, 7181260.09774311631918 ], [ 702755.8856964209117, 7181223.563594285398722 ], [ 702754.728485819417983, 7181171.489745272323489 ], [ 702748.94248948933091, 7181121.730290800333023 ], [ 702758.658627056516707, 7181099.433180460706353 ], [ 702814.44492441706825, 7181081.581547863781452 ], [ 702865.819330549216829, 7181068.499213557690382 ], [ 702907.478403975139372, 7181054.612842591479421 ], [ 702912.462018119636923, 7180998.725164407864213 ], [ 702942.702010938082822, 7180943.745139425620437 ], [ 702961.94201134936884, 7180927.255129210650921 ], [ 703005.922014293726534, 7180897.015108146704733 ], [ 703033.412007150938734, 7180844.785084750503302 ], [ 703074.11464059096761, 7180787.300371525809169 ], [ 703157.112010166049004, 7180740.325019545853138 ], [ 703190.10200661898125, 7180696.344997210428119 ], [ 703209.342001085402444, 7180657.864980248734355 ], [ 703234.082000642549247, 7180633.124966027215123 ], [ 703245.071991546312347, 7180589.144949594512582 ], [ 703245.071982646477409, 7180556.154939480125904 ], [ 703228.581962183234282, 7180495.674925360828638 ], [ 703204.948868648847565, 7180447.849016172811389 ], [ 703173.708519003237598, 7180371.979649507440627 ], [ 703187.09722850099206, 7180360.822384885512292 ], [ 703240.652086353162304, 7180389.831249214708805 ], [ 703294.206943607190624, 7180416.60866133775562 ], [ 703379.771976480958983, 7180407.714857852086425 ], [ 703440.241982782026753, 7180374.724831515923142 ], [ 703577.691998033551499, 7180303.254772719927132 ], [ 703638.162013233406469, 7180303.254756476730108 ], [ 703704.142028336063959, 7180297.7647370621562 ], [ 703781.102055857656524, 7180327.9947256334126 ], [ 703836.082068193238229, 7180322.504709167405963 ], [ 703943.292086960515007, 7180292.264671064913273 ], [ 704017.512099661398679, 7180270.274644357152283 ], [ 704075.232105978531763, 7180240.034619558602571 ], [ 704121.962105060811155, 7180193.304592669010162 ], [ 704204.432113858754747, 7180149.324556992389262 ], [ 704281.402114555123262, 7180080.594515217468143 ], [ 704391.352119046030566, 7179995.384459510445595 ], [ 704534.302130295662209, 7179904.674393206834793 ], [ 704608.512130993651226, 7179838.694353008642793 ], [ 704690.982137485640123, 7179786.474314780905843 ], [ 704803.682144067948684, 7179706.754259979352355 ], [ 704883.868643457302824, 7179705.857018645852804 ], [ 704972.64977055718191, 7179746.724494716152549 ], [ 705029.018735005054623, 7179753.770600171759725 ], [ 705068.477004556567408, 7179738.269123951904476 ], [ 705103.707596547086723, 7179703.03851090464741 ], [ 705130.482847607927397, 7179680.490917408838868 ], [ 705155.848875756142661, 7179662.170996718108654 ], [ 705189.670254421420395, 7179666.39865998364985 ], [ 705229.128530492889695, 7179674.853994141332805 ], [ 705258.722234283573925, 7179669.217089565470815 ], [ 705271.405248163384385, 7179659.352517148479819 ], [ 705275.632914977264591, 7179639.623378034681082 ], [ 705254.494551344076172, 7179629.75881477817893 ], [ 705220.673172679264098, 7179625.531151516363025 ], [ 705193.897914330242202, 7179621.303486344404519 ], [ 705176.987222886411473, 7179611.438921941444278 ], [ 705162.894977650954388, 7179594.528236072510481 ], [ 705148.802732800133526, 7179579.02677434310317 ], [ 705137.528937226627022, 7179567.752984272316098 ], [ 705137.528932238696143, 7179549.433070449158549 ], [ 705144.57504526199773, 7179522.657809878699481 ], [ 705169.941072636283934, 7179501.519440909847617 ], [ 705202.045099137583748, 7179482.900733534246683 ], [ 705227.719246927183121, 7179456.424252782016993 ], [ 705237.583806536626071, 7179424.012094889767468 ], [ 705240.762167478678748, 7179390.634045241400599 ], [ 705240.762159989215434, 7179363.14403685554862 ], [ 705218.76214624918066, 7179332.904033591970801 ], [ 705169.282127884682268, 7179310.914040281437337 ], [ 705127.664289743057452, 7179277.452814104035497 ], [ 705078.341436819988303, 7179237.994551542215049 ], [ 705021.972465505357832, 7179205.582411583513021 ], [ 704961.375826994888484, 7179191.49018657580018 ], [ 704920.508327657124028, 7179185.853301071561873 ], [ 704888.902013663668185, 7179148.734066697768867 ], [ 704861.411988107487559, 7179080.014053190127015 ], [ 704817.4319591850508, 7179014.034044981002808 ], [ 704770.701934067998081, 7178964.554042543284595 ], [ 704710.221910011023283, 7178931.574048842303455 ], [ 704660.741891687852331, 7178909.584055512212217 ], [ 704633.251878108480014, 7178884.844055406749249 ], [ 704614.011863600695506, 7178849.104049721732736 ], [ 704614.011844936292619, 7178780.384028811939061 ], [ 704615.341961803729646, 7178679.349120550788939 ], [ 704602.144218916073442, 7178597.11716846562922 ], [ 704603.159412196604535, 7178538.235027113929391 ], [ 704622.261760381050408, 7178461.513929648324847 ], [ 704625.011742398026399, 7178392.793908031657338 ], [ 704614.011728459503502, 7178351.553898478858173 ], [ 704567.281706384383142, 7178313.073899410665035 ], [ 704493.06167598394677, 7178269.093906093388796 ], [ 704462.821659510489553, 7178236.10390423797071 ], [ 704451.83164409478195, 7178189.373893024399877 ], [ 704460.081634954549372, 7178148.143878288567066 ], [ 704479.321621083770879, 7178079.423852252773941 ], [ 704481.33415915328078, 7178021.493511790409684 ], [ 704427.091568570700474, 7177933.733822174370289 ], [ 704373.886662428034469, 7177881.509782513603568 ], [ 704330.881517100497149, 7177832.023817303590477 ], [ 704271.167747484636493, 7177781.327185779809952 ], [ 704264.91147687798366, 7177744.05380844604224 ], [ 704251.161448872182518, 7177653.343784687109292 ], [ 704204.431417915853672, 7177581.873775651678443 ], [ 704171.441402291064151, 7177554.383776222355664 ], [ 704077.981367968954146, 7177513.153788925148547 ], [ 704023.011346909333952, 7177485.663795411586761 ], [ 703954.281319469329901, 7177447.183802274055779 ], [ 703880.582250997191295, 7177426.249634867534041 ], [ 703791.812841174425557, 7177423.713389772921801 ], [ 703720.797301176469773, 7177376.792432898655534 ], [ 703680.216979971621186, 7177303.240643640980124 ], [ 703632.67118336702697, 7177238.263825617730618 ], [ 703583.191168901976198, 7177230.013836419209838 ], [ 703536.451152887777425, 7177213.523843992501497 ], [ 703519.961145097971894, 7177199.783844272606075 ], [ 703513.537773560732603, 7177185.341102488338947 ], [ 703518.329841152299196, 7177170.006470808759332 ], [ 703550.20114217302762, 7177161.293824523687363 ], [ 703605.181154278805479, 7177155.793808093294501 ], [ 703656.341494947206229, 7177124.960956951603293 ], [ 703703.303789396188222, 7177093.333269144408405 ], [ 703743.557183153228834, 7177060.747168742120266 ], [ 703778.361165109090507, 7177037.59372585080564 ], [ 703858.07116025115829, 7176946.883677034638822 ], [ 703924.051163147669286, 7176897.403644353151321 ], [ 703963.034015911165625, 7176866.188986632972956 ], [ 703982.202288050553761, 7176811.559360720217228 ], [ 703995.521134632639587, 7176726.973573718219995 ], [ 703987.271102077909745, 7176614.273541974835098 ], [ 703976.271082988358103, 7176553.793526716530323 ], [ 703967.085883521242067, 7176514.376357777044177 ], [ 703935.041041571996175, 7176438.34350304864347 ], [ 703918.551024859654717, 7176391.613493420183659 ], [ 703852.580992995412089, 7176333.883493795059621 ], [ 703792.100964722689241, 7176284.40349517762661 ], [ 703759.110945453052409, 7176243.173491644673049 ], [ 703742.620925781433471, 7176185.443478718400002 ], [ 703731.620901514659636, 7176105.733457710593939 ], [ 703731.620890360907651, 7176064.493445314466953 ], [ 703715.130878132535145, 7176034.263440662994981 ], [ 703726.130868192762136, 7175987.523423658683896 ], [ 703772.860861823661253, 7175921.553391275927424 ], [ 703819.59085693443194, 7175861.083360547199845 ], [ 703847.080851035425439, 7175814.353339119814336 ], [ 703874.570842155022547, 7175756.623314395546913 ], [ 703915.80083515367005, 7175693.403284328058362 ], [ 703968.030836050864309, 7175649.413257070817053 ], [ 703998.27084048918914, 7175638.423245633020997 ], [ 704019.580217669019476, 7175640.791905566118658 ], [ 704015.29579136450775, 7175636.864516699686646 ], [ 703991.899608148960397, 7175621.267069483175874 ], [ 703950.30639788613189, 7175609.568990543484688 ], [ 703923.010852916399017, 7175599.170695547945797 ], [ 703889.216366874752566, 7175579.673887750133872 ], [ 703832.025700088124722, 7175553.678147280588746 ], [ 703809.929303194396198, 7175532.881548539735377 ], [ 703796.931421406683512, 7175515.984310729429126 ], [ 703785.233326285728253, 7175495.187709192745388 ], [ 703763.13692763610743, 7175467.892171490937471 ], [ 703744.939892504015006, 7175441.896420530974865 ], [ 703715.044766474165954, 7175410.70152154751122 ], [ 703707.246034873533063, 7175391.204706755466759 ], [ 703695.547939756535925, 7175370.408105220645666 ], [ 703689.048998689977452, 7175361.309592422097921 ], [ 703676.051117962691933, 7175348.311717990785837 ], [ 703665.652812326676212, 7175334.014055067673326 ], [ 703660.453655467135832, 7175311.917663995176554 ], [ 703659.153862122329883, 7175291.121059665456414 ], [ 703659.153859661193565, 7175282.022545119747519 ], [ 703651.355131226824597, 7175274.223820462822914 ], [ 703640.956826997920871, 7175265.125308712013066 ], [ 703598.063828688580543, 7175252.127442315220833 ], [ 703566.868921978515573, 7175246.928299528546631 ], [ 703529.175071745063178, 7175223.532129394821823 ], [ 703500.579736616229638, 7175204.035320192575455 ], [ 703478.483338336111046, 7175178.039570283144712 ], [ 703461.586088482290506, 7175142.945304434746504 ], [ 703445.988629161845893, 7175118.249340573325753 ], [ 703429.091381068457849, 7175089.654013685882092 ], [ 703425.192011235747486, 7175064.958046685904264 ], [ 703419.992851926479489, 7175033.763141077011824 ], [ 703412.19411893223878, 7175009.06717512384057 ], [ 703400.496023128274828, 7174985.670998012647033 ], [ 703386.19835328659974, 7174967.473972765728831 ], [ 703365.401746950810775, 7174957.07567601185292 ], [ 703329.007687968784012, 7174946.677383448928595 ], [ 703300.412359871901572, 7174953.176330078393221 ], [ 703279.615759150125086, 7174963.574637994170189 ], [ 703253.620007193880156, 7174972.673159509897232 ], [ 703218.525743648759089, 7174990.87019800953567 ], [ 703197.729142222786322, 7174998.668930337764323 ], [ 703178.232328518293798, 7175006.467662317678332 ], [ 703152.236574806971475, 7175009.067244871519506 ], [ 703132.739759348798543, 7175010.367037890478969 ], [ 703105.444216513773426, 7175007.767469624057412 ], [ 703089.846757557941601, 7174984.37129355315119 ], [ 703072.94951123080682, 7174962.274905623868108 ], [ 703058.651841049431823, 7174942.77809257991612 ], [ 703024.857354709645733, 7174921.981496968306601 ], [ 702979.364779238821939, 7174902.48469228297472 ], [ 702945.570293603348546, 7174884.287672253325582 ], [ 702907.87644901056774, 7174881.688106765970588 ], [ 702888.379633556003682, 7174882.98789977747947 ], [ 702855.884945096448064, 7174899.885149771347642 ], [ 702828.589405417907983, 7174908.983671619556844 ], [ 702786.346304503502324, 7174908.983682928606868 ], [ 702765.549697477021255, 7174895.985810577869415 ], [ 702740.853730088798329, 7174893.386241601780057 ], [ 702710.95861251919996, 7174893.386249602772295 ], [ 702665.466042304760776, 7174893.386261772364378 ], [ 702629.071989979129285, 7174907.683937214314938 ], [ 702599.17687485658098, 7174916.7824597498402 ], [ 702574.4809081684798, 7174916.782466354779899 ], [ 702540.686427086708136, 7174915.482687596231699 ], [ 702509.491522145690396, 7174916.782483727671206 ], [ 702488.694917917833664, 7174914.182913703843951 ], [ 702463.99894878314808, 7174905.084405761212111 ], [ 702447.101704924600199, 7174892.086532359011471 ], [ 702439.30297441012226, 7174876.48908094316721 ], [ 702435.403605659026653, 7174855.692477321252227 ], [ 702419.806147075723857, 7174833.596089031547308 ], [ 702395.110173753579147, 7174808.900127591565251 ], [ 702373.013777269748971, 7174789.403316623531282 ], [ 702356.116531668347307, 7174769.906504264101386 ], [ 702336.619708182988688, 7174741.311178060248494 ], [ 702326.221402230905369, 7174725.713727341964841 ], [ 702310.623943305341527, 7174702.317551264539361 ], [ 702291.127120171906427, 7174675.022012853994966 ], [ 702276.829449666198343, 7174654.225412011146545 ], [ 702257.33262793160975, 7174632.129024767316878 ], [ 702230.03708232275676, 7174619.131154140457511 ], [ 702207.940691433148459, 7174620.430947829037905 ], [ 702180.645151757169515, 7174629.529469652101398 ], [ 702162.448126120027155, 7174638.627989046275616 ], [ 702152.699717871961184, 7174637.328203856013715 ], [ 702142.301414018496871, 7174629.529479883611202 ], [ 702129.303532283520326, 7174612.632242066785693 ], [ 702109.806711251847446, 7174593.135430401191115 ], [ 702094.209253032226115, 7174572.338829904794693 ], [ 702068.213490614667535, 7174542.443717643618584 ], [ 702056.515395905589685, 7174522.946903899312019 ], [ 702044.817296664230525, 7174486.552848873659968 ], [ 702037.018566859536804, 7174473.554973045364022 ], [ 702022.720900896587409, 7174469.655613485723734 ], [ 701999.324718805262819, 7174457.957529606297612 ], [ 701977.228327569784597, 7174457.957535495981574 ], [ 701962.930662654805928, 7174457.957539306953549 ], [ 701944.733632139163092, 7174448.859029620885849 ], [ 701922.637237071525306, 7174434.561369813047349 ], [ 701894.041901317075826, 7174412.464984990656376 ], [ 701873.245290833874606, 7174386.469234717078507 ], [ 701861.547196481609717, 7174368.272208763286471 ], [ 701853.748467030003667, 7174356.574120725505054 ], [ 701834.251647754339501, 7174343.576248011551797 ], [ 701814.754829872166738, 7174335.777526463381946 ], [ 701797.207693570642732, 7174327.97880439274013 ], [ 701771.211939529399388, 7174329.278599107638001 ], [ 701756.914274615352042, 7174329.278602914884686 ], [ 701728.318944092839956, 7174326.679034948348999 ], [ 701710.121917412150651, 7174331.878190955147147 ], [ 701691.924891777336597, 7174340.976710336282849 ], [ 701677.627228255849332, 7174346.175865305587649 ], [ 701656.830625439994037, 7174348.77544642239809 ], [ 701656.830624396563508, 7174344.876083049923182 ], [ 701656.830621263710782, 7174333.177992933429778 ], [ 701664.62934514391236, 7174324.079476322978735 ], [ 701690.625094310962595, 7174304.582652543671429 ], [ 701721.819995746598579, 7174290.284978542476892 ], [ 701747.815745259751566, 7174272.08794255182147 ], [ 701762.113404253032058, 7174249.991546306759119 ], [ 701784.209788167383522, 7174222.695996823720634 ], [ 701793.308297326555476, 7174204.49896533228457 ], [ 701803.706594203249551, 7174186.301933499053121 ], [ 701810.205530013423413, 7174175.903629444539547 ], [ 701819.304039867711253, 7174160.306173535995185 ], [ 701820.603822013246827, 7174139.50956854596734 ], [ 701819.304030462051742, 7174125.211903198622167 ], [ 701805.006360328174196, 7174105.715090153738856 ], [ 701790.708693329477683, 7174097.916367219761014 ], [ 701772.511664217920043, 7174094.017008695751429 ], [ 701756.914207759662531, 7174079.719347157515585 ], [ 701756.91420358105097, 7174064.121893675997853 ], [ 701760.813559076981619, 7174035.526561254635453 ], [ 701777.710788626922294, 7173995.233135260641575 ], [ 701779.010567988269031, 7173964.038227954879403 ], [ 701780.310350482235663, 7173944.541410759091377 ], [ 701776.410980361863039, 7173918.545655999332666 ], [ 701766.012669557472691, 7173884.75117623154074 ], [ 701753.014781228150241, 7173843.157970419153571 ], [ 701724.419443063437939, 7173811.963071081787348 ], [ 701697.123894707998261, 7173788.566898132674396 ], [ 701675.02749757503625, 7173766.470511592924595 ], [ 701659.430040081613697, 7173748.273486689664423 ], [ 701655.530670312233269, 7173723.577519725076854 ], [ 701632.134481290355325, 7173685.883680056780577 ], [ 701602.239353329176083, 7173646.890054328367114 ], [ 701590.541258298326284, 7173626.09345281124115 ], [ 701568.444861870375462, 7173606.596641849726439 ], [ 701566.495175421470776, 7173588.399613318964839 ], [ 701549.59792986814864, 7173568.902800971642137 ], [ 701527.501534486655146, 7173553.305353379808366 ], [ 701515.803445024299435, 7173553.305356493219733 ], [ 701493.707057294202968, 7173566.303240263834596 ], [ 701463.811945687863044, 7173588.399640630930662 ], [ 701441.715560390963219, 7173610.496038926765323 ], [ 701417.019599306164309, 7173631.292650122195482 ], [ 701388.424273330601864, 7173645.590323407202959 ], [ 701363.728307378245518, 7173648.189905550330877 ], [ 701344.231490910053253, 7173645.590335154905915 ], [ 701332.53339797060471, 7173632.592460369691253 ], [ 701316.935940140625462, 7173613.09564767498523 ], [ 701302.638269332819618, 7173590.999259054660797 ], [ 701288.340599917108193, 7173574.102021591737866 ], [ 701280.541872219298966, 7173568.902872506529093 ], [ 701267.543995038140565, 7173568.902875961735845 ], [ 701255.845908006187528, 7173578.001393593847752 ], [ 701251.946546936058439, 7173585.800121365115047 ], [ 701262.344856324838474, 7173614.395449968054891 ], [ 701275.342742537730373, 7173648.189929038286209 ], [ 701267.544023871188983, 7173676.785262478515506 ], [ 701255.845938574522734, 7173692.382719060406089 ], [ 701225.950826956890523, 7173714.479119423776865 ], [ 701188.256988679990172, 7173735.275734066963196 ], [ 701180.458267578156665, 7173754.772552981972694 ], [ 701175.25912364909891, 7173780.768310155719519 ], [ 701160.961466035689227, 7173808.063857534900308 ], [ 701145.364019664586522, 7173831.460041889920831 ], [ 701112.869332253234461, 7173852.256655154749751 ], [ 701072.575913323671557, 7173853.556453639641404 ], [ 701047.879943199921399, 7173840.558582295663655 ], [ 701030.982698348001577, 7173823.661345511674881 ], [ 700991.989063669927418, 7173811.963265752419829 ], [ 700975.741710943286307, 7173788.567089849151671 ], [ 700951.045743252150714, 7173784.66773303039372 ], [ 700919.850838008336723, 7173784.667741304263473 ], [ 700888.655937965610065, 7173804.164566422812641 ], [ 700857.461035495856777, 7173814.562877010554075 ], [ 700830.165494099492207, 7173817.162459827028215 ], [ 700791.17186496919021, 7173826.260984688997269 ], [ 700753.478019399335608, 7173819.762055732309818 ], [ 700727.482256713323295, 7173788.567155668511987 ], [ 700691.088195746415295, 7173770.370136252604425 ], [ 700649.494980098214, 7173737.875452531501651 ], [ 700602.702617735718377, 7173720.978223660029471 ], [ 700576.706863367464393, 7173720.97823054343462 ], [ 700542.912386151961982, 7173733.976117385551333 ], [ 700514.317064307746477, 7173763.871244113892317 ], [ 700489.621104231569916, 7173788.567218653857708 ], [ 700467.52471855271142, 7173809.363829135894775 ], [ 700446.728121284861118, 7173832.760014852508903 ], [ 700422.032164317322895, 7173869.154079498723149 ], [ 700397.336205964093097, 7173900.348992988467216 ], [ 700364.841518876259215, 7173922.445394011214375 ], [ 700329.74725462088827, 7173938.042856771498919 ], [ 700293.35320195381064, 7173951.040744291618466 ], [ 700279.055540849338286, 7173965.338413761928678 ], [ 700256.959156888420694, 7173992.633963191881776 ], [ 700236.162557188537903, 7174006.931634379550815 ], [ 700199.768504861043766, 7174021.229309686459601 ], [ 700167.273812579805963, 7174023.828893854282796 ], [ 700141.927954826387577, 7174034.227202869951725 ], [ 700080.837937216740102, 7174053.724035858176649 ], [ 700050.942826587124728, 7174079.719799553975463 ], [ 700001.550901205511764, 7174109.614931771531701 ], [ 699969.05621547694318, 7174136.910483943298459 ], [ 699956.058342427597381, 7174152.507940855808556 ], [ 699946.959837020724081, 7174185.002638015896082 ], [ 699933.961976738180965, 7174248.692243173718452 ], [ 699926.163255598046817, 7174268.189062088727951 ], [ 699914.465171645162627, 7174288.985669823363423 ], [ 699894.968362754792906, 7174314.981430778279901 ], [ 699863.773460939526558, 7174327.979316912591457 ], [ 699835.178130076965317, 7174324.079961085692048 ], [ 699792.285130165168084, 7174304.583155540749431 ], [ 699767.589159360621125, 7174288.985708566382527 ], [ 699737.694035955821164, 7174266.889324008487165 ], [ 699719.497000991832465, 7174240.89357299823314 ], [ 699703.899537331424654, 7174199.300367817282677 ], [ 699683.102925552870147, 7174168.105466330423951 ], [ 699650.608223616960458, 7174134.310992347076535 ], [ 699628.511823778506368, 7174101.816303417086601 ], [ 699618.113513068296015, 7174068.021823614835739 ], [ 699610.314777108142152, 7174031.627767546102405 ], [ 699602.516044594231062, 7174008.231589380651712 ], [ 699589.518163272063248, 7173992.634139321744442 ], [ 699563.522406140808016, 7173982.235843852162361 ], [ 699520.629410732421093, 7173979.636279569938779 ], [ 699503.732167977606878, 7173970.537769488990307 ], [ 699482.935563789098524, 7173967.938199386000633 ], [ 699456.939808379975148, 7173964.038842861540616 ], [ 699423.795226026093587, 7173980.936092855408788 ], [ 699387.40117678209208, 7174006.931858234107494 ], [ 699371.803729661740363, 7174027.728466980159283 ], [ 699349.707342569949105, 7174043.325926274061203 ], [ 699328.910740442457609, 7174048.525082908570766 ], [ 699305.514562189695425, 7174051.124664641916752 ], [ 699279.518807124812156, 7174048.525095901452005 ], [ 699244.424534931196831, 7174034.227439438924193 ], [ 699219.728564146440476, 7174018.629992453381419 ], [ 699176.835565641988069, 7174004.33233804255724 ], [ 699161.238107516663149, 7173983.535737505182624 ], [ 699146.940438141580671, 7173966.638499993830919 ], [ 699120.944677581544966, 7173943.24232660792768 ], [ 699107.946794894756749, 7173922.445725385099649 ], [ 699094.948908085585572, 7173886.051670687273145 ], [ 699072.852504844078794, 7173840.559103854000568 ], [ 699046.856742227333598, 7173809.364203730598092 ], [ 699010.462678554351442, 7173780.768881920725107 ], [ 698975.368404317530803, 7173758.672498714178801 ], [ 698961.070733920903876, 7173737.87589783873409 ], [ 698955.871576523408294, 7173713.17993120290339 ], [ 698958.471141658141278, 7173674.186296836473048 ], [ 698963.670287036686204, 7173653.389690840616822 ], [ 698963.67028154223226, 7173632.593086211942136 ], [ 698959.770914609427564, 7173618.295421553775668 ], [ 698941.573883465724066, 7173606.597336227074265 ], [ 698902.580252264859155, 7173607.897134255617857 ], [ 698853.188324810005724, 7173629.993539639748633 ], [ 698814.194698754814453, 7173650.790154505521059 ], [ 698795.347780957818031, 7173666.387612922117114 ], [ 698766.752452185610309, 7173670.286983793601394 ], [ 698740.756697134929709, 7173667.687415035441518 ], [ 698725.159240742446855, 7173653.389753442257643 ], [ 698718.660299065639265, 7173641.691665045917034 ], [ 698714.760929050855339, 7173615.695910280570388 ], [ 698713.461133101140149, 7173584.501003677025437 ], [ 698718.660277113784105, 7173558.505246529355645 ], [ 698719.960057629272342, 7173531.209702615626156 ], [ 698719.960051113390364, 7173506.513734621927142 ], [ 698719.960043910541572, 7173479.218191051855683 ], [ 698714.760888921562582, 7173463.620738947764039 ], [ 698701.763010029448196, 7173457.121803411282599 ], [ 698686.16555741475895, 7173457.121807502582669 ], [ 698667.968532107071951, 7173467.520114586688578 ], [ 698644.572358327917755, 7173487.016937557607889 ], [ 698631.574488005368039, 7173513.01269674859941 ], [ 698618.576616652659141, 7173535.109092570841312 ], [ 698605.578742215060629, 7173545.507398292422295 ], [ 698580.882777971564792, 7173554.605919289402664 ], [ 698549.687874109251425, 7173559.805078623816371 ], [ 698528.891267194296233, 7173546.807206182740629 ], [ 698513.293809780152515, 7173528.610181219875813 ], [ 698496.396564307622612, 7173509.113368810154498 ], [ 698467.801228689728305, 7173487.016983889043331 ], [ 698434.006743571255356, 7173470.119751483201981 ], [ 698400.212258796556853, 7173454.522306866943836 ], [ 698330.02372031880077, 7173448.023386300541461 ], [ 698320.925206294399686, 7173448.023388681933284 ], [ 698296.229241709574126, 7173455.822121881879866 ], [ 698278.032219818211161, 7173479.218306845985353 ], [ 698249.43689584126696, 7173501.314706745557487 ], [ 698235.139237102586776, 7173524.710890689864755 ], [ 698222.141366081079468, 7173548.10707429703325 ], [ 698202.644557495019399, 7173575.402622970752418 ], [ 698188.3468953325646, 7173585.800929022952914 ], [ 698157.151997280190699, 7173613.096480758860707 ], [ 698141.554550477536395, 7173635.192877256311476 ], [ 698105.160500865080394, 7173659.888854773715138 ], [ 698084.363897372619249, 7173659.888860210776329 ], [ 698051.869204757967964, 7173661.188656495884061 ], [ 698016.125037039280869, 7173640.392061211168766 ], [ 698003.127155756577849, 7173624.794611135497689 ], [ 697978.431186036439613, 7173613.096527487039566 ], [ 697961.533943309215829, 7173603.998017378151417 ], [ 697938.137764723738655, 7173605.297811280936003 ], [ 697903.043498383834958, 7173613.096547183580697 ], [ 697870.54880816291552, 7173623.494857987388968 ], [ 697831.555184812983498, 7173654.689775113016367 ], [ 697791.261773399310187, 7173684.584904789924622 ], [ 697763.966236777836457, 7173705.381516547873616 ], [ 697719.773460156749934, 7173727.477920503355563 ], [ 697687.278770951204933, 7173741.775594666600227 ], [ 697649.584929848904721, 7173752.173906818032265 ], [ 697624.888965929043479, 7173762.572215577587485 ], [ 697605.392153563327156, 7173775.570098558440804 ], [ 697583.295769511605613, 7173802.865647902712226 ], [ 697585.895351769751869, 7173828.861403017304838 ], [ 697597.593449761741795, 7173861.356094708666205 ], [ 697609.291550483438186, 7173904.24908871948719 ], [ 697601.492835426004604, 7173947.142087815329432 ], [ 697583.945703952689655, 7173957.540394712239504 ], [ 697556.650161858648062, 7173957.540401831269264 ], [ 697537.153345054830424, 7173953.641043544746935 ], [ 697509.857798530138098, 7173936.743809392675757 ], [ 697465.665009618503973, 7173912.047852907329798 ], [ 697425.371584888547659, 7173891.25125877186656 ], [ 697381.178799390443601, 7173879.553180180490017 ], [ 697330.487078024540097, 7173878.253405595198274 ], [ 697290.19365874864161, 7173878.25341609120369 ], [ 697234.302788551547565, 7173884.752369591966271 ], [ 697194.009374039364047, 7173902.949409137479961 ], [ 697153.71596156747546, 7173928.945175420492887 ], [ 697126.420422197435983, 7173939.343484841287136 ], [ 697096.525304666371085, 7173939.343492617830634 ], [ 697066.630184416775592, 7173928.945198077708483 ], [ 697038.034852905897424, 7173922.446266565471888 ], [ 697005.540160279138945, 7173923.746062806807458 ], [ 696978.244621245888993, 7173935.444160011596978 ], [ 696945.749934738967568, 7173960.140136467292905 ], [ 696914.555033567594364, 7173975.737598055973649 ], [ 696887.259495890582912, 7173992.634846417233348 ], [ 696864.513212510850281, 7173999.133791279047728 ], [ 696833.318307260866277, 7173999.133799385279417 ], [ 696813.821486043627374, 7173978.337199810892344 ], [ 696791.725086673744954, 7173947.14229859597981 ], [ 696774.827841574908234, 7173928.945273925550282 ], [ 696755.331023078528233, 7173918.546976671554148 ], [ 696712.438026665826328, 7173912.048048861324787 ], [ 696682.542909477488138, 7173913.34784441255033 ], [ 696643.549278596998192, 7173915.947430117055774 ], [ 696635.750552284996957, 7173915.947432139888406 ], [ 696588.958191698533483, 7173905.549141965806484 ], [ 696564.262218939024024, 7173882.152968158945441 ], [ 696538.266455748351291, 7173848.358492368832231 ], [ 696524.228742417064495, 7173825.482230913825333 ], [ 696508.631284368690103, 7173804.685630327090621 ], [ 696485.755014826660044, 7173782.849201394245028 ], [ 696473.277050833334215, 7173775.570393009111285 ], [ 696454.560107687138952, 7173775.570397865027189 ], [ 696429.604185121366754, 7173781.809385725297034 ], [ 696416.086393391480669, 7173783.889049692079425 ], [ 696395.289790439768694, 7173785.968715547583997 ], [ 696384.891488691675477, 7173785.968718242831528 ], [ 696354.736413081991486, 7173783.889065595343709 ], [ 696325.621166563825682, 7173777.650091752409935 ], [ 696305.864391075563617, 7173769.331455020233989 ], [ 696294.426257798681036, 7173764.132306825369596 ], [ 696282.988125605741516, 7173763.092479555867612 ], [ 696265.311012636288069, 7173763.092484137043357 ], [ 696250.75338775140699, 7173753.734015824273229 ], [ 696235.155930254841223, 7173735.017075695097446 ], [ 696222.677963280817494, 7173716.300134760327637 ], [ 696218.518637977540493, 7173698.623021900653839 ], [ 696210.199990078224801, 7173673.667098497971892 ], [ 696202.921173980692402, 7173654.950156219303608 ], [ 696189.403377377078868, 7173638.312876015901566 ], [ 696177.965243559796363, 7173631.03406735882163 ], [ 696163.40762030496262, 7173627.914580434560776 ], [ 696144.690677164355293, 7173627.914585281163454 ], [ 696116.615262452629395, 7173627.914592547342181 ], [ 696080.22120796807576, 7173634.15358335711062 ], [ 696051.105965788592584, 7173644.551893207244575 ], [ 696025.110215756576508, 7173661.189183637499809 ], [ 695981.437355461996049, 7173688.224780954420567 ], [ 695914.888232132536359, 7173718.379874881356955 ], [ 695886.812821203609928, 7173732.937505383044481 ], [ 695861.85690025659278, 7173745.415474613197148 ], [ 695841.060298657044768, 7173752.694291611202061 ], [ 695817.144206531811506, 7173759.973109414801002 ], [ 695794.267945663304999, 7173771.411247873678803 ], [ 695780.750156635185704, 7173783.889214147813618 ], [ 695752.67474786308594, 7173806.765486499294639 ], [ 695746.435771409422159, 7173824.442602050490677 ], [ 695736.037479391903616, 7173861.876493077725172 ], [ 695736.037485338398255, 7173884.752758176997304 ], [ 695722.519703063182533, 7173923.22648024559021 ], [ 695705.882430803379975, 7173963.779863584786654 ], [ 695699.123540069907904, 7173984.576469969004393 ], [ 695684.565922484034672, 7174003.29341790266335 ], [ 695664.809156181057915, 7174030.329009037464857 ], [ 695649.211709228577092, 7174052.165447937324643 ], [ 695637.7735832456965, 7174075.041715993545949 ], [ 695624.25579691096209, 7174097.917984591796994 ], [ 695615.937160911620595, 7174118.714591380208731 ], [ 695611.77784372237511, 7174132.232385470531881 ], [ 695582.66260961862281, 7174173.825602275319397 ], [ 695564.985503930016421, 7174201.901023106649518 ], [ 695543.149075378663838, 7174221.657803155481815 ], [ 695526.51179635245353, 7174236.215430699288845 ], [ 695503.635536273475736, 7174250.773059856146574 ], [ 695489.077915438101627, 7174257.012045006267726 ], [ 695465.161823562928475, 7174265.33069303445518 ], [ 695439.166069178958423, 7174265.33069974090904 ], [ 695412.130481651984155, 7174253.892574159428477 ], [ 695389.254213477019221, 7174237.255296343937516 ], [ 695359.099132728297263, 7174215.418869243003428 ], [ 695347.660997832543217, 7174203.980739638209343 ], [ 695332.06354358443059, 7174197.741762266494334 ], [ 695289.430506666772999, 7174198.781603490002453 ], [ 695270.71356297377497, 7174196.701947847381234 ], [ 695249.916956232511438, 7174184.223990423604846 ], [ 695224.961029330617748, 7174173.825694533064961 ], [ 695196.885613250313327, 7174168.626550605520606 ], [ 695153.212745621334761, 7174167.586731625720859 ], [ 695119.938180821947753, 7174170.706230893731117 ], [ 695089.783106548478827, 7174173.825729355216026 ], [ 695053.908969541545957, 7174189.423192075453699 ], [ 695024.793729480472393, 7174208.140143750235438 ], [ 695007.116624308866449, 7174238.295225034467876 ], [ 694988.399686536518857, 7174259.091834498569369 ], [ 694971.762407769681886, 7174274.689292263239622 ], [ 694947.846317504299805, 7174289.246921670623124 ], [ 694910.412434418220073, 7174301.724894089624286 ], [ 694874.018378009204753, 7174300.685073220171034 ], [ 694859.46075609093532, 7174302.764737428165972 ], [ 694840.743812933331355, 7174302.76474224217236 ], [ 694823.06669887539465, 7174298.605425858870149 ], [ 694803.309922852902673, 7174288.207128616049886 ], [ 694780.433657648973167, 7174283.007983336225152 ], [ 694749.23875158012379, 7174279.88850065972656 ], [ 694734.681126973591745, 7174271.569862542673945 ], [ 694713.884521853644401, 7174265.330886494368315 ], [ 694703.486220099264756, 7174265.330889167264104 ], [ 694691.00825853284914, 7174267.410552838817239 ], [ 694681.649787491420284, 7174269.49021570943296 ], [ 694672.291316720307805, 7174272.609708809293807 ], [ 694665.012507104547694, 7174278.848692074418068 ], [ 694658.773527933633886, 7174286.127505302429199 ], [ 694651.494721006369218, 7174302.764790888875723 ], [ 694647.335404067416675, 7174317.322415211237967 ], [ 694642.136258833343163, 7174339.158851427957416 ], [ 694640.056602782686241, 7174355.796135678887367 ], [ 694627.578650887007825, 7174395.309687716886401 ], [ 694622.379504846292548, 7174414.026633236557245 ], [ 694613.021036758786067, 7174427.54442866332829 ], [ 694599.503248774912208, 7174444.181715857237577 ], [ 694578.186735010705888, 7174462.898665515705943 ], [ 694556.350302128004842, 7174466.018161822110415 ], [ 694531.394378181546926, 7174467.057998463511467 ], [ 694507.478285215911455, 7174471.217325535602868 ], [ 694487.721513758180663, 7174478.496142234653234 ], [ 694458.606271524098702, 7174488.894452033564448 ], [ 694436.769840519526042, 7174499.292759963311255 ], [ 694418.052899236558005, 7174506.571576396003366 ], [ 694387.897826555767097, 7174515.930056228302419 ], [ 694365.021564300754108, 7174522.169043492525816 ], [ 694335.906326089054346, 7174548.164806778542697 ], [ 694296.39278718852438, 7174578.319893660023808 ], [ 694265.197888084687293, 7174602.235997011885047 ], [ 694230.883504079421982, 7174647.988536052405834 ], [ 694216.325892342603765, 7174689.581749096512794 ], [ 694203.8479374719318, 7174717.65716858394444 ], [ 694188.250490194419399, 7174738.453777238726616 ], [ 694177.852194332634099, 7174761.330045029520988 ], [ 694166.414069633930922, 7174789.405464250594378 ], [ 694163.814499554806389, 7174810.202069576829672 ], [ 694152.376374319195747, 7174836.197828336618841 ], [ 694131.579775620135479, 7174854.914777860045433 ], [ 694112.862837808672339, 7174875.711387317627668 ], [ 694100.384881053934805, 7174896.507995177060366 ], [ 694089.986586527200416, 7174924.583414135500789 ], [ 694089.986591887543909, 7174945.380018800497055 ], [ 694095.185748127987608, 7174966.176622132770717 ], [ 694106.623885694425553, 7174988.013054101727903 ], [ 694125.340835302486084, 7175012.968974903225899 ], [ 694129.50015922402963, 7175025.446936639025807 ], [ 694135.739144839346409, 7175043.124049006961286 ], [ 694139.898472246015444, 7175069.119803776033223 ], [ 694143.01796840399038, 7175090.956237877719104 ], [ 694143.017975641065277, 7175119.031654180027544 ], [ 694140.938320380402729, 7175138.788429150357842 ], [ 694135.739174590446055, 7175158.545204917900264 ], [ 694119.101897123502567, 7175179.341813853010535 ], [ 694101.42478814185597, 7175194.939271883107722 ], [ 694085.307427637977526, 7175223.014692320488393 ], [ 694073.869298642268404, 7175234.45282781869173 ], [ 694039.554906025528908, 7175246.930799409747124 ], [ 694014.598982051480561, 7175247.970636036247015 ], [ 693985.483737371047027, 7175249.010473724454641 ], [ 693954.288832337595522, 7175250.05031194537878 ], [ 693942.850700393668376, 7175250.050314872525632 ], [ 693926.213415960082784, 7175243.811337729915977 ], [ 693900.217661274131387, 7175242.77151414938271 ], [ 693878.381228366051801, 7175245.891010438092053 ], [ 693860.704117503250018, 7175254.209656829945743 ], [ 693844.066837620455772, 7175265.647793657146394 ], [ 693821.190577744389884, 7175281.24525301437825 ], [ 693809.232537133502774, 7175306.201181681826711 ], [ 693799.874069288372993, 7175320.758807349950075 ], [ 693793.63509277603589, 7175338.435922918841243 ], [ 693790.515608131070621, 7175361.31218885909766 ], [ 693790.515614284784533, 7175385.228284236043692 ], [ 693786.356300266459584, 7175411.22404114715755 ], [ 693779.077492236741818, 7175423.702005815692246 ], [ 693766.599530916428193, 7175426.821499708108604 ], [ 693759.320717538008466, 7175418.502859696745872 ], [ 693753.081733265309595, 7175406.024898486211896 ], [ 693741.643595703411847, 7175384.188466501422226 ], [ 693734.364779382012784, 7175364.431693920865655 ], [ 693720.846980130067095, 7175337.396111297421157 ], [ 693710.448673546779901, 7175318.679169749841094 ], [ 693689.652065196540207, 7175299.962230859324336 ], [ 693660.536815166706219, 7175280.205463862046599 ], [ 693626.222416927921586, 7175270.847000528126955 ], [ 693576.310567375039682, 7175266.687692346982658 ], [ 693561.752945702057332, 7175269.807186767458916 ], [ 693548.235155809554271, 7175279.165662324056029 ], [ 693538.876686891075224, 7175289.563967051915824 ], [ 693528.478387794457376, 7175299.962272045202553 ], [ 693507.681787999346852, 7175314.519900629296899 ], [ 693473.36739456851501, 7175323.878381494432688 ], [ 693445.291980596142821, 7175326.997879363596439 ], [ 693408.897924940101802, 7175329.077549124136567 ], [ 693355.866588590783067, 7175339.475864998064935 ], [ 693325.71151639893651, 7175350.914005262777209 ], [ 693294.516614829655737, 7175365.471636495552957 ], [ 693245.644604254513979, 7175395.626725742593408 ], [ 693223.808173738885671, 7175408.104694116860628 ], [ 693177.015818443382159, 7175418.503008387982845 ], [ 693135.422612700145692, 7175423.70217015966773 ], [ 693088.63025473698508, 7175423.702182088047266 ], [ 693052.236198276630603, 7175422.66236112639308 ], [ 693031.959507427527569, 7175413.303894190117717 ], [ 693017.401882818434387, 7175404.985256027430296 ], [ 692993.485786618315615, 7175396.666620250791311 ], [ 692972.689180149114691, 7175385.228492974303663 ], [ 692948.773084216285497, 7175377.949687426909804 ], [ 692926.936650500865653, 7175377.94969298876822 ], [ 692916.538350064191036, 7175383.148846806026995 ], [ 692899.901071494910866, 7175399.786134781315923 ], [ 692873.905326390871778, 7175436.180199584923685 ], [ 692840.63077004707884, 7175472.574266243726015 ], [ 692822.953663691761903, 7175498.570026589557528 ], [ 692804.236726361443289, 7175521.446296500042081 ], [ 692786.559619206353091, 7175544.322566146031022 ], [ 692758.484211875707842, 7175573.437819842249155 ], [ 692725.729565817513503, 7175591.114942155778408 ], [ 692701.813476531184278, 7175609.83189245313406 ], [ 692678.937215559650213, 7175621.270030845887959 ], [ 692661.260105206514709, 7175631.66833768133074 ], [ 692644.622823966084979, 7175637.907323317602277 ], [ 692623.826221484690905, 7175642.066649542190135 ], [ 692609.268598205642775, 7175638.947162540629506 ], [ 692595.750804039649665, 7175631.668354336172342 ], [ 692585.352501204703003, 7175627.509036043658853 ], [ 692575.994028546614572, 7175623.349717486649752 ], [ 692566.635556419729255, 7175621.270059396512806 ], [ 692546.878782785963267, 7175620.230234181508422 ], [ 692526.082180304685608, 7175624.389560404233634 ], [ 692506.325410127523355, 7175636.867528233677149 ], [ 692488.648300834698603, 7175651.425156001932919 ], [ 692475.13051118736621, 7175661.823461778461933 ], [ 692454.333909501321614, 7175669.102278703823686 ], [ 692434.577138258493505, 7175677.420925591140985 ], [ 692403.382234533899464, 7175683.659914921969175 ], [ 692364.908519299933687, 7175688.859075861051679 ], [ 692343.072085577528924, 7175688.859081405214965 ], [ 692321.235651853960007, 7175688.859086947515607 ], [ 692292.120406889705919, 7175688.859094337560236 ], [ 692263.005161924869753, 7175688.859101725742221 ], [ 692244.28822059056256, 7175696.137918115593493 ], [ 692215.172978809918277, 7175708.615888312458992 ], [ 692185.017910300754011, 7175734.611651817336679 ], [ 692139.265393635607325, 7175778.284533264115453 ], [ 692109.110326446942054, 7175809.47944794036448 ], [ 692069.596789779723622, 7175848.993006866425276 ], [ 692032.162910015322268, 7175874.988772217184305 ], [ 691991.609543958096765, 7175917.62182210944593 ], [ 691982.251076334971003, 7175933.219277996569872 ], [ 691977.051931542227976, 7175957.135374709963799 ], [ 691977.051936843781732, 7175977.931979401037097 ], [ 691977.051943999016657, 7176006.007395737804472 ], [ 691971.852800530963577, 7176035.12264362629503 ], [ 691957.295184932881966, 7176062.158233417198062 ], [ 691939.61807826871518, 7176087.114163530059159 ], [ 691923.500715546077117, 7176106.87094207201153 ], [ 691902.704114107764326, 7176115.189589219167829 ], [ 691879.827853637863882, 7176128.707388063892722 ], [ 691865.270235650474206, 7176146.384505745023489 ], [ 691852.792281195055693, 7176176.539585715159774 ], [ 691830.955853019026108, 7176198.37602617777884 ], [ 691808.079596252879128, 7176226.451448310166597 ], [ 691803.920277923811227, 7176235.80992147885263 ], [ 691804.960114721092395, 7176261.805677091702819 ], [ 691807.039777990779839, 7176273.24380914773792 ], [ 691807.039782491163351, 7176290.920923143625259 ], [ 691799.760977334575728, 7176314.837020393460989 ], [ 691770.645742140361108, 7176353.310746462084353 ], [ 691747.769485102733597, 7176380.346338367089629 ], [ 691747.24957980774343, 7176418.820057201199234 ], [ 691743.090264916769229, 7176441.696323428303003 ], [ 691743.090272594476119, 7176471.851400252431631 ], [ 691742.050452473340556, 7176511.364949458278716 ], [ 691738.93096961453557, 7176541.520027073100209 ], [ 691738.930976761272177, 7176569.595443429425359 ], [ 691744.130133212776855, 7176591.431877058930695 ], [ 691751.408950021024793, 7176613.268310163170099 ], [ 691754.528445851523429, 7176634.064914083108306 ], [ 691744.130148829426616, 7176652.781860955059528 ], [ 691719.174228247487918, 7176667.339490567333996 ], [ 691693.178475104039535, 7176672.538648322224617 ], [ 691669.262380731292069, 7176671.498824135400355 ], [ 691648.465774776181206, 7176662.140357277356088 ], [ 691643.266619914211333, 7176646.542905056849122 ], [ 691641.186951885931194, 7176616.387828754261136 ], [ 691641.186943419277668, 7176583.11326121725142 ], [ 691641.186935482313856, 7176551.91835415456444 ], [ 691633.908118943567388, 7176531.121751287020743 ], [ 691621.430154684814624, 7176522.803112561814487 ], [ 691607.912361836060882, 7176520.72345550917089 ], [ 691580.876779047539458, 7176528.002273991703987 ], [ 691553.841199432383291, 7176547.75905530154705 ], [ 691525.765787521610036, 7176559.197194986045361 ], [ 691499.770036495989189, 7176572.714994616806507 ], [ 691457.137002347968519, 7176585.192968215793371 ], [ 691412.424308368936181, 7176599.750602807849646 ], [ 691379.149745296686888, 7176610.148913568817079 ], [ 691346.915013722027652, 7176625.746375242248178 ], [ 691311.560792668606155, 7176645.503158645704389 ], [ 691278.28623144235462, 7176663.180281049571931 ], [ 691249.170989609556273, 7176675.658251225948334 ], [ 691238.252773261279799, 7176677.737914451397955 ], [ 691212.25701932166703, 7176679.817581484094262 ], [ 691192.500246191280894, 7176680.857416704297066 ], [ 691165.464661281788722, 7176679.817593289539218 ], [ 691154.026527734473348, 7176673.578614762052894 ], [ 691147.787545078550465, 7176667.339634921401739 ], [ 691133.229919411125593, 7176654.861675770021975 ], [ 691122.831615249509923, 7176645.503206270746887 ], [ 691113.47314126836136, 7176636.1447365116328 ], [ 691098.915516128297895, 7176625.746437828987837 ], [ 691079.158740361686796, 7176616.387970691546798 ], [ 691056.282475378247909, 7176612.22865551803261 ], [ 691035.485871015116572, 7176609.109170055016875 ], [ 691019.88841860066168, 7176610.14900422282517 ], [ 691007.41045935859438, 7176621.587139958515763 ], [ 690990.773182037868537, 7176643.423579098656774 ], [ 690962.697778550558724, 7176688.136286304332316 ], [ 690940.861354024498723, 7176724.530350052751601 ], [ 690908.626629289472476, 7176767.163397837430239 ], [ 690884.710544663132168, 7176804.59729235060513 ], [ 690864.953781277406961, 7176844.110846286639571 ], [ 690830.639394858037122, 7176881.544743419624865 ], [ 690814.002120160148479, 7176913.779484920203686 ], [ 690804.643657240783796, 7176948.093885064125061 ], [ 690800.484344953671098, 7176981.36845366191119 ], [ 690800.484351011924446, 7177005.284549091011286 ], [ 690796.325035825720988, 7177027.120985094457865 ], [ 690785.926738512818702, 7177044.798101725056767 ], [ 690773.968696454074234, 7177064.55487922206521 ], [ 690765.650059762177989, 7177083.271825568750501 ], [ 690759.411082899197936, 7177099.909110916778445 ], [ 690746.933126540738158, 7177122.785379255190492 ], [ 690734.455167812760919, 7177136.303175466135144 ], [ 690731.335677538998425, 7177137.343006486073136 ], [ 690725.096695146989077, 7177132.143856877461076 ], [ 690712.618731151684187, 7177124.865048363804817 ], [ 690705.339917791076005, 7177116.546408304944634 ], [ 690694.941613630042411, 7177107.18793879635632 ], [ 690681.423819193150848, 7177098.869300309568644 ], [ 690671.025516085210256, 7177093.670151745900512 ], [ 690658.547554460004903, 7177095.749815356917679 ], [ 690641.910274486988783, 7177107.187952140346169 ], [ 690629.432316810591146, 7177124.865069296211004 ], [ 690623.193342049373314, 7177149.820996534079313 ], [ 690605.516234790557064, 7177172.697266177274287 ], [ 690588.878957445267588, 7177194.533705327659845 ], [ 690559.763723208685406, 7177237.166752337478101 ], [ 690547.28576736827381, 7177262.122681146487594 ], [ 690534.807811001432128, 7177284.998949486762285 ], [ 690517.130702683702111, 7177303.715898185968399 ], [ 690507.772233959869482, 7177315.154033141210675 ], [ 690502.573087532655336, 7177332.831148467957973 ], [ 690498.41377260023728, 7177355.707414716482162 ], [ 690491.134966865647584, 7177377.543851513415575 ], [ 690476.57734987186268, 7177399.380290141329169 ], [ 690452.661259945831262, 7177416.01757993735373 ], [ 690419.386697877082042, 7177430.575211612507701 ], [ 690404.829076937981881, 7177436.814196690917015 ], [ 690381.952815875061788, 7177448.252335040830076 ], [ 690347.638424935983494, 7177468.009118157438934 ], [ 690334.120634175953455, 7177474.24810297600925 ], [ 690308.124879419687204, 7177473.208279266953468 ], [ 690288.368103639921173, 7177463.849812096916139 ], [ 690262.372345732990652, 7177450.332025548443198 ], [ 690247.294805500190705, 7177439.933726966381073 ], [ 690232.73718193534296, 7177435.774409675970674 ], [ 690221.299049169872887, 7177432.654921839013696 ], [ 690197.382954249624163, 7177429.535437129437923 ], [ 690182.825332258827984, 7177431.615101255476475 ], [ 690165.148220516857691, 7177436.814256876707077 ], [ 690126.67450780433137, 7177452.411720080301166 ], [ 690093.39994651300367, 7177470.088842452503741 ], [ 690068.444028234807774, 7177494.004944155924022 ], [ 690044.527946690563112, 7177543.916801517829299 ], [ 690043.48813067865558, 7177600.067634565755725 ], [ 690047.647465302143246, 7177655.178636078722775 ], [ 690052.846632728469558, 7177720.687939704395831 ], [ 690049.727153469109908, 7177765.400640679523349 ], [ 690027.890730703016743, 7177809.073516113683581 ], [ 689999.81532213173341, 7177834.029448846355081 ], [ 689982.13821326289326, 7177850.666737074032426 ], [ 689961.341616999590769, 7177879.781988929957151 ], [ 689938.985277300002053, 7177916.176052837632596 ], [ 689927.547151870909147, 7177942.171811635605991 ], [ 689905.7107254199218, 7177971.287063756026328 ], [ 689880.754808691097423, 7178001.442146893590689 ], [ 689847.480251039960422, 7178033.676892591640353 ], [ 689821.484502290608361, 7178056.553164327517152 ], [ 689807.966716756578535, 7178083.58875388931483 ], [ 689781.970968528534286, 7178108.544686099514365 ], [ 689750.776065989397466, 7178119.9828265234828 ], [ 689710.222688683774322, 7178118.943006441928446 ], [ 689685.26676330040209, 7178114.783691737800837 ], [ 689645.753217222401872, 7178117.903192337602377 ], [ 689612.478655368089676, 7178133.50065422989428 ], [ 689549.049021673970856, 7178162.615916750393808 ], [ 689514.734634344116785, 7178196.930323176085949 ], [ 689485.619402360869572, 7178248.921842341311276 ], [ 689471.061790812760592, 7178292.594715969637036 ], [ 689450.265211254125461, 7178388.259103054180741 ], [ 689428.428784249932505, 7178415.294694699347019 ], [ 689405.552526019047946, 7178438.170965652912855 ], [ 689381.636438650661148, 7178465.20655781775713 ], [ 689375.397464099456556, 7178491.202315330505371 ], [ 689377.477132042055018, 7178521.357391715049744 ], [ 689389.955103626241907, 7178558.791277170181274 ], [ 689401.393243986996822, 7178592.065841934643686 ], [ 689412.831389053491876, 7178644.05735098849982 ], [ 689423.229700278840028, 7178681.491236968897283 ], [ 689427.389028846984729, 7178712.686143081635237 ], [ 689427.389039045665413, 7178753.239522380754352 ], [ 689426.349219060502946, 7178793.79290194157511 ], [ 689405.552628762088716, 7178846.824249302968383 ], [ 689385.795863676001318, 7178880.098821876570582 ], [ 689361.879779429640621, 7178919.612376923672855 ], [ 689331.724713305244222, 7178956.006442811340094 ], [ 689302.609475792385638, 7178986.161527007818222 ], [ 689273.494239845429547, 7179022.55559263844043 ], [ 689228.78155299287755, 7179066.228473836556077 ], [ 689222.542575820116326, 7179081.82592897862196 ], [ 689142.995583608397283, 7179148.37508412823081 ], [ 689124.278645289945416, 7179168.131863340735435 ], [ 689111.800693806959316, 7179210.764906255528331 ], [ 689097.243078826344572, 7179240.919986821711063 ], [ 689082.685460189823061, 7179256.51744404155761 ], [ 689063.968518736772239, 7179263.796260382980108 ], [ 689049.410897489869967, 7179268.995415212586522 ], [ 689025.494807474315166, 7179285.63270500395447 ], [ 689014.05668173043523, 7179310.588633597828448 ], [ 689007.817707419046201, 7179337.624221375212073 ], [ 688997.419410291477107, 7179356.341168273240328 ], [ 688963.105024185380898, 7179395.854725925251842 ], [ 688947.507579012890346, 7179426.009806756861508 ], [ 688931.910132794640958, 7179452.005566628649831 ], [ 688919.432180513627827, 7179491.519118838943541 ], [ 688916.312694660387933, 7179510.236063927412033 ], [ 688909.943744894815609, 7179550.529487296007574 ], [ 688902.145029279403389, 7179593.422486624680459 ], [ 688895.646102696075104, 7179641.514636827632785 ], [ 688893.046535711968318, 7179675.309120267629623 ], [ 688890.446973290177993, 7179727.300632901489735 ], [ 688881.348469619289972, 7179768.89384476467967 ], [ 688870.950191901996732, 7179865.078144546598196 ], [ 688846.254240692825988, 7179927.467965105548501 ], [ 688824.157861028797925, 7179974.260331415571272 ], [ 688779.965090294368565, 7180022.352491032332182 ], [ 688739.67168013448827, 7180060.04634727537632 ], [ 688700.678054445423186, 7180084.742325191386044 ], [ 688652.585912696551532, 7180101.639578569680452 ], [ 688613.592285050777718, 7180118.536829682067037 ], [ 688570.699297793558799, 7180149.731747565791011 ], [ 688523.90694962174166, 7180190.025181021541357 ], [ 688503.110354081960395, 7180222.519881210289896 ], [ 688434.871518117259257, 7180301.806954018771648 ], [ 688407.57598392397631, 7180334.301655825227499 ], [ 688385.479599344776943, 7180361.597205135039985 ], [ 688372.481727247824892, 7180382.393813179805875 ], [ 688307.492353108711541, 7180431.785765763372183 ], [ 688267.198936408385634, 7180443.483865983784199 ], [ 688233.404460304416716, 7180462.980691391974688 ], [ 688206.108921874547377, 7180478.578151781111956 ], [ 688167.1152990689734, 7180514.972219894640148 ], [ 688137.220191666739993, 7180556.565436953678727 ], [ 688109.924673675443046, 7180654.049528822302818 ], [ 688086.528521787375212, 7180763.231709951534867 ], [ 688050.134476042934693, 7180806.124716434627771 ], [ 688028.038095006137155, 7180847.717931568622589 ], [ 688007.24150331877172, 7180895.810085390694439 ], [ 687981.2457600570051, 7180941.302664903923869 ], [ 687955.25001517101191, 7180980.29630540497601 ], [ 687924.055116766132414, 7181008.891644783318043 ], [ 687898.059365391847678, 7181021.889529250562191 ], [ 687865.564674067310989, 7181029.688264114782214 ], [ 687810.973592289839871, 7181041.386367861181498 ], [ 687779.778689664904959, 7181053.084465810097754 ], [ 687748.583786717266776, 7181063.482775952666998 ], [ 687709.59015802887734, 7181076.480663632974029 ], [ 687673.196105125709437, 7181090.778338469564915 ], [ 687662.797804898349568, 7181097.277280053123832 ], [ 687639.40162930067163, 7181111.574951669201255 ], [ 687629.003329719766043, 7181120.673468859866261 ], [ 687614.70566953450907, 7181140.170289430767298 ], [ 687613.405886010848917, 7181157.067531179636717 ], [ 687616.005468269111589, 7181184.363074384629726 ], [ 687635.50229135574773, 7181212.958401208743453 ], [ 687649.799960607197136, 7181229.855639100074768 ], [ 687682.294662302127108, 7181263.650113916024566 ], [ 687704.391061179921962, 7181293.545227901078761 ], [ 687727.787248437292874, 7181326.039917171001434 ], [ 687751.18343958503101, 7181374.132060067728162 ], [ 687753.783023469848558, 7181407.926542292349041 ], [ 687751.183453188510612, 7181428.72314777970314 ] ] ] ] } }
]
}
