{
"type": "FeatureCollection",
"name": "rio_piunduva",
"crs": { "type": "name", "properties": { "name": "urn:ogc:def:crs:EPSG::31982" } },
"features": [
{ "type": "Feature", "properties": { "AREA": 27322748.78999, "PERIMETER": 38155.7706, "BACIAS1_": 28, "BACIAS1_ID": 0, "NOME_BACIA": "RIO PIUNDUVA", "SUB_AREA": 27.32, "SUBCODIGO": 27, "BACCODIGO": 2, "SUBNOME": "RIO PIUNDUVA", "SUBBAC_DAT": "2002-01-03", "SUBBAC_POP": 990, "SUBBAC_P_1": 786, "SUBBAC_DEN": 28.75, "SUBBAC_D_1": 36.25 }, "geometry": { "type": "MultiPolygon", "coordinates": [ [ [ [ 650778.968052766867913, 7165518.895567974075675 ], [ 650797.931009749532677, 7165496.484790331684053 ], [ 650824.07145205012057, 7165452.372771431691945 ], [ 650846.944336320273578, 7165400.091861758381128 ], [ 650850.211885508615524, 7165364.148738843388855 ], [ 650860.014545843820088, 7165320.036723203957081 ], [ 650850.211870774161071, 7165290.628716036677361 ], [ 650842.042975211981684, 7165267.755821680650115 ], [ 650815.902521459851414, 7165254.685600612312555 ], [ 650789.762067383038811, 7165239.981601258739829 ], [ 650760.354056259384379, 7165222.010045986622572 ], [ 650742.382492181146517, 7165202.404710153117776 ], [ 650735.847375144250691, 7165181.165593758225441 ], [ 650744.016261541401036, 7165158.292696150019765 ], [ 650765.255373502615839, 7165135.419795943424106 ], [ 650783.226927760988474, 7165106.011783247813582 ], [ 650796.297147433157079, 7165076.603771530091763 ], [ 650822.437587101012468, 7165019.42152638360858 ], [ 650824.0713590758387, 7164988.379738662391901 ], [ 650822.437574987765402, 7164958.971729882061481 ], [ 650835.507796618971042, 7164939.366387870162725 ], [ 650864.915800855029374, 7164923.028599176555872 ], [ 650877.986024451092817, 7164913.225926864892244 ], [ 650884.521133957081474, 7164896.888142727315426 ], [ 650884.521130025503226, 7164877.282803324982524 ], [ 650884.521127078332938, 7164862.578798771835864 ], [ 650884.521123475045897, 7164844.60723765194416 ], [ 650886.154896102845669, 7164816.83300650678575 ], [ 650889.42244725197088, 7164790.692553317174315 ], [ 650909.027779036667198, 7164758.01698374375701 ], [ 650912.295329202432185, 7164726.975195709615946 ], [ 650915.562878713477403, 7164692.665851108729839 ], [ 650917.196651338832453, 7164664.891619968228042 ], [ 650930.266870342078619, 7164632.216051700524986 ], [ 650946.60464802570641, 7164610.976930761709809 ], [ 650969.477539469487965, 7164594.639143370091915 ], [ 650989.082875834545121, 7164584.836469763889909 ], [ 651021.758434147341177, 7164557.062232434749603 ], [ 651057.701547535602003, 7164522.7528813239187 ], [ 651088.743328304844908, 7164498.246200885623693 ], [ 651105.081106964498758, 7164481.908414797857404 ], [ 651123.052662836504169, 7164460.669293535873294 ], [ 651142.658000507857651, 7164457.40173305477947 ], [ 651165.530893255374394, 7164447.599058791995049 ], [ 651176.967337003676221, 7164429.627495398744941 ], [ 651175.333552902680822, 7164400.219486637972295 ], [ 651158.995766698615626, 7164378.980372227728367 ], [ 651145.925535242306069, 7164349.572365749627352 ], [ 651139.390415905276313, 7164316.896801407448947 ], [ 651126.320185762480833, 7164294.023908062838018 ], [ 651095.278397787245922, 7164282.587466282770038 ], [ 651074.039280285011046, 7164277.686135673895478 ], [ 651057.701497037545778, 7164271.151025805622339 ], [ 651042.997490015812218, 7164254.813245916739106 ], [ 651038.096151501871645, 7164235.207907507196069 ], [ 651033.194812986184843, 7164215.602569098584354 ], [ 651025.025916445651092, 7164187.82833993062377 ], [ 651016.857022200943902, 7164171.4905587406829 ], [ 650997.251677979831584, 7164142.082553574815392 ], [ 650993.984116676496342, 7164117.575879994779825 ], [ 650993.984111432335339, 7164091.43542748503387 ], [ 651000.519219288602471, 7164066.928751952946186 ], [ 651016.856993680354208, 7164029.351848213002086 ], [ 651038.096101993694901, 7163988.507386931218207 ], [ 651049.532546065282077, 7163972.169601831585169 ], [ 651070.771660933736712, 7163964.000706186518073 ], [ 651113.249890343635343, 7163946.029136610217392 ], [ 651152.460562707157806, 7163924.790011121891439 ], [ 651170.43211954634171, 7163908.452224719338119 ], [ 651193.305009979871102, 7163887.213102491572499 ], [ 651216.177897784742527, 7163852.90375401172787 ], [ 651230.881896595470607, 7163828.397076854482293 ], [ 651252.121010802104138, 7163816.960624643601477 ], [ 651271.726349113043398, 7163816.960620723664761 ], [ 651292.96546463156119, 7163812.059281637892127 ], [ 651301.134351982036605, 7163794.087718911468983 ], [ 651299.5005691916449, 7163771.214823299087584 ], [ 651286.430338395992294, 7163745.074373412877321 ], [ 651261.923662225482985, 7163728.736595496535301 ], [ 651239.050765561987646, 7163718.933930380269885 ], [ 651221.07920347538311, 7163709.13126428425312 ], [ 651208.00897169788368, 7163678.089479555375874 ], [ 651212.910304307588376, 7163668.286808889359236 ], [ 651243.952087990823202, 7163658.484133005142212 ], [ 651268.458757591666654, 7163642.146345296874642 ], [ 651301.134317167103291, 7163620.907221116125584 ], [ 651319.105872682062909, 7163598.034321591258049 ], [ 651356.682755987625569, 7163522.880513165146112 ], [ 651382.823202457977459, 7163500.007612008601427 ], [ 651417.132539558922872, 7163475.50093093700707 ], [ 651456.343213534215465, 7163462.430696848779917 ], [ 651480.84988345275633, 7163447.726687422022223 ], [ 651493.920106027275324, 7163433.022680280730128 ], [ 651493.920104053337127, 7163423.220010597258806 ], [ 651493.920100435847417, 7163405.248449511826038 ], [ 651487.38498405192513, 7163387.276889737695456 ], [ 651464.512085421942174, 7163367.671554949134588 ], [ 651443.272966300603002, 7163354.601332956925035 ], [ 651417.132511947187595, 7163338.263555383309722 ], [ 651394.259611677611247, 7163310.489329194650054 ], [ 651376.288042040774599, 7163263.109762663021684 ], [ 651359.950250927126035, 7163217.363974087871611 ], [ 651359.950237782788463, 7163152.012842891737819 ], [ 651359.95022825372871, 7163104.633272775448859 ], [ 651359.950219381600618, 7163060.521259224042296 ], [ 651361.583986729965545, 7163006.606575670652092 ], [ 651358.316422133124433, 7162965.762119336985052 ], [ 651335.443519248510711, 7162924.917666924186051 ], [ 651304.401726070907898, 7162887.340772707015276 ], [ 651283.162601382471621, 7162846.496319971047342 ], [ 651283.162595141562633, 7162815.454532666131854 ], [ 651286.430144297308289, 7162779.511409873142838 ], [ 651286.430135758244433, 7162737.033174620009959 ], [ 651270.092349584563635, 7162715.794060260057449 ], [ 651253.754565712762997, 7162705.9913938511163 ], [ 651221.078999282093719, 7162692.921174147166312 ], [ 651190.037211371236481, 7162681.484732395969331 ], [ 651159.812312227906659, 7162668.414512203074992 ], [ 651145.108301953994669, 7162635.738949562422931 ], [ 651132.038057732512243, 7162542.61359028890729 ], [ 651132.038047887966968, 7162493.600241936743259 ], [ 651136.939370645559393, 7162434.784222939051688 ], [ 651140.20691685192287, 7162384.137095661833882 ], [ 651140.206909632775933, 7162348.193973542191088 ], [ 651109.165115831885487, 7162307.349522789940238 ], [ 651092.827325081685558, 7162263.237512545660138 ], [ 651097.728649480617605, 7162212.590384954586625 ], [ 651105.897534522577189, 7162183.182374324649572 ], [ 651120.601532317232341, 7162153.77436238899827 ], [ 651120.601526083191857, 7162122.732575114816427 ], [ 651105.897517134435475, 7162096.592125609517097 ], [ 651068.320614198455587, 7162073.719237223267555 ], [ 651050.349050840595737, 7162057.381458038464189 ], [ 651050.349047234398313, 7162039.409896986559033 ], [ 651060.151714398059994, 7162029.607225365936756 ], [ 651086.292163451085798, 7162019.804550483822823 ], [ 651109.165056124678813, 7162010.001876253634691 ], [ 651146.74195183836855, 7161996.93164253141731 ], [ 651176.149957265937701, 7161987.128966995514929 ], [ 651202.290406315820292, 7161977.326292108744383 ], [ 651223.529518827679567, 7161957.720948540605605 ], [ 651226.797069624764845, 7161929.946717175655067 ], [ 651218.628174084587954, 7161907.073822926729918 ], [ 651194.938387069152668, 7161890.73604488838464 ], [ 651149.192582369199954, 7161813.948475005105138 ], [ 651123.052124465815723, 7161779.639136411249638 ], [ 651114.883227290934883, 7161748.597350781783462 ], [ 651114.883219745708629, 7161711.020450416952372 ], [ 651121.418324623140506, 7161671.809770473279059 ], [ 651132.854764391900972, 7161634.232867830432951 ], [ 651116.516975295031443, 7161598.289749007672071 ], [ 651100.179187511326745, 7161568.881743295118213 ], [ 651087.108961026766337, 7161563.980411076918244 ], [ 651052.79961318068672, 7161534.572408949024975 ], [ 651029.92671232286375, 7161503.530626263469458 ], [ 651008.68758932617493, 7161470.855064978823066 ], [ 650985.814686505240388, 7161430.010612638667226 ], [ 650951.505338014569134, 7161397.335053961724043 ], [ 650918.829769023926929, 7161371.194608060643077 ], [ 650892.689313440932892, 7161348.321717409417033 ], [ 650876.351526981685311, 7161325.448824806138873 ], [ 650851.844848606153391, 7161297.674598999321461 ], [ 650827.338172523537651, 7161281.336821127682924 ], [ 650802.831498733139597, 7161276.435491183772683 ], [ 650783.226156888529658, 7161258.463934056460857 ], [ 650747.28303251741454, 7161237.224823631346226 ], [ 650726.043913794215769, 7161225.788379931822419 ], [ 650709.706128326128237, 7161207.816822152584791 ], [ 650699.903454295359552, 7161183.310149973258376 ], [ 650663.96032077097334, 7161116.325247835367918 ], [ 650641.087417653645389, 7161073.847017229534686 ], [ 650598.609180222498253, 7161050.974129830487072 ], [ 650577.370059872977436, 7161031.368794752284884 ], [ 650561.032273757387884, 7161010.129680425859988 ], [ 650552.863379229791462, 7160992.158121025189757 ], [ 650557.764711828436702, 7160982.35545039921999 ], [ 650574.102492057718337, 7160974.186555773019791 ], [ 650601.876719919149764, 7160967.65143714658916 ], [ 650626.383388791466132, 7160948.046092968434095 ], [ 650636.18605267687235, 7160921.9056386211887 ], [ 650631.284712230553851, 7160892.497630646452308 ], [ 650608.411811410682276, 7160861.455847976729274 ], [ 650582.27135781547986, 7160848.38562697917223 ], [ 650572.468683467246592, 7160822.2451765332371 ], [ 650579.003792942734435, 7160805.907392485998571 ], [ 650598.609128231881186, 7160791.203384114429355 ], [ 650623.11579971422907, 7160784.668266138061881 ], [ 650659.058916535694152, 7160768.330476239323616 ], [ 650686.833142753690481, 7160753.626466237008572 ], [ 650721.142478768248111, 7160724.218450464308262 ], [ 650734.212701309937984, 7160709.514443391002715 ], [ 650752.18425251764711, 7160665.402426401153207 ], [ 650804.465146603761241, 7160626.191737401299179 ], [ 650820.802920929389074, 7160588.61483383923769 ], [ 650824.07046813191846, 7160542.869041511788964 ], [ 650824.070462563890032, 7160515.094810852780938 ], [ 650856.746020376565866, 7160485.686795407906175 ], [ 650881.25268857111223, 7160462.813894687220454 ], [ 650894.322904881322756, 7160417.068100412376225 ], [ 650918.829572088085115, 7160389.29386487044394 ], [ 650935.167348696268164, 7160363.153409233316779 ], [ 650940.068678335519508, 7160338.646734150126576 ], [ 650935.16733624227345, 7160301.069834834896028 ], [ 650920.463326023425907, 7160268.394272294826806 ], [ 650920.463320780661888, 7160242.253819921053946 ], [ 650933.533542655291967, 7160224.282256305217743 ], [ 650966.209106024354696, 7160222.648471512831748 ], [ 651005.419784425757825, 7160232.451133333146572 ], [ 651033.194013239815831, 7160230.817349517717957 ], [ 651062.602018272038549, 7160219.380895735695958 ], [ 651087.108686122461222, 7160194.874216742813587 ], [ 651096.911348342895508, 7160160.56487104576081 ], [ 651092.010005257907324, 7160118.086636919528246 ], [ 651111.61533428565599, 7160072.340841358527541 ], [ 651111.61532542668283, 7160028.228827985003591 ], [ 651096.911314878147095, 7159993.919487189501524 ], [ 651057.7006302527152, 7159953.075038194656372 ], [ 651016.856170072685927, 7159925.300815707072616 ], [ 650979.279264625161886, 7159889.357701206579804 ], [ 650907.393011417472735, 7159824.006584638729692 ], [ 650868.182328122435138, 7159789.697248734533787 ], [ 650864.91476618568413, 7159761.923018753528595 ], [ 650889.421432390343398, 7159729.247448420152068 ], [ 650899.22409854340367, 7159714.543442016467452 ], [ 650922.096990166464821, 7159699.839433003216982 ], [ 650959.67388740752358, 7159694.938090693205595 ], [ 650974.377890733070672, 7159693.304309486411512 ], [ 650997.25078038754873, 7159668.797630840912461 ], [ 650997.250776452245191, 7159649.1922915764153 ], [ 650993.983216151013039, 7159629.586952960118651 ], [ 650979.279210203676485, 7159618.150507990270853 ], [ 650958.040091196540743, 7159605.080286049284041 ], [ 650944.969863432925195, 7159593.643840754404664 ], [ 650930.265853556105867, 7159562.602056516334414 ], [ 650913.928067461121827, 7159541.362942240200937 ], [ 650897.590280385687947, 7159515.222493147477508 ], [ 650874.717382543720305, 7159498.884714988991618 ], [ 650850.210704553639516, 7159472.744267525151372 ], [ 650842.041805776068941, 7159433.533590634353459 ], [ 650842.041795622324571, 7159382.886464213952422 ], [ 650850.210678021190688, 7159340.408227525651455 ], [ 650866.548456573393196, 7159324.070441552437842 ], [ 650886.153792474186048, 7159312.633989745751023 ], [ 650907.392907213768922, 7159304.465094154700637 ], [ 650926.998241474619135, 7159284.859750987961888 ], [ 650938.434682198450901, 7159252.184183280915022 ], [ 650938.434671710361727, 7159199.903278600424528 ], [ 650946.603555739857256, 7159165.593933276832104 ], [ 650959.673776610987261, 7159142.721034875139594 ], [ 650980.912883804063313, 7159096.975239051505923 ], [ 650977.645320225972682, 7159061.032117744907737 ], [ 650961.307532829465345, 7159033.257890399545431 ], [ 650917.195514371502213, 7158995.680998968891799 ], [ 650838.774152456549928, 7158949.935223024338484 ], [ 650791.394579283078201, 7158920.527223598212004 ], [ 650744.015006113681011, 7158891.119224166497588 ], [ 650716.240770475007594, 7158858.443664289079607 ], [ 650701.536762910662219, 7158838.838327974081039 ], [ 650684.382080549141392, 7158781.656091926619411 ], [ 650671.311843316885643, 7158722.840076804161072 ], [ 650650.072712561814114, 7158650.953837150707841 ], [ 650617.397136178216897, 7158587.236491129733622 ], [ 650592.89046018908266, 7158570.898713309317827 ], [ 650578.186454268172383, 7158559.462268346920609 ], [ 650570.017556823324412, 7158526.786704577505589 ], [ 650571.651333043118939, 7158516.984034635126591 ], [ 650591.256670234724879, 7158512.082695924676955 ], [ 650605.960673211491667, 7158508.815136458724737 ], [ 650617.397119170287624, 7158502.280021103098989 ], [ 650641.903789922827855, 7158492.477346608415246 ], [ 650663.142903659958392, 7158479.40711622312665 ], [ 650677.846905326005071, 7158469.604443679563701 ], [ 650700.719794623320922, 7158443.463986812159419 ], [ 650713.790008943295106, 7158387.915523046627641 ], [ 650733.395338603178971, 7158345.437284140847623 ], [ 650764.437119452399202, 7158322.564382186159492 ], [ 650834.689575983327813, 7158296.423915879800916 ], [ 650865.731354862567969, 7158263.74834430962801 ], [ 650927.814918185351416, 7158226.171431740745902 ], [ 650960.490476221428253, 7158198.397194650024176 ], [ 650971.926919878926128, 7158180.42563140951097 ], [ 650971.926914633600973, 7158154.285179106518626 ], [ 650958.856683945981786, 7158128.144729413092136 ], [ 650940.885118389734998, 7158100.37050242908299 ], [ 650927.814889013650827, 7158080.765165813267231 ], [ 650909.843328049289994, 7158075.863834589719772 ], [ 650875.533988887211308, 7158088.93406757991761 ], [ 650860.829985265503637, 7158088.93407051358372 ], [ 650855.928648759610951, 7158079.131401877850294 ], [ 650862.463756566401571, 7158054.624726544134319 ], [ 650877.167754945112392, 7158028.484271314926445 ], [ 650882.069083587615751, 7157999.076261503621936 ], [ 650882.069077360327356, 7157968.034474402666092 ], [ 650868.998847662704065, 7157946.79535951744765 ], [ 650847.759726082556881, 7157920.654911458492279 ], [ 650842.858384663588367, 7157886.345568802207708 ], [ 650842.858375491690822, 7157840.599777290597558 ], [ 650836.323255239753053, 7157803.022878426127136 ], [ 650831.42191545816604, 7157776.882427113130689 ], [ 650813.45034598512575, 7157729.502860923297703 ], [ 650813.450337470974773, 7157687.024625958874822 ], [ 650826.520557337789796, 7157659.250392800197005 ], [ 650851.027223146054894, 7157624.941044293344021 ], [ 650867.364999040029943, 7157595.533032217994332 ], [ 650864.097438750555739, 7157575.927693659439683 ], [ 650847.759652700391598, 7157554.688579436391592 ], [ 650826.520534080336802, 7157543.252135798335075 ], [ 650808.548971163807437, 7157528.548134973272681 ], [ 650788.943630069145001, 7157513.844134472310543 ], [ 650777.507175612263381, 7157477.901014868170023 ], [ 650766.07071951997932, 7157433.789003927260637 ], [ 650766.070707405218855, 7157373.339208042249084 ], [ 650769.338250337983482, 7157306.354298440739512 ], [ 650775.873342095757835, 7157201.792488057166338 ], [ 650766.070667131338269, 7157172.384481208398938 ], [ 650749.732872908003628, 7157110.300910333171487 ], [ 650744.831530516967177, 7157071.090232912451029 ], [ 650728.493740553501993, 7157030.245779506862164 ], [ 650717.057286761584692, 7156997.57021645642817 ], [ 650728.493731060065329, 7156982.866209780797362 ], [ 650753.000402744160965, 7156977.964870101772249 ], [ 650779.140855553094298, 7156987.767534488812089 ], [ 650823.252872578566894, 7157018.809312759898603 ], [ 650873.90000035171397, 7157040.048420125618577 ], [ 650904.941786059061997, 7157041.682192200794816 ], [ 650919.645788022782654, 7157033.513297939673066 ], [ 650932.716009839088656, 7157015.541734399273992 ], [ 650932.716005577822216, 7156994.302616936154664 ], [ 650924.547111083986238, 7156976.331057637929916 ], [ 650904.941765413503163, 7156938.754161424934864 ], [ 650904.941761151421815, 7156917.515043964609504 ], [ 650904.94175557885319, 7156889.740813440643251 ], [ 650904.941751319216564, 7156868.501695981249213 ], [ 650916.37819495704025, 7156850.530132773332298 ], [ 650944.15241676219739, 7156814.587005382403731 ], [ 650970.292862027417868, 7156786.812769647687674 ], [ 651012.771085782675073, 7156742.700747993774712 ], [ 651035.643973704311065, 7156710.025178113020957 ], [ 651047.897308064741082, 7156700.222506072372198 ], [ 651070.770201233448461, 7156693.687388446182013 ], [ 651092.009316879324615, 7156690.419827673584223 ], [ 651118.14976607344579, 7156682.250931123271585 ], [ 651150.825326331891119, 7156665.913141942583025 ], [ 651181.867109398241155, 7156654.47668788023293 ], [ 651221.07778105174657, 7156631.603784328326583 ], [ 651257.020896346773952, 7156608.730881424620748 ], [ 651291.330235105124302, 7156594.026870177127421 ], [ 651330.540907079586759, 7156572.787744887173176 ], [ 651364.850248137488961, 7156569.520181492902339 ], [ 651392.624476157827303, 7156564.618841139599681 ], [ 651404.060921752243303, 7156556.449947524815798 ], [ 651418.764922384521924, 7156541.745940193533897 ], [ 651428.567587169120088, 7156520.506820781156421 ], [ 651428.567582565592602, 7156497.633925069123507 ], [ 651428.567576643894427, 7156468.225916294381022 ], [ 651430.20134265278466, 7156407.776120158843696 ], [ 651430.201334430952556, 7156366.93166353367269 ], [ 651440.003997240564786, 7156335.889874539338052 ], [ 651457.975551258889027, 7156306.481862174347043 ], [ 651462.876879867166281, 7156277.073852425441146 ], [ 651462.876870655803941, 7156231.328061016276479 ], [ 651436.736411942983977, 7156192.117387897334993 ], [ 651417.131069226656109, 7156169.244496117345989 ], [ 651392.624391982331872, 7156146.371605318970978 ], [ 651376.286606606212445, 7156128.400047676637769 ], [ 651351.779927392373793, 7156095.724487293511629 ], [ 651333.808362527517602, 7156071.217816922813654 ], [ 651307.667901198845357, 7156018.936917694285512 ], [ 651299.499003091012128, 7155982.993797518312931 ], [ 651273.358540123910643, 7155922.544006974436343 ], [ 651237.415415007504635, 7155896.403561936691403 ], [ 651211.274963872507215, 7155894.769788896664977 ], [ 651172.064291929127648, 7155916.008914163336158 ], [ 651144.290065572829917, 7155929.079145826399326 ], [ 651093.642948368447833, 7155960.120942954905331 ], [ 651078.93894314719364, 7155951.952054572291672 ], [ 651077.305157096590847, 7155912.741376562044024 ], [ 651087.107822868158109, 7155896.403591966256499 ], [ 651111.614491889486089, 7155878.432026168331504 ], [ 651132.853604558855295, 7155860.460461024194956 ], [ 651142.656268686056137, 7155835.953785109333694 ], [ 651155.726467495900579, 7155703.617743143811822 ], [ 651150.825121151749045, 7155644.801726639270782 ], [ 651142.65622174309101, 7155602.323493425734341 ], [ 651126.318433430162258, 7155569.647931423038244 ], [ 651109.980647415388376, 7155548.408817265182734 ], [ 651092.009082899428904, 7155525.535925170406699 ], [ 651088.741521298885345, 7155499.395473615266383 ], [ 651098.544188705738634, 7155491.226580342277884 ], [ 651116.515746984514408, 7155483.057685438543558 ], [ 651136.121085735619999, 7155486.325238048098981 ], [ 651145.923752813250758, 7155476.522566512227058 ], [ 651162.261532916687429, 7155468.353671932592988 ], [ 651191.669536118046381, 7155448.748326901346445 ], [ 651212.908645815914497, 7155416.072757398709655 ], [ 651230.880202778149396, 7155401.368749439716339 ], [ 651258.654429113608785, 7155388.298517787829041 ], [ 651299.498882157495245, 7155381.763396568596363 ], [ 651333.808222831226885, 7155376.862054918892682 ], [ 651387.722901926725172, 7155373.59448760561645 ], [ 651428.567357599269599, 7155380.129592483863235 ], [ 651475.946923996671103, 7155376.862026473507285 ], [ 651490.650924603221938, 7155362.158019166439772 ], [ 651480.848248977679759, 7155329.482455873861909 ], [ 651454.707794242887758, 7155309.877121955156326 ], [ 651413.863334627007134, 7155283.736677929759026 ], [ 651386.089100734796375, 7155259.230009549297392 ], [ 651364.849978883285075, 7155231.455783335492015 ], [ 651333.808189632603899, 7155211.850450396537781 ], [ 651306.033956730738282, 7155192.245116801932454 ], [ 651288.062391232000664, 7155164.47088993806392 ], [ 651252.119251367868856, 7155064.810423128306866 ], [ 651229.246342483558692, 7154992.924184174276888 ], [ 651217.809886400587857, 7154948.812173388898373 ], [ 651224.344994824612513, 7154927.573054678738117 ], [ 651247.217886950238608, 7154916.136602273210883 ], [ 651281.527228590217419, 7154916.136595413088799 ], [ 651299.498788167489693, 7154914.502813559025526 ], [ 651322.37167865014635, 7154894.897469842806458 ], [ 651327.273008567630313, 7154872.024573200382292 ], [ 651315.019669310189784, 7154857.320571295917034 ], [ 651301.949441295815632, 7154844.250347815454006 ], [ 651279.076542271650396, 7154821.377456728368998 ], [ 651262.738755611469969, 7154796.870786072686315 ], [ 651252.936082303174771, 7154775.631670631468296 ], [ 651243.133405709289946, 7154738.054772578179836 ], [ 651226.795617409516126, 7154705.379210621118546 ], [ 651213.725384472170845, 7154667.802313223481178 ], [ 651202.288932337425649, 7154643.295641589909792 ], [ 651181.049810509197414, 7154615.521415395662189 ], [ 651158.176912153372541, 7154595.916080832481384 ], [ 651135.304012482287362, 7154569.775633226148784 ], [ 651114.064890988636762, 7154543.635185293853283 ], [ 651104.262217356357723, 7154520.762291599065065 ], [ 651092.825764243025333, 7154491.354285188019276 ], [ 651084.656866161036305, 7154455.41116508282721 ], [ 651084.656859269714914, 7154421.101821606978774 ], [ 651084.656850408413447, 7154376.989808570593596 ], [ 651073.220398609293625, 7154354.116915205493569 ], [ 651058.516389810945839, 7154327.976465974003077 ], [ 651047.079937684582546, 7154303.469794351607561 ], [ 651045.446154918754473, 7154280.596899032592773 ], [ 651048.713694201200269, 7154195.64042884670198 ], [ 651047.079908483312465, 7154158.063529189676046 ], [ 651045.44612407812383, 7154127.021742573007941 ], [ 651027.474557300563902, 7154092.712402701377869 ], [ 651014.404327335651033, 7154069.839509673416615 ], [ 650999.700318217510357, 7154042.065282190218568 ], [ 650998.066535782301798, 7154020.826165138743818 ], [ 650993.165195690467954, 7153993.051935700699687 ], [ 650986.63007283792831, 7153942.404810955747962 ], [ 650970.292282928130589, 7153901.560357727110386 ], [ 650970.29227866535075, 7153880.321240352466702 ], [ 650980.094944411073811, 7153863.983455801382661 ], [ 650998.066501012188382, 7153847.645669620484114 ], [ 651019.305614938959479, 7153836.209217565134168 ], [ 651065.051398146664724, 7153808.434978023171425 ], [ 651099.360734155983664, 7153780.66074076294899 ], [ 651136.937625846476294, 7153749.618946332484484 ], [ 651166.345627994742244, 7153725.112266568467021 ], [ 651181.049628903856501, 7153712.042037557810545 ], [ 651218.626525516272523, 7153705.506917010992765 ], [ 651248.034531273879111, 7153698.971798095852137 ], [ 651288.878984553972259, 7153694.070455152541399 ], [ 651321.554544679820538, 7153677.732666024938226 ], [ 651334.624768072040752, 7153667.929993856698275 ], [ 651357.832704329281114, 7153653.775738952681422 ], [ 651341.543523265514523, 7153651.449340991675854 ], [ 651338.883514661691152, 7153611.539330765604973 ], [ 651354.843507926329039, 7153560.989313947968185 ], [ 651365.493497370160185, 7153497.139294615015388 ], [ 651365.493474880815484, 7153385.399264521896839 ], [ 651344.203457987052388, 7153324.209252309054136 ], [ 651317.603446913533844, 7153297.599250468425453 ], [ 651253.743428904446773, 7153276.319257512688637 ], [ 651203.193418037379161, 7153276.319267620332539 ], [ 651171.27341117686592, 7153276.31927399802953 ], [ 651094.11339084606152, 7153257.689284399151802 ], [ 650985.033368468633853, 7153263.00930760987103 ], [ 650939.134936721296981, 7153242.962087417021394 ], [ 650903.493896848871373, 7153205.62386810965836 ], [ 650828.817441930877976, 7153175.074425028637052 ], [ 650753.573299520649016, 7153167.239328010007739 ], [ 650676.07016167929396, 7153181.863223906606436 ], [ 650628.548795712995343, 7153234.476188773289323 ], [ 650617.883297012536786, 7153300.259390824474394 ], [ 650580.633302319678478, 7153366.769416142255068 ], [ 650532.743299474706873, 7153404.019435700960457 ], [ 650452.933294013957493, 7153462.549467336386442 ], [ 650378.433281705598347, 7153481.17948716878891 ], [ 650330.543276184005663, 7153505.119503136724234 ], [ 650280.003269558656029, 7153526.409518912434578 ], [ 650232.113270408241078, 7153582.27954347897321 ], [ 650184.2232712515397, 7153638.149568046443164 ], [ 650088.443259642925113, 7153683.379599247127771 ], [ 650027.253255476010963, 7153728.599623578600585 ], [ 649976.703250416670926, 7153757.869641495868564 ], [ 649937.359773630392738, 7153757.869649294763803 ], [ 649935.293785487650894, 7153770.858302814885974 ], [ 649900.984455949743278, 7153831.308105207979679 ], [ 649900.984460182837211, 7153852.547222578898072 ], [ 649909.153355597052723, 7153875.42011659219861 ], [ 649941.828924554516561, 7153903.194340528920293 ], [ 649972.870717949583195, 7153944.038790863007307 ], [ 650016.982735415222123, 7153978.348125570453703 ], [ 650065.996088701416738, 7154019.192572340369225 ], [ 650090.502764858072624, 7154037.16412833891809 ], [ 650115.009441667352803, 7154058.403240852989256 ], [ 650119.910780094680376, 7154078.008578998968005 ], [ 650111.741895759361796, 7154110.684145817533135 ], [ 650113.375680451979861, 7154143.35971069522202 ], [ 650106.840571678592823, 7154162.965051112696528 ], [ 650082.333900734782219, 7154171.133947276510298 ], [ 650046.390783239621669, 7154182.570402224548161 ], [ 650025.151672221370973, 7154208.710858598351479 ], [ 650020.250340313883498, 7154221.781085653230548 ], [ 650020.250349763897248, 7154269.160655200481415 ], [ 650023.517912625567988, 7154301.836219757795334 ], [ 650010.447689856402576, 7154314.906448434107006 ], [ 649987.574797077220865, 7154323.075344271957874 ], [ 649961.434351211530156, 7154347.58202336076647 ], [ 649946.730353200575337, 7154375.356256704777479 ], [ 649948.364140492398292, 7154421.102047676220536 ], [ 649977.772156063001603, 7154463.580276625230908 ], [ 650028.419286248157732, 7154497.889610059559345 ], [ 650075.798861396731809, 7154538.734057184308767 ], [ 650113.375763928517699, 7154561.606945381499827 ], [ 650123.17843785462901, 7154586.113617351278663 ], [ 650108.474438540637493, 7154607.352737663313746 ], [ 650079.066432411316782, 7154612.25407827924937 ], [ 650048.024645176250488, 7154602.451414871960878 ], [ 650005.546412362484261, 7154600.817645032890141 ], [ 649981.039741727756336, 7154610.620319459587336 ], [ 649959.800628090044484, 7154623.69054975733161 ], [ 649918.956175727071241, 7154633.493227418512106 ], [ 649902.618393999524415, 7154633.49323065765202 ], [ 649884.646832798607647, 7154626.95812117215246 ], [ 649865.041493425145745, 7154620.4230120126158 ], [ 649845.436156329815276, 7154625.32435067743063 ], [ 649842.168600634904578, 7154628.591907848604023 ], [ 649866.675276805646718, 7154646.563463866710663 ], [ 649887.914398586610332, 7154674.337690098211169 ], [ 649900.984631457366049, 7154711.914587518200278 ], [ 649914.054867585422471, 7154765.829267552122474 ], [ 649925.491325542912818, 7154819.743947915732861 ], [ 649938.561557115521282, 7154850.785732293501496 ], [ 649949.998016703408211, 7154912.869303967803717 ], [ 649972.870926115196198, 7154988.023099478334188 ], [ 649972.870932629681192, 7155020.698664719238877 ], [ 649967.969601367600262, 7155037.036448307335377 ], [ 649949.998044715728611, 7155053.374234490096569 ], [ 649923.857597846072167, 7155072.979578817263246 ], [ 649892.815814500325359, 7155082.782254539430141 ], [ 649856.872698912397027, 7155104.021379068493843 ], [ 649804.591802234412171, 7155128.528063355013728 ], [ 649770.282464490621351, 7155148.133409291505814 ], [ 649755.57846775604412, 7155182.442755712196231 ], [ 649747.409583067288622, 7155213.48454431258142 ], [ 649737.606920527527109, 7155246.160111501812935 ], [ 649735.973147232318297, 7155270.666785761713982 ], [ 649742.508269686019048, 7155319.68013234436512 ], [ 649740.874498342629522, 7155353.989476185292006 ], [ 649708.198943312047049, 7155396.467717481777072 ], [ 649682.058498374419287, 7155425.875731384381652 ], [ 649659.185617261915468, 7155492.860644690692425 ], [ 649641.214069367852062, 7155553.310443977825344 ], [ 649618.341181422001682, 7155585.986013764515519 ], [ 649603.637178498669527, 7155589.253573197871447 ], [ 649584.195216985302977, 7155583.045219641178846 ], [ 649569.81797034596093, 7155589.580335536971688 ], [ 649552.826682006940246, 7155613.106745885685086 ], [ 649551.519663104787469, 7155631.405062692239881 ], [ 649554.133712083334103, 7155651.010401334613562 ], [ 649564.589901498286054, 7155696.7561906427145 ], [ 649577.660134175559506, 7155733.352821161970496 ], [ 649577.660140932770446, 7155767.335409045219421 ], [ 649573.739079550141469, 7155798.703952481970191 ], [ 649560.668858825811185, 7155822.230362061411142 ], [ 649541.063527478487231, 7155856.212953822687268 ], [ 649529.300330852274783, 7155887.581498814746737 ], [ 649522.765222567133605, 7155909.800884492695332 ], [ 649520.151181903318502, 7155932.020269400440156 ], [ 649513.616073357523419, 7155952.932632468640804 ], [ 649490.089670488028787, 7155967.309885841794312 ], [ 649471.79135699942708, 7155977.766070345416665 ], [ 649433.887705402798019, 7155988.222258722409606 ], [ 649411.668324550846592, 7155999.985466612502933 ], [ 649373.764674249803647, 7156016.976768044754863 ], [ 649320.176753979641944, 7156036.582117791287601 ], [ 649273.123949003173038, 7156069.25769236125052 ], [ 649223.457098942482844, 7156101.933267442509532 ], [ 649193.264887843513861, 7156150.293110022321343 ], [ 649189.082421105122194, 7156177.479181167669594 ], [ 649175.489399952115491, 7156244.398741563782096 ], [ 649170.261315593845211, 7156273.676049096509814 ], [ 649168.170086992671713, 7156311.318300729617476 ], [ 649174.443798714317381, 7156329.093807011842728 ], [ 649184.899984018993564, 7156354.188639097847044 ], [ 649184.899987753247842, 7156373.009764711372554 ], [ 649183.854371586581692, 7156382.420327723026276 ], [ 649166.078866893541999, 7156391.830894033424556 ], [ 649153.53145132609643, 7156396.013368865475059 ], [ 649129.482237812131643, 7156402.287082143127918 ], [ 649100.204933925066143, 7156407.515178360044956 ], [ 649073.018868382670917, 7156424.245073151774704 ], [ 649057.33460120356176, 7156440.974965674802661 ], [ 649052.106513317674398, 7156452.476765690371394 ], [ 649052.106515803607181, 7156465.024182766675949 ], [ 649054.197753734653816, 7156474.434745161794126 ], [ 649066.745174068259075, 7156494.301486396230757 ], [ 649074.064503407105803, 7156509.985756299458444 ], [ 649080.338214508723468, 7156524.624408319592476 ], [ 649080.338215543772094, 7156529.852498767897487 ], [ 649080.338218859978952, 7156546.582388203591108 ], [ 649076.15574941970408, 7156560.175424197688699 ], [ 649066.745188986998983, 7156569.5859888587147 ], [ 649052.629348853719421, 7156586.315881077200174 ], [ 649047.401260345242918, 7156594.680826826021075 ], [ 649048.446882935706526, 7156617.684424595907331 ], [ 649052.629358798614703, 7156636.505549389868975 ], [ 649059.948689175304025, 7156657.41790974792093 ], [ 649059.948693319573067, 7156678.330271546728909 ], [ 649057.857462018029764, 7156702.379488028585911 ], [ 649041.127580319996923, 7156736.884888296015561 ], [ 649036.945117923780344, 7156786.028939353302121 ], [ 649035.899504240369424, 7156807.986919451504946 ], [ 649035.899512525182217, 7156849.811643058434129 ], [ 649032.762667746515945, 7156896.864457737654448 ], [ 649028.580203276011162, 7156935.552327902056277 ], [ 649025.443356011528522, 7156970.057725502178073 ], [ 649019.169651122763753, 7156986.787616183981299 ], [ 649014.987181679578498, 7157000.380652183666825 ], [ 649017.07841857674066, 7157004.563124135136604 ], [ 649024.397745434194803, 7157007.699976963922381 ], [ 649030.671453637070954, 7157007.699975728988647 ], [ 649051.061006953939795, 7157016.064916435629129 ], [ 649069.882134670391679, 7157031.749184085056186 ], [ 649082.429555013310164, 7157051.61592533160001 ], [ 649083.475177606218494, 7157074.619523118250072 ], [ 649086.612036473350599, 7157098.6687385821715 ], [ 649098.113840857986361, 7157128.991660941392183 ], [ 649112.752497478504665, 7157149.904019869863987 ], [ 649123.208682584692724, 7157173.953233895823359 ], [ 649132.61924779380206, 7157188.591885309666395 ], [ 649143.075432694982737, 7157211.595481244847178 ], [ 649148.303528877208009, 7157241.918404845520854 ], [ 649148.303533022291958, 7157262.830766662023962 ], [ 649155.622870042570867, 7157317.20290594175458 ], [ 649152.486021537566558, 7157345.434595014899969 ], [ 649152.486025268328376, 7157364.255720652639866 ], [ 649152.486028379178606, 7157379.939992014318705 ], [ 649136.801760765491053, 7157394.578648380935192 ], [ 649126.345583738526329, 7157411.308539897203445 ], [ 649117.457834591157734, 7157432.220903467386961 ], [ 649115.366602046531625, 7157449.996411427855492 ], [ 649117.457844539894722, 7157482.410571839660406 ], [ 649117.457853244501166, 7157526.326531666330993 ], [ 649115.36662235762924, 7157552.466984359547496 ], [ 649109.092917672474869, 7157570.242493145167828 ], [ 649097.591124266153201, 7157595.337329601868987 ], [ 649085.043711579870433, 7157614.158457718789577 ], [ 649062.040118133416399, 7157630.888351710513234 ], [ 649021.261023687548004, 7157675.849937669932842 ], [ 648991.983723477693275, 7157699.899159537628293 ], [ 648964.797658507712185, 7157719.765908626839519 ], [ 648948.067772021982819, 7157730.22209283336997 ], [ 648935.520357260713354, 7157738.58704003598541 ], [ 648929.246651328052394, 7157750.088840276002884 ], [ 648921.927330672857352, 7157778.320530187338591 ], [ 648913.56239363795612, 7157814.917165037244558 ], [ 648904.151837739162147, 7157847.331327728927135 ], [ 648892.650045561487786, 7157878.699872740544379 ], [ 648887.421959319384769, 7157898.566617511212826 ], [ 648874.874546417035162, 7157916.342127537354827 ], [ 648867.9473303478444, 7157933.594827415421605 ], [ 648861.412220473517664, 7157947.972077462822199 ], [ 648850.956041932688095, 7157957.121237821877003 ], [ 648839.192840589443222, 7157964.963375825434923 ], [ 648813.05239307298325, 7157981.954674958251417 ], [ 648798.675146897207014, 7157991.103836089372635 ], [ 648782.990879214019515, 7158005.481087934225798 ], [ 648769.920657651498914, 7158025.086429726332426 ], [ 648754.236390224425122, 7158040.770704187452793 ], [ 648730.709989599883556, 7158066.911161108873785 ], [ 648703.26252134074457, 7158093.05161880236119 ], [ 648671.893984929891303, 7158116.578032036311924 ], [ 648652.288651157403365, 7158138.797420340590179 ], [ 648644.446522865444422, 7158174.087032487615943 ], [ 648647.060576216783375, 7158215.911755659617484 ], [ 648647.060583447804675, 7158252.508388884365559 ], [ 648640.525477956281975, 7158289.105023397132754 ], [ 648620.920147277414799, 7158327.008683091960847 ], [ 648614.385042558191344, 7158367.526385450735688 ], [ 648609.156957543687895, 7158393.66683878749609 ], [ 648605.235892232391052, 7158405.430043096654117 ], [ 648609.156962964567356, 7158421.114313712343574 ], [ 648616.999100556713529, 7158432.877515714615583 ], [ 648626.801772481878288, 7158447.254762558266521 ], [ 648625.494751487625763, 7158455.096898509189487 ], [ 648611.117509950185195, 7158487.772466721013188 ], [ 648600.661339658778161, 7158538.746350788511336 ], [ 648595.433257481316105, 7158579.26405290234834 ], [ 648591.512191395740956, 7158587.106189366430044 ], [ 648577.134944949531928, 7158594.948327885009348 ], [ 648541.845340362517163, 7158615.860696666873991 ], [ 648506.555741191958077, 7158664.220540381968021 ], [ 648481.722321606241167, 7158708.659314197488129 ], [ 648476.494234777987003, 7158725.650609231553972 ], [ 648476.494238131213933, 7158742.641903241164982 ], [ 648479.108286575297825, 7158759.633196737617254 ], [ 648489.564473644364625, 7158793.615782706066966 ], [ 648494.792569243349135, 7158821.063256619498134 ], [ 648494.792573113343678, 7158840.668595864437521 ], [ 648484.336398681742139, 7158870.730118090286851 ], [ 648488.257472767145373, 7158903.405682728625834 ], [ 648502.634726960211992, 7158934.774222700856626 ], [ 648513.090912485611625, 7158960.914672980085015 ], [ 648533.349769941763952, 7159001.43237011320889 ], [ 648546.420000300975516, 7159026.265797263011336 ], [ 648564.718323426670395, 7159064.169449552893639 ], [ 648576.481532016885467, 7159092.923944811336696 ], [ 648601.314966326463036, 7159122.985460119321942 ], [ 648606.543061932199635, 7159150.432934045791626 ], [ 648606.543067869148217, 7159180.494454231113195 ], [ 648606.543074322864413, 7159213.170019656419754 ], [ 648600.007967530167662, 7159243.231541126966476 ], [ 648600.007970886072144, 7159260.222835147753358 ], [ 648601.314997819950804, 7159282.442219382151961 ], [ 648600.007979146554135, 7159302.047558892518282 ], [ 648590.858826227136888, 7159326.880990413017571 ], [ 648592.165853160899132, 7159349.100374650210142 ], [ 648603.929059433168732, 7159366.091666362248361 ], [ 648626.148444013786502, 7159372.626775084063411 ], [ 648652.288896490354091, 7159380.468905653804541 ], [ 648664.052101214765571, 7159389.618061664514244 ], [ 648675.81530774908606, 7159407.916375994682312 ], [ 648679.7363782285247, 7159422.293624013662338 ], [ 648677.122335975989699, 7159436.670873317867517 ], [ 648660.131048294715583, 7159464.118351620621979 ], [ 648647.060827220208012, 7159486.337738683447242 ], [ 648631.376562858233228, 7159517.706284580752254 ], [ 648609.810697034699842, 7159549.074831636622548 ], [ 648594.126430863514543, 7159571.294219212606549 ], [ 648584.977276908815838, 7159590.899560272693634 ], [ 648583.670257459511049, 7159606.583831941708922 ], [ 648570.600034313974902, 7159618.347038066014647 ], [ 648569.293013832299039, 7159628.803219264373183 ], [ 648566.678971834713593, 7159644.487491188570857 ], [ 648549.687681049108505, 7159656.250698083080351 ], [ 648524.85425265901722, 7159656.250702958554029 ], [ 648511.784029253874905, 7159666.70688646286726 ], [ 648502.634875037707388, 7159685.00520490668714 ], [ 648485.643584507517517, 7159698.075434418395162 ], [ 648467.345268334262073, 7159695.461392772383988 ], [ 648451.660996483056806, 7159688.926282761618495 ], [ 648435.976725144544616, 7159685.005217984318733 ], [ 648425.520542964804918, 7159675.856061708182096 ], [ 648421.599472746253014, 7159662.785836301743984 ], [ 648418.98542275337968, 7159637.952407078817487 ], [ 648415.064354082336649, 7159632.724317376501858 ], [ 648401.994130418403074, 7159641.873478265479207 ], [ 648391.537953395512886, 7159658.864774342626333 ], [ 648382.388799176318571, 7159677.163092784583569 ], [ 648371.932622151449323, 7159694.15438886731863 ], [ 648357.555377999902703, 7159713.75973095279187 ], [ 648364.090494344709441, 7159732.058046320453286 ], [ 648377.160722391679883, 7159745.128269935026765 ], [ 648396.76606343255844, 7159759.505514888092875 ], [ 648416.371408341219649, 7159793.48809911031276 ], [ 648449.046980526880361, 7159836.619839092716575 ], [ 648467.345300057088025, 7159856.225174775347114 ], [ 648472.573395145707764, 7159881.05860349163413 ], [ 648473.880422077374533, 7159903.27798774279654 ], [ 648472.573404430411756, 7159928.11141774430871 ], [ 648477.80149771575816, 7159943.795688137412071 ], [ 648480.415544099523686, 7159950.330800715833902 ], [ 648488.257680673501454, 7159956.865912267938256 ], [ 648497.406838762341067, 7159958.172933090478182 ], [ 648501.327905630576424, 7159954.251864466816187 ], [ 648523.547287388471887, 7159946.409724397584796 ], [ 648535.31048954022117, 7159942.488654233515263 ], [ 648548.380715272971429, 7159943.795674286782742 ], [ 648564.064987388206646, 7159951.637806918472052 ], [ 648588.898418627446517, 7159966.01505084335804 ], [ 648601.968647456727922, 7159983.006342314183712 ], [ 648615.038876030012034, 7159998.69061116501689 ], [ 648622.881012863363139, 7160006.532745337113738 ], [ 648632.030170953134075, 7160007.839766159653664 ], [ 648645.100394620909356, 7159998.690605263225734 ], [ 648654.249552970402874, 7160001.304648702964187 ], [ 648660.784668289590627, 7160014.374873602762818 ], [ 648660.78467061300762, 7160026.138077165931463 ], [ 648667.483166721183807, 7160054.239062146283686 ], [ 648670.750728901126422, 7160083.64707041811198 ], [ 648677.28585067903623, 7160129.392860781401396 ], [ 648682.187190397176892, 7160155.533312188461423 ], [ 648690.356085518142208, 7160176.772428136318922 ], [ 648701.792538621928543, 7160206.180434809997678 ], [ 648703.426323911175132, 7160242.12355650216341 ], [ 648703.426326170796528, 7160253.560004415921867 ], [ 648703.426329400041141, 7160269.897787149995565 ], [ 648698.524997428059578, 7160282.968014301732183 ], [ 648695.257442995090969, 7160292.770684585906565 ], [ 648688.722333161509596, 7160307.474690331146121 ], [ 648682.187223650515079, 7160323.81247434951365 ], [ 648674.018335629720241, 7160338.516480417922139 ], [ 648672.384559704340063, 7160349.952928652986884 ], [ 648672.384562287013978, 7160363.023154843598604 ], [ 648675.652121562394314, 7160377.727158661931753 ], [ 648672.384567774948664, 7160390.797385494224727 ], [ 648664.215680722612888, 7160410.402726385742426 ], [ 648654.413015484926291, 7160430.00806759763509 ], [ 648649.511684478493407, 7160447.979629572480917 ], [ 648644.610354765318334, 7160472.486304641701281 ], [ 648636.441470937803388, 7160508.429428273811936 ], [ 648629.906364974100143, 7160542.73877331148833 ], [ 648625.821924996096641, 7160570.513004774227738 ], [ 648629.089486530283466, 7160596.653456516563892 ], [ 648629.089493629988283, 7160632.596578549593687 ], [ 648620.920610768836923, 7160673.441037012264132 ], [ 648617.653058269992471, 7160693.046376947313547 ], [ 648599.681501775514334, 7160711.017941495403647 ], [ 648580.076166770537384, 7160727.355728086084127 ], [ 648562.104614467825741, 7160766.566410204395652 ], [ 648547.400623049703427, 7160828.649987526237965 ], [ 648539.231737924972549, 7160858.057998074218631 ], [ 648539.231743085198104, 7160884.198450472205877 ], [ 648544.133081191917881, 7160902.170010530389845 ], [ 648563.738422007416375, 7160915.24023288115859 ], [ 648588.245097059290856, 7160926.676675993949175 ], [ 648616.019333004485816, 7160960.986014315858483 ], [ 648627.455785472411662, 7160987.126464472152293 ], [ 648633.990903704194352, 7161014.900693863630295 ], [ 648635.624690925935283, 7161060.64648524671793 ], [ 648635.624695444596, 7161083.519381100311875 ], [ 648635.624702544417232, 7161119.462503157556057 ], [ 648629.089593669516034, 7161139.067843745462596 ], [ 648619.28693067911081, 7161170.109632903710008 ], [ 648616.019380759680644, 7161202.785199053585529 ], [ 648607.033607830177061, 7161238.728322880342603 ], [ 648611.934945940040052, 7161256.699882948771119 ], [ 648616.836289858445525, 7161304.079451981000602 ], [ 648623.37141132040415, 7161348.191464144736528 ], [ 648633.17408721963875, 7161382.500806013122201 ], [ 648654.413210433209315, 7161416.810145637020469 ], [ 648654.41321333788801, 7161431.514150123111904 ], [ 648636.441655534901656, 7161442.950601581484079 ], [ 648589.062090357765555, 7161454.387058816850185 ], [ 648569.456753398757428, 7161460.922175770625472 ], [ 648551.485201399424113, 7161501.766636199317873 ], [ 648535.147426295909099, 7161536.075983207672834 ], [ 648526.978542452445254, 7161572.019106889143586 ], [ 648518.809658607002348, 7161607.96223057154566 ], [ 648502.471882211160846, 7161635.736464475281537 ], [ 648486.134102589101531, 7161647.172915617004037 ], [ 648466.528764011804014, 7161645.539141187444329 ], [ 648402.811411462025717, 7161629.201370917260647 ], [ 648375.03718355728779, 7161635.736489467322826 ], [ 648353.798070979188196, 7161655.34183295071125 ], [ 648352.164294724585488, 7161665.144502928480506 ], [ 648352.164298912510276, 7161686.383620522916317 ], [ 648353.798082575318404, 7161714.157850904390216 ], [ 648360.33320176997222, 7161746.833415159955621 ], [ 648366.868319675908424, 7161772.973866304382682 ], [ 648388.107443854212761, 7161812.184540783986449 ], [ 648410.980345256044529, 7161846.493880113586783 ], [ 648435.48702355986461, 7161874.268106017261744 ], [ 648534.330613308819011, 7161921.647656661458313 ], [ 648544.133285019895993, 7161934.717880954965949 ], [ 648562.104855413548648, 7161986.998782297596335 ], [ 648567.006199656287208, 7162036.012129652313888 ], [ 648584.977776184328832, 7162119.33481827378273 ], [ 648602.949349489761516, 7162186.319724129512906 ], [ 648622.554694857914001, 7162222.262842389754951 ], [ 648632.35736947786063, 7162250.037071186117828 ], [ 648632.357372059952468, 7162263.107297409325838 ], [ 648627.45604007341899, 7162276.177524594590068 ], [ 648578.442706653149799, 7162338.26110877841711 ], [ 648532.696927024517208, 7162387.274466097354889 ], [ 648511.457814752240665, 7162408.513587881810963 ], [ 648503.288928640075028, 7162433.020263655111194 ], [ 648511.457823780016042, 7162454.259379671886563 ], [ 648522.894277878687717, 7162488.568721272051334 ], [ 648537.59828577877488, 7162509.807836005464196 ], [ 648557.203628893359564, 7162534.314506333321333 ], [ 648571.907636149437167, 7162552.286064511165023 ], [ 648583.344087994541042, 7162575.158958166837692 ], [ 648581.710311739705503, 7162584.961628156714141 ], [ 648573.541425952222198, 7162611.102082218974829 ], [ 648575.992098074988462, 7162635.60875591635704 ], [ 648592.329895136412233, 7162712.396331810392439 ], [ 648600.498794152634218, 7162753.240787178277969 ], [ 648600.498801572597586, 7162790.817687595263124 ], [ 648593.963693327386864, 7162813.690584785304964 ], [ 648580.893474255921319, 7162846.366152931004763 ], [ 648574.358367622015066, 7162877.407941518351436 ], [ 648579.259707999415696, 7162906.815949581563473 ], [ 648587.428608952672221, 7162957.463074637576938 ], [ 648595.597510228981264, 7163009.743977976031601 ], [ 648603.766408603289165, 7163047.320876801386476 ], [ 648626.639310051454231, 7163081.630216182209551 ], [ 648659.314880648511462, 7163115.939553640782833 ], [ 648669.117553346208297, 7163133.911112791858613 ], [ 648667.483778704889119, 7163151.882674191147089 ], [ 648641.343329260009341, 7163160.051570722833276 ], [ 648610.301543627982028, 7163160.051576817408204 ], [ 648595.597539906622842, 7163160.051579704508185 ], [ 648564.555753629654646, 7163156.784029236994684 ], [ 648536.781525024445727, 7163160.051591247320175 ], [ 648482.866846649907529, 7163169.854271504096687 ], [ 648419.149497838458046, 7163173.121840559877455 ], [ 648353.798371477518231, 7163179.656966486945748 ], [ 648304.78502638626378, 7163182.924532651901245 ], [ 648275.37701894401107, 7163182.924538411200047 ], [ 648252.504123301478103, 7163178.023208051919937 ], [ 648231.265004562912509, 7163166.586764253675938 ], [ 648210.025885181850754, 7163151.882763891480863 ], [ 648190.420548497117124, 7163160.051659130491316 ], [ 648152.843654602533206, 7163182.924562403932214 ], [ 648125.069424065179192, 7163176.38945471867919 ], [ 648089.12629710836336, 7163142.080117877572775 ], [ 648061.352064321981743, 7163124.108562231995165 ], [ 648031.944057205342688, 7163125.742346263490617 ], [ 648018.873834247235209, 7163138.812575056217611 ], [ 648018.873836174258031, 7163148.61524473503232 ], [ 648033.577844073763117, 7163169.854359497316182 ], [ 648054.816964092082344, 7163187.825916422531009 ], [ 648076.056084758951329, 7163209.065029905177653 ], [ 648089.12631382397376, 7163227.036588428542018 ], [ 648102.196544499718584, 7163253.177038352936506 ], [ 648118.5343312373152, 7163277.683709355071187 ], [ 648150.393014652654529, 7163321.795716684311628 ], [ 648174.899692673003301, 7163347.93616437073797 ], [ 648196.138811093755066, 7163357.738829893991351 ], [ 648215.744152288069017, 7163372.442830579355359 ], [ 648219.011711245169863, 7163385.513056181371212 ], [ 648204.307710094493814, 7163398.583285301923752 ], [ 648184.702375333523378, 7163416.554850223474205 ], [ 648168.364596633240581, 7163432.89263622649014 ], [ 648153.660594193497673, 7163439.42775222659111 ], [ 648127.520142803434283, 7163437.793979061767459 ], [ 648093.210806241142564, 7163465.568216539919376 ], [ 648065.436579551897012, 7163478.638448217883706 ], [ 648026.225902624893934, 7163477.004677604883909 ], [ 647977.212556868907996, 7163477.004687188193202 ], [ 647944.53699431696441, 7163483.539806697517633 ], [ 647939.63566231157165, 7163496.61003389954567 ], [ 647939.635664558154531, 7163508.046481863595545 ], [ 647952.705892664147541, 7163521.11670555267483 ], [ 647972.311232251464389, 7163527.651814844459295 ], [ 648013.155687694204971, 7163530.919363420456648 ], [ 648042.563698041834868, 7163545.623362194746733 ], [ 648068.704151685698889, 7163558.69358332734555 ], [ 648093.210826815804467, 7163570.130026498809457 ], [ 648158.561971544986591, 7163656.720262592658401 ], [ 648179.80109383398667, 7163686.128267493098974 ], [ 648189.603769421344623, 7163718.803831193596125 ], [ 648204.307782483636402, 7163766.183398468419909 ], [ 648214.110457107541151, 7163793.957627326250076 ], [ 648251.687368087703362, 7163857.674972939305007 ], [ 648282.729164692573249, 7163913.223428427241743 ], [ 648309.686511956737377, 7163949.166545338928699 ], [ 648329.291854457464069, 7163970.40565915685147 ], [ 648352.164753344957717, 7163991.644772335886955 ], [ 648368.502538816770539, 7164009.616330232471228 ], [ 648384.840320747578517, 7164009.616327030584216 ], [ 648410.980771836126223, 7164009.616321906447411 ], [ 648442.022557502845302, 7164009.616315819323063 ], [ 648453.459004854201339, 7164009.616313580423594 ], [ 648474.698125552968122, 7164030.855427077040076 ], [ 648491.035913607687689, 7164061.897211224772036 ], [ 648510.641257083741948, 7164088.037659887224436 ], [ 648531.880380043527111, 7164120.713221358135343 ], [ 648556.387056812644005, 7164140.31855593342334 ], [ 648613.569304224220105, 7164194.233228014782071 ], [ 648672.385331127792597, 7164254.683012908324599 ], [ 648698.525794490822591, 7164316.766582500189543 ], [ 648705.060913075576536, 7164346.174590300768614 ], [ 648705.060924050980248, 7164401.723051905632019 ], [ 648703.427154572680593, 7164445.835065854713321 ], [ 648703.427161673549563, 7164481.77818807400763 ], [ 648682.188052573706955, 7164519.355092748068273 ], [ 648651.146274630678818, 7164558.565777631476521 ], [ 648636.442273786058649, 7164573.26978506706655 ], [ 648611.935605066246353, 7164594.508907554671168 ], [ 648592.330268669873476, 7164604.31158110126853 ], [ 648575.175599564798176, 7164614.11425416637212 ], [ 648560.471610326669179, 7164687.634279791265726 ], [ 648550.668955024564639, 7164757.886747892946005 ], [ 648545.767627858091146, 7164795.463649370707572 ], [ 648534.33118500886485, 7164818.336547584272921 ], [ 648500.02185065462254, 7164857.547233120538294 ], [ 648467.346295782132074, 7164903.293031468987465 ], [ 648452.642294927034527, 7164917.997038903646171 ], [ 648447.740965497563593, 7164944.137492405250669 ], [ 648451.008527365396731, 7164971.911722589284182 ], [ 648468.980093313613907, 7165001.31972817145288 ], [ 648478.782766995253041, 7165024.192622223868966 ], [ 648504.923220053547993, 7165033.995286799967289 ], [ 648526.16233949305024, 7165048.699287189170718 ], [ 648568.640576762380078, 7165069.938396546989679 ], [ 648607.851258288603276, 7165094.445063112303615 ], [ 648642.160603940603323, 7165112.416617501527071 ], [ 648668.301060875528492, 7165141.824621483683586 ], [ 648674.836179465986788, 7165171.23262931406498 ], [ 648669.934850043384358, 7165197.373082825914025 ], [ 648655.230851445579901, 7165223.51353826187551 ], [ 648633.991741676931269, 7165257.8228864017874 ], [ 648626.639743667212315, 7165277.428227262571454 ], [ 648618.470858172513545, 7165305.20245970133692 ], [ 648584.161521221278235, 7165331.342918988317251 ], [ 648554.75352143344935, 7165370.553603588603437 ], [ 648549.852195551386103, 7165414.665618238970637 ], [ 648549.852203289512545, 7165453.876297073438764 ], [ 648561.288657433819026, 7165488.185638814233243 ], [ 648564.55621898593381, 7165514.326090730726719 ], [ 648572.725118675152771, 7165558.438102822750807 ], [ 648589.06290870194789, 7165599.282556745223701 ], [ 648603.766918598674238, 7165630.324341278523207 ], [ 648608.668259316706099, 7165661.366127736866474 ], [ 648602.133152658585459, 7165692.407916439697146 ], [ 648585.795379399671219, 7165736.519933354109526 ], [ 648571.091383690596558, 7165777.364393377676606 ], [ 648569.999674954451621, 7165793.19421642459929 ], [ 648585.795386841287836, 7165774.22753619775176 ], [ 648595.598051829496399, 7165752.988416561856866 ], [ 648608.668271598173305, 7165723.580404858104885 ], [ 648620.104713813285343, 7165697.439950046129525 ], [ 648634.808715648949146, 7165687.637277448549867 ], [ 648642.977606954518706, 7165689.271054129116237 ], [ 648670.751841460471042, 7165715.411501242779195 ], [ 648706.694965015864, 7165731.749277038499713 ], [ 648737.736755274701864, 7165754.622166935354471 ], [ 648770.412327928817831, 7165798.73417422734201 ], [ 648803.087902203202248, 7165851.015072945505381 ], [ 648848.833699149894528, 7165888.591964527964592 ], [ 648878.241712838178501, 7165919.633746177889407 ], [ 648894.579503212007694, 7165962.111978398635983 ], [ 648899.480844591045752, 7165996.421321441419423 ], [ 648899.480849760817364, 7166022.561774019151926 ], [ 648899.480855578789487, 7166051.969783169217408 ], [ 648888.04442079924047, 7166115.687138581648469 ], [ 648897.847103235661052, 7166182.672046395018697 ], [ 648901.114667386747897, 7166221.88272462785244 ], [ 648912.551123820827343, 7166267.628514403477311 ], [ 648943.592921867151745, 7166329.71208319440484 ], [ 648968.099600980291143, 7166360.753865822218359 ], [ 649005.676504064584151, 7166383.626754444092512 ], [ 649017.11295501049608, 7166401.598313349299133 ], [ 649023.648072008043528, 7166422.837429793551564 ], [ 649025.281856675399467, 7166455.512995213270187 ], [ 649046.52098166407086, 7166497.991226498037577 ], [ 649051.422322728903964, 7166530.666791275143623 ], [ 649051.422330493107438, 7166569.87747017107904 ], [ 649049.788558441214263, 7166600.91925795096904 ], [ 649049.788561676512472, 7166617.257040824741125 ], [ 649062.858795352978632, 7166658.101495439186692 ], [ 649080.830359746003523, 7166679.340609638020396 ], [ 649118.407263498054817, 7166705.481054837815464 ], [ 649152.716606321977451, 7166708.748604658991098 ], [ 649191.927281152573414, 7166698.945927207358181 ], [ 649232.771735800080933, 7166697.312140870839357 ], [ 649285.052639135625213, 7166702.213465426117182 ], [ 649325.897095079068094, 7166707.114792235195637 ], [ 649374.910443964181468, 7166721.818787157535553 ], [ 649440.261572568677366, 7166725.086330837570131 ], [ 649510.514031877974048, 7166708.748534091748297 ], [ 649544.823374054394662, 7166708.748527316376567 ], [ 649584.034049854148179, 7166703.847184706479311 ], [ 649616.709612532053143, 7166697.312065100297332 ], [ 649662.45539787854068, 7166676.07293832115829 ], [ 649685.328288763877936, 7166656.467594350688159 ], [ 649718.00384721532464, 7166628.69335700199008 ], [ 649739.24296087352559, 7166613.989348215982318 ], [ 649758.848295683041215, 7166596.017783176153898 ], [ 649791.523857379099354, 7166584.581328699365258 ], [ 649837.269646290456876, 7166581.313763074576855 ], [ 649886.282992899999954, 7166584.581309949047863 ], [ 649910.789661973714828, 7166564.975965648889542 ], [ 649923.859882682096213, 7166540.469288751482964 ], [ 649928.761208491632715, 7166496.357274025678635 ], [ 649928.761202960158698, 7166468.583043144084513 ], [ 649930.39497204660438, 7166422.83725078497082 ], [ 649951.634081138647161, 7166385.260345978662372 ], [ 649977.774527102708817, 7166359.11988821066916 ], [ 649999.013638142962009, 7166331.345653127878904 ], [ 650002.281190957059152, 7166313.374091323465109 ], [ 650002.281186073552817, 7166288.867417021654546 ], [ 650007.182515458320267, 7166262.72696346603334 ], [ 650016.985182366566733, 7166251.290513513609767 ], [ 650034.956741241388954, 7166244.755396808497608 ], [ 650069.266083071939647, 7166243.121611721813679 ], [ 650110.11053573701065, 7166231.685155619867146 ], [ 650141.152315957238898, 7166203.910918592475355 ], [ 650155.856311590177938, 7166163.066458515822887 ], [ 650165.658975560916588, 7166136.926003988832235 ], [ 650167.292750174296089, 7166118.954442514106631 ], [ 650168.926525437273085, 7166104.250437613576651 ], [ 650180.362969561712816, 7166087.912652483209968 ], [ 650203.235864326590672, 7166087.912647943943739 ], [ 650224.474979265360162, 7166079.743752298876643 ], [ 650235.911422081058845, 7166056.870854022912681 ], [ 650247.347862616414204, 7166022.561507744714618 ], [ 650253.882969537284225, 7165993.15349729731679 ], [ 650257.150522016803734, 7165973.548157216981053 ], [ 650263.685630892636254, 7165953.942816488444805 ], [ 650263.685626652208157, 7165932.703698769211769 ], [ 650260.418067323626019, 7165917.999694842845201 ], [ 650245.714059961028397, 7165900.028136618435383 ], [ 650239.178944237530231, 7165885.324133343994617 ], [ 650239.178940976271406, 7165868.986350484192371 ], [ 650242.44649443635717, 7165854.282345264218748 ], [ 650260.418048406951129, 7165823.240554268471897 ], [ 650280.023381877806969, 7165798.733876092359424 ], [ 650296.361160258529708, 7165780.762311706319451 ], [ 650332.304277327028103, 7165764.424521716311574 ], [ 650379.683842098689638, 7165749.720507735386491 ], [ 650412.359402116504498, 7165730.115161819383502 ], [ 650446.668738697655499, 7165702.340924148447812 ], [ 650482.611855105496943, 7165682.735577582381666 ], [ 650520.188747422071174, 7165651.693782689981163 ], [ 650536.526526773697697, 7165638.623553158715367 ], [ 650565.934529410209507, 7165614.116873032413423 ], [ 650583.906086630304344, 7165599.412864891812205 ], [ 650608.412759904167615, 7165601.046638300642371 ], [ 650634.553213010076433, 7165610.849302813410759 ], [ 650668.86255579139106, 7165614.116852555423975 ], [ 650683.566558578750119, 7165609.215514774434268 ], [ 650708.073227274464443, 7165587.97639218904078 ], [ 650742.382562855724245, 7165555.300819655880332 ], [ 650761.987897940096445, 7165538.963032899424434 ], [ 650778.968052766867913, 7165518.895567974075675 ] ] ] ] } }
]
}
