{
"type": "FeatureCollection",
"name": "rio_avariu",
"crs": { "type": "name", "properties": { "name": "urn:ogc:def:crs:EPSG::31982" } },
"features": [
{ "type": "Feature", "properties": { "AREA": 6722861.8663900001, "PERIMETER": 11737.06452, "BACIAS1_": 5, "BACIAS1_ID": 0, "NOME_BACIA": "RIO AVARIU", "SUB_AREA": 6.72, "SUBCODIGO": 4, "BACCODIGO": 2, "SUBNOME": "RIO AVARIU", "SUBBAC_DAT": "2002-01-03", "SUBBAC_POP": 11605, "SUBBAC_P_1": 17505, "SUBBAC_DEN": 2603.68, "SUBBAC_D_1": 1726.19 }, "geometry": { "type": "MultiPolygon", "coordinates": [ [ [ [ 682208.106182438321412, 7171047.644340666010976 ], [ 682156.114676256547682, 7171057.392761552706361 ], [ 682097.624231114401482, 7171065.516449270769954 ], [ 682037.509050542372279, 7171070.390667911618948 ], [ 681966.02071923064068, 7171041.145459939725697 ], [ 681922.152871338534169, 7170989.153959102928638 ], [ 681883.159229733399116, 7170946.910865476354957 ], [ 681852.289257807191461, 7170890.045157330110669 ], [ 681813.295620526187122, 7170865.674145738594234 ], [ 681780.800921420566738, 7170839.678397854790092 ], [ 681735.308349108556286, 7170829.930000391788781 ], [ 681670.318961492506787, 7170821.806342331692576 ], [ 681618.327451793593355, 7170816.932150609791279 ], [ 681567.960674385889433, 7170802.309550115838647 ], [ 681539.527816202258691, 7170794.185883281752467 ], [ 681521.655729665420949, 7170771.439601343125105 ], [ 681503.78364195371978, 7170743.819115218706429 ], [ 681477.787877121125348, 7170699.951283742673695 ], [ 681443.66843947826419, 7170657.708188944496214 ], [ 681417.67268522141967, 7170657.708195171318948 ], [ 681394.926398681360297, 7170651.209261700510979 ], [ 681378.67905227211304, 7170651.209265591576695 ], [ 681341.310157877160236, 7170660.957682916894555 ], [ 681318.563872902421281, 7170660.957688361406326 ], [ 681289.318648972781375, 7170659.33296063169837 ], [ 681263.322896281140856, 7170665.831905773840845 ], [ 681227.578733396483585, 7170662.582444867119193 ], [ 681209.70664843544364, 7170646.335101845674217 ], [ 681185.335624909726903, 7170630.08776037953794 ], [ 681164.214069496141747, 7170608.966213949956 ], [ 681139.843047146801837, 7170597.593076668679714 ], [ 681089.476267027086578, 7170571.59733304195106 ], [ 681050.482630960061215, 7170552.100525610148907 ], [ 681021.237402347265743, 7170530.978981117717922 ], [ 680970.870624189032242, 7170513.106911128386855 ], [ 680923.753317657392472, 7170504.983248738572001 ], [ 680879.885482358280569, 7170504.983259216882288 ], [ 680844.141319873044267, 7170503.358533022925258 ], [ 680805.147684205323458, 7170485.486460311338305 ], [ 680779.151925664395094, 7170467.614384493790567 ], [ 680761.279839937924407, 7170448.117572007700801 ], [ 680745.032491191290319, 7170438.369167510420084 ], [ 680722.286199984722771, 7170412.373417272232473 ], [ 680719.03672719374299, 7170397.750805482268333 ], [ 680722.286193354288116, 7170384.75292687676847 ], [ 680732.034595737583004, 7170362.006638344377279 ], [ 680758.03034296236001, 7170332.761407018639147 ], [ 680779.15188743500039, 7170308.390381042845547 ], [ 680779.151882363366894, 7170287.268829567357898 ], [ 680764.529266700148582, 7170271.021485769189894 ], [ 680748.28191795933526, 7170261.273081274703145 ], [ 680738.53351011837367, 7170261.273083599284291 ], [ 680714.162492465693504, 7170269.396763060241938 ], [ 680689.791476762620732, 7170285.644116161391139 ], [ 680670.294664978515357, 7170301.891468102112412 ], [ 680652.422585885273293, 7170310.015146009624004 ], [ 680618.303158440627158, 7170310.015154147520661 ], [ 680585.808464855886996, 7170306.765692437067628 ], [ 680550.064300823141821, 7170298.642027312889695 ], [ 680525.693283945904113, 7170310.01517622731626 ], [ 680517.5696142509114, 7170324.637790722772479 ], [ 680515.944883894873783, 7170342.50987312849611 ], [ 680517.569622431881726, 7170358.757220031693578 ], [ 680528.942773873452097, 7170396.126116088591516 ], [ 680528.942779326345772, 7170418.872402297332883 ], [ 680520.819112747325562, 7170446.492894630879164 ], [ 680511.070709579158574, 7170465.989713702350855 ], [ 680481.825492668547668, 7170493.610211068764329 ], [ 680468.827623331686482, 7170526.104908754117787 ], [ 680460.703957526595332, 7170556.974870548583567 ], [ 680455.829759445623495, 7170581.345892652869225 ], [ 680455.829768401454203, 7170618.714791432954371 ], [ 680451.767939196550287, 7170649.584752262569964 ], [ 680432.27112856740132, 7170670.706308392807841 ], [ 680407.900117127341218, 7170704.825743522495031 ], [ 680390.028045416343957, 7170743.819381295703351 ], [ 680378.654909934150055, 7170773.064609142951667 ], [ 680360.782836663885973, 7170805.559307997114956 ], [ 680341.286024860921316, 7170821.806659939698875 ], [ 680308.791335535002872, 7170836.429280245676637 ], [ 680286.04505444644019, 7170852.676632961258292 ], [ 680245.42669657850638, 7170886.796071961522102 ], [ 680193.43519427254796, 7170912.791840014979243 ], [ 680147.942625086288899, 7170916.04132029786706 ], [ 680108.948993301135488, 7170914.416594841517508 ], [ 680060.206954053835943, 7170914.416606429032981 ], [ 679983.844426289084367, 7170916.041359309107065 ], [ 679943.226061803521588, 7170922.540307881310582 ], [ 679894.484026827267371, 7170940.412401491776109 ], [ 679861.989335935562849, 7170948.536082860082388 ], [ 679837.618315147701651, 7170943.661884455941617 ], [ 679806.584821282420307, 7171049.896463972516358 ], [ 679737.485125441220589, 7171147.787754601798952 ], [ 679645.352184343733825, 7171222.645809700712562 ], [ 679501.394462039228529, 7171332.05373858474195 ], [ 679345.920111590065062, 7171406.911808674223721 ], [ 679242.270554659655318, 7171499.044797230511904 ], [ 679196.204098455258645, 7171596.936082419008017 ], [ 679230.75399920262862, 7171769.685381840914488 ], [ 679299.853745901491493, 7171884.851570574566722 ], [ 679386.228426558198407, 7172017.292685996741056 ], [ 679391.986754331970587, 7172092.150717964395881 ], [ 679368.953529652790166, 7172155.492136240005493 ], [ 679368.953551600221545, 7172247.625100358389318 ], [ 679340.162021082243882, 7172328.241450783796608 ], [ 679305.612164161400869, 7172339.758079479448497 ], [ 679253.787371925078332, 7172328.241471229121089 ], [ 679144.37947203265503, 7172282.175015047192574 ], [ 679092.554674323415384, 7172247.625165755860507 ], [ 678994.663409394677728, 7172264.900119666941464 ], [ 678960.113557946169749, 7172299.449989376589656 ], [ 678937.080326380440965, 7172333.999856367707253 ], [ 678914.047101654810831, 7172397.341274649836123 ], [ 678856.464017256163061, 7172460.682701097801328 ], [ 678787.364311589277349, 7172518.265820004045963 ], [ 678741.297832027543336, 7172518.265830876305699 ], [ 678603.09839197457768, 7172512.507553212344646 ], [ 678545.515302078565583, 7172552.815738606266677 ], [ 678493.690543961478397, 7172685.256886808201671 ], [ 678505.207181600271724, 7172760.114917490631342 ], [ 678580.06523549114354, 7172863.764484561979771 ], [ 678758.572878049337305, 7173007.722199032083154 ], [ 679023.455165820196271, 7173134.404962286353111 ], [ 679144.379689839435741, 7173197.746346611529589 ], [ 679230.754345949157141, 7173226.537877507507801 ], [ 679328.645634308340959, 7173307.154198054224253 ], [ 679409.261999691254459, 7173416.562074026092887 ], [ 679472.603418771759607, 7173456.870230889879167 ], [ 679570.494687964092009, 7173456.870207691565156 ], [ 679697.177509667235427, 7173468.386798187159002 ], [ 679749.002314359648153, 7173531.728198834694922 ], [ 679841.135285983909853, 7173583.552969377487898 ], [ 679956.301504318020307, 7173664.169285784475505 ], [ 680048.434463584562764, 7173664.169263893738389 ], [ 680169.358972620684654, 7173664.169235143810511 ], [ 680244.21700340276584, 7173669.927527605555952 ], [ 680353.624893910367973, 7173675.685811836272478 ], [ 680468.791081956354901, 7173629.619302259758115 ], [ 680583.957264464232139, 7173560.519551599398255 ], [ 680624.265427232603543, 7173531.72799064964056 ], [ 680653.056967328069732, 7173491.41981191188097 ], [ 680716.398354700533673, 7173399.28683253377676 ], [ 680762.464813586324453, 7173312.91216754540801 ], [ 680802.772963891271502, 7173232.295814208686352 ], [ 680837.322804237948731, 7173151.679462250322104 ], [ 680929.455738539225422, 7173048.029855493456125 ], [ 680980.016493637580425, 7172984.828877105377614 ], [ 681021.588670046068728, 7172932.863628212362528 ], [ 681142.513154035317712, 7172829.214014576748013 ], [ 681240.404407902504317, 7172765.872578281909227 ], [ 681292.229183565592393, 7172708.289463263005018 ], [ 681326.779026607749984, 7172639.189731860533357 ], [ 681372.845479827723466, 7172529.781825883314013 ], [ 681413.15363002428785, 7172449.165472596883774 ], [ 681499.528265319997445, 7172391.58234931435436 ], [ 681568.627974934875965, 7172351.274160942994058 ], [ 681655.002606039284728, 7172276.416106875985861 ], [ 681706.827378858113661, 7172207.316371352411807 ], [ 681729.860603343346156, 7172143.974952997639775 ], [ 681747.135513713001274, 7172063.358605257235467 ], [ 681775.927048131474294, 7172000.017185530625284 ], [ 681827.75182092061732, 7171930.917450024746358 ], [ 681879.576593699632213, 7171861.817714520730078 ], [ 681948.676294896984473, 7171786.959664616733789 ], [ 682029.29261595918797, 7171712.101611945778131 ], [ 682092.634009973960929, 7171648.760183932259679 ], [ 682098.392283705063164, 7171499.044115979224443 ], [ 682098.392257246538065, 7171389.63622119743377 ], [ 682104.150535152992234, 7171257.195084046572447 ], [ 682150.216978422715329, 7171107.479006479494274 ], [ 682208.106182438321412, 7171047.644340666010976 ] ] ] ] } }
]
}
