{
"type": "FeatureCollection",
"name": "rio_guajuvira",
"crs": { "type": "name", "properties": { "name": "urn:ogc:def:crs:EPSG::31982" } },
"features": [
{ "type": "Feature", "properties": { "AREA": 72492389.09826, "PERIMETER": 45343.37532, "BACIAS1_": 24, "BACIAS1_ID": 0, "NOME_BACIA": "RIO GUAJUVIRA", "SUB_AREA": 72.49, "SUBCODIGO": 23, "BACCODIGO": 2, "SUBNOME": "RIO GUAJUVIRA", "SUBBAC_DAT": "2002-01-03", "SUBBAC_POP": 2834, "SUBBAC_P_1": 1535, "SUBBAC_DEN": 21.18, "SUBBAC_D_1": 39.09 }, "geometry": { "type": "MultiPolygon", "coordinates": [ [ [ [ 653333.939244674053043, 7167050.19433025829494 ], [ 653337.040939792175777, 7167031.584135161712766 ], [ 653337.040934106218629, 7167003.668843457475305 ], [ 653335.435329653671943, 7166978.849101347848773 ], [ 653363.405362513032742, 7166943.185706099495292 ], [ 653385.117251402814873, 7166926.126356774941087 ], [ 653403.727442011702806, 7166912.168707154691219 ], [ 653433.193579436163418, 7166901.312754414975643 ], [ 653478.168207923648879, 7166873.397453600540757 ], [ 653516.939441123977304, 7166857.888950353488326 ], [ 653551.058128171600401, 7166853.236394819803536 ], [ 653577.422569212736562, 7166854.787239011377096 ], [ 653614.642956435447559, 7166856.338081002235413 ], [ 653659.617590931011364, 7166857.888921413570642 ], [ 653710.795622926321812, 7166857.888911025598645 ], [ 653741.812608847976662, 7166842.380409341305494 ], [ 653765.075344009557739, 7166809.812564305961132 ], [ 653774.38043344928883, 7166774.14302303083241 ], [ 653780.583823347114958, 7166735.371783306822181 ], [ 653785.236367273377255, 7166713.659888825379312 ], [ 653797.643160371575505, 7166701.253089997917414 ], [ 653808.499106233241037, 7166699.702238254249096 ], [ 653837.965245861327276, 7166699.702232268638909 ], [ 653886.041577036259696, 7166690.397125270217657 ], [ 653917.058561360929161, 7166667.134375887922943 ], [ 653949.626393552171066, 7166636.117378503084183 ], [ 654022.516316302353516, 7166628.363115987740457 ], [ 654108.410045127617195, 7166622.98591410368681 ], [ 654162.092764934292063, 7166617.507140815258026 ], [ 654225.677596994210035, 7166639.219021400436759 ], [ 654258.245439976919442, 7166660.930908301845193 ], [ 654273.75393960182555, 7166685.744497757405043 ], [ 654332.68622776074335, 7166729.168272822163999 ], [ 654382.313413475174457, 7166744.676758090034127 ], [ 654417.982953147264197, 7166755.532697586342692 ], [ 654466.059286228381097, 7166755.532687779515982 ], [ 654514.135618990170769, 7166753.981828433461487 ], [ 654538.17378616752103, 7166757.083522602915764 ], [ 654569.190773660666309, 7166749.329268578439951 ], [ 654615.716255056671798, 7166738.473312310874462 ], [ 654668.445132038323209, 7166716.761408004909754 ], [ 654687.055323894252069, 7166709.007156509906054 ], [ 654707.216362335486338, 7166687.295258853584528 ], [ 654722.724847632227466, 7166642.320619072765112 ], [ 654747.538425505743362, 7166577.184933396056294 ], [ 654747.538417216157541, 7166536.862845405936241 ], [ 654745.98755756020546, 7166487.235660508275032 ], [ 654727.377350091002882, 7166418.998284643515944 ], [ 654724.275641300831921, 7166370.921949608251452 ], [ 654735.906999768572859, 7166310.438815262168646 ], [ 654749.86463560257107, 7166265.464175819419324 ], [ 654770.961776519892737, 7166189.238262728787959 ], [ 654783.520279890159145, 7166172.912200530059636 ], [ 654795.613069413928315, 7166145.703407559543848 ], [ 654812.75234615849331, 7166107.140011440962553 ], [ 654841.97865015710704, 7166041.380787460133433 ], [ 654880.09435514442157, 7165955.620399087667465 ], [ 654870.83081892656628, 7165905.667058477178216 ], [ 654850.669764558551833, 7165849.836479278281331 ], [ 654822.754466760903597, 7165812.61609610915184 ], [ 654788.635773069807328, 7165784.700811428949237 ], [ 654760.720480698277242, 7165773.84487038012594 ], [ 654704.88989627500996, 7165753.683837816119194 ], [ 654666.118654872407205, 7165728.870253155007958 ], [ 654635.1016600956209, 7165700.954967835918069 ], [ 654628.898258464643732, 7165682.344774669036269 ], [ 654641.305050575872883, 7165665.285427233204246 ], [ 654670.771190163563006, 7165665.285421214997768 ], [ 654718.847526361234486, 7165680.793906755745411 ], [ 654777.779810002772138, 7165702.505788217298687 ], [ 654822.754446664359421, 7165714.912575313821435 ], [ 654856.873137162066996, 7165727.319364625960588 ], [ 654898.746073007816449, 7165730.421055134385824 ], [ 654946.822407618514262, 7165738.175292979925871 ], [ 654979.390245795249939, 7165736.624436777085066 ], [ 654992.572464221972041, 7165727.319336859509349 ], [ 654997.22500651050359, 7165697.85319471731782 ], [ 655034.445380582939833, 7165635.819205645471811 ], [ 655079.420009895926341, 7165612.556453393772244 ], [ 655108.886147883255035, 7165604.802199676632881 ], [ 655147.657384179532528, 7165604.802191731519997 ], [ 655177.123526002280414, 7165615.658132446929812 ], [ 655201.937121389899403, 7165635.819171331822872 ], [ 655242.259213857003488, 7165668.3870033249259 ], [ 655280.078014345141128, 7165686.842630157247186 ], [ 655313.598299207747914, 7165719.565023392438889 ], [ 655339.962745974306017, 7165749.031159177422523 ], [ 655372.53058703080751, 7165761.437948783859611 ], [ 655414.403522239532322, 7165761.437940191477537 ], [ 655471.784947486012243, 7165739.726034900173545 ], [ 655499.700233139446937, 7165718.014135656878352 ], [ 655509.0053240848938, 7165690.098842090927064 ], [ 655491.945973064284772, 7165655.980155798606575 ], [ 655458.630490606883541, 7165610.320092763751745 ], [ 655443.869626281550154, 7165589.293635616078973 ], [ 655445.420470608631149, 7165564.480042720213532 ], [ 655460.928961602388881, 7165547.420694638043642 ], [ 655481.090001272037625, 7165531.912195138633251 ], [ 655496.598495469545014, 7165530.36134241707623 ], [ 655529.563483925536275, 7165513.593236619606614 ], [ 655540.509071479551494, 7165498.667428145185113 ], [ 655557.223279501777142, 7165475.875315200537443 ], [ 655572.310440722852945, 7165455.301903520710766 ], [ 655583.649725919938646, 7165424.717740019783378 ], [ 655598.98669465968851, 7165408.966251262463629 ], [ 655606.862435406306759, 7165401.090506839565933 ], [ 655615.944877585629001, 7165395.800369733013213 ], [ 655629.660635305568576, 7165392.800246571190655 ], [ 655648.581711270147935, 7165383.030605286359787 ], [ 655657.886806375463493, 7165375.276355693116784 ], [ 655670.293600060627796, 7165365.971255930140615 ], [ 655687.352940176730044, 7165347.361057994887233 ], [ 655704.412278046482243, 7165317.894913310185075 ], [ 655721.471615593181923, 7165286.877919090911746 ], [ 655741.632651399355382, 7165252.759225165471435 ], [ 655760.242839357233606, 7165226.394779236987233 ], [ 655769.547930929227732, 7165201.581184754148126 ], [ 655769.547925793449394, 7165176.767592189833522 ], [ 655767.997071205638349, 7165151.953999945893884 ], [ 655752.488573488313705, 7165136.445507785305381 ], [ 655728.065142421168275, 7165121.527760479599237 ], [ 655701.31053455080837, 7165102.32682853937149 ], [ 655684.251187063404359, 7165085.267487160861492 ], [ 655678.047785731381737, 7165068.208143551833928 ], [ 655679.598632295499556, 7165054.250497417524457 ], [ 655687.352876340504736, 7165038.742000474594533 ], [ 655701.310518188984133, 7165023.233502255752683 ], [ 655721.471558481454849, 7165010.826701829209924 ], [ 655732.327501105843112, 7164993.767354713752866 ], [ 655750.937691304134205, 7164978.258855535648763 ], [ 655774.249836961738765, 7164969.77792892511934 ], [ 655781.067667020950466, 7164947.376469447277486 ], [ 655814.522511071758345, 7164941.0384536171332 ], [ 655834.683548791334033, 7164916.22485691215843 ], [ 655847.090339899295941, 7164894.512960872612894 ], [ 655862.598827658686787, 7164861.945117453113198 ], [ 655890.514111340744421, 7164830.928121015429497 ], [ 655933.937891771201976, 7164810.767068123444915 ], [ 655954.098931410815567, 7164795.258568625897169 ], [ 655961.853175127413124, 7164778.199222149327397 ], [ 655958.751470120390877, 7164748.733081635087729 ], [ 655958.751463051070459, 7164714.614391881041229 ], [ 655950.476433951756917, 7164679.124607410281897 ], [ 655968.914703293237835, 7164653.003712957724929 ], [ 655979.14385971147567, 7164638.512400886975229 ], [ 655963.40398826287128, 7164602.953224461525679 ], [ 655935.488691098056734, 7164568.83454046305269 ], [ 655913.776792698306963, 7164539.368403791449964 ], [ 655902.920841731713153, 7164516.105663017369807 ], [ 655899.819123879307881, 7164424.605541164055467 ], [ 655888.963172914460301, 7164401.342800395563245 ], [ 655887.412317362497561, 7164371.876659575849771 ], [ 655887.412307725287974, 7164325.35117356851697 ], [ 655882.759752954822034, 7164294.33418385963887 ], [ 655864.924962128628977, 7164187.325569733977318 ], [ 655846.314761033398099, 7164150.105184771120548 ], [ 655846.314742407994345, 7164060.155911855399609 ], [ 655855.619831392541528, 7164022.935521151870489 ], [ 655872.679169866722077, 7163996.571075581014156 ], [ 655908.348703970550559, 7163981.062572908587754 ], [ 655968.83183021331206, 7163970.206613719463348 ], [ 655998.297967806342058, 7163960.901510450989008 ], [ 656021.222083828644827, 7163943.842160867527127 ], [ 656043.272587663959712, 7163892.664121747016907 ], [ 656055.679373925086111, 7163847.689482746645808 ], [ 656069.637006738572381, 7163788.757197636179626 ], [ 656071.187845251639374, 7163736.028313220478594 ], [ 656061.882739238557406, 7163691.053678704425693 ], [ 656021.222015350009315, 7163613.511210481636226 ], [ 656021.222008919459768, 7163582.494219841435552 ], [ 656021.221993807936087, 7163509.604291845113039 ], [ 656021.221987058175728, 7163477.036451678723097 ], [ 656021.221981913084164, 7163452.22285917121917 ], [ 656021.221978335059248, 7163434.964365800842643 ], [ 656033.698508154717274, 7163422.487830147147179 ], [ 656053.859546790132299, 7163402.326782081276178 ], [ 656069.368038047803566, 7163386.818283567205071 ], [ 656103.755611604079604, 7163388.638011362403631 ], [ 656134.772600872442126, 7163390.188854496926069 ], [ 656178.196385719347745, 7163391.739695072174072 ], [ 656213.865922041470185, 7163387.087139116600156 ], [ 656238.679510300280526, 7163373.129488212987781 ], [ 656257.289697228115983, 7163342.112493742257357 ], [ 656263.493088575545698, 7163311.095501834526658 ], [ 656269.696476059965789, 7163261.468315550126135 ], [ 656285.204962156713009, 7163221.146224537864327 ], [ 656303.815145857282914, 7163174.620734762400389 ], [ 656308.467685179319233, 7163131.196946930140257 ], [ 656299.16258237848524, 7163101.730807764455676 ], [ 656286.7557835849002, 7163086.222315016202629 ], [ 656261.824055759236217, 7163069.839115863665938 ], [ 656265.011735951644368, 7163041.149938302114606 ], [ 656241.781133852899075, 7163010.23069728910923 ], [ 656238.679427877767012, 7162976.112008256837726 ], [ 656237.128574246075004, 7162955.950964677147567 ], [ 656218.518371552694589, 7162910.976332131773233 ], [ 656213.8658116243314, 7162855.145749993622303 ], [ 656216.967505045235157, 7162828.781307338736951 ], [ 656237.128541404614225, 7162797.764312572777271 ], [ 656265.011680905823596, 7162776.052413392812014 ], [ 656265.01167800812982, 7162762.094767620787024 ], [ 656294.509960926021449, 7162749.687965286895633 ], [ 656323.200673743151128, 7162740.382862181402743 ], [ 656326.302365226438269, 7162704.713322348892689 ], [ 656332.505757209612057, 7162676.798029527068138 ], [ 656332.50574947881978, 7162639.57764080632478 ], [ 656340.259991552797146, 7162614.764046724885702 ], [ 656355.768481175182387, 7162591.501300574280322 ], [ 656371.27697047626134, 7162566.687704894691706 ], [ 656375.929511079797521, 7162529.467315215617418 ], [ 656389.887148998910561, 7162495.348622679710388 ], [ 656416.251584091456607, 7162468.9841752294451 ], [ 656464.327907225466333, 7162422.458679407835007 ], [ 656503.099135295953602, 7162383.68743315525353 ], [ 656543.421214097412303, 7162351.119584698230028 ], [ 656588.395841552177444, 7162320.10258481092751 ], [ 656624.065372011158615, 7162287.534737315028906 ], [ 656644.226406403118744, 7162247.212645385414362 ], [ 656633.370449636364356, 7162196.034613170661032 ], [ 656598.705988277914003, 7162154.555072346702218 ], [ 656558.154227685648948, 7162081.271763591095805 ], [ 656558.154218329116702, 7162036.297127256169915 ], [ 656564.357609977363609, 7162006.830984929576516 ], [ 656570.56100388255436, 7161988.220789302140474 ], [ 656589.171194955939427, 7161977.364838752895594 ], [ 656609.332235796842724, 7161968.059737410396338 ], [ 656636.191645837738179, 7161958.658645767718554 ], [ 656671.366209698142484, 7161949.44953023083508 ], [ 656705.484894888708368, 7161937.042726939544082 ], [ 656728.747633000719361, 7161919.983377309516072 ], [ 656755.112067738431506, 7161892.068080338649452 ], [ 656770.620554426917806, 7161854.847688443958759 ], [ 656778.374796154908836, 7161828.48324485681951 ], [ 656776.823937663808465, 7161785.059458388015628 ], [ 656747.357787891523913, 7161735.432279591448605 ], [ 656710.137391547672451, 7161688.906801456585526 ], [ 656665.722378584672697, 7161647.613004298880696 ], [ 656638.798301961040124, 7161616.016888409852982 ], [ 656635.696598877082579, 7161595.855845192447305 ], [ 656635.696594034321606, 7161572.593102273531258 ], [ 656641.899987612268887, 7161552.432057132013142 ], [ 656652.755930810351856, 7161538.474409133195877 ], [ 656679.66108466044534, 7161522.164404856041074 ], [ 656680.360856878571212, 7161515.866442603990436 ], [ 656717.116172378999181, 7161488.847210927866399 ], [ 656745.031455577467568, 7161456.279365070164204 ], [ 656780.700982109759934, 7161405.101323274895549 ], [ 656814.819661458488554, 7161364.779228496365249 ], [ 656847.387489097076468, 7161313.601187347434461 ], [ 656853.590867149177939, 7161218.999364908784628 ], [ 656853.59085583477281, 7161164.719631465151906 ], [ 656817.921299906098284, 7161074.770366301760077 ], [ 656774.497500651981682, 7161003.431297071278095 ], [ 656766.743245039600879, 7160963.109210988506675 ], [ 656772.94663505430799, 7160925.888821069151163 ], [ 656793.107671017525718, 7160893.320976838469505 ], [ 656810.167011001845822, 7160874.710778990760446 ], [ 656859.987153870402835, 7160791.894162135198712 ], [ 656873.108917189529166, 7160745.371507097035646 ], [ 656888.308552767848596, 7160691.481844141148031 ], [ 656902.615430445410311, 7160640.757416430860758 ], [ 656938.887459063436836, 7160607.964633837342262 ], [ 656952.845097243785858, 7160575.396790901198983 ], [ 656951.294240685529076, 7160541.2781016593799 ], [ 656941.989137567928992, 7160510.261113077402115 ], [ 656916.959457451477647, 7160468.628649300895631 ], [ 656892.361936365487054, 7160418.76100136525929 ], [ 656870.650035781553015, 7160378.438918206840754 ], [ 656850.488981409347616, 7160322.608339477330446 ], [ 656838.082176830153912, 7160279.184555346146226 ], [ 656822.573675309075043, 7160245.065869009122252 ], [ 656819.471969316829927, 7160210.947180103510618 ], [ 656824.124511821428314, 7160183.031887691468 ], [ 656836.531303468160331, 7160164.421690821647644 ], [ 656861.344889669329859, 7160141.158942808397114 ], [ 656881.505926576675847, 7160113.243647184222937 ], [ 656892.361865868675523, 7160080.675804916769266 ], [ 656914.073742187931202, 7160004.68417371250689 ], [ 656932.683930296101607, 7159979.870577462017536 ], [ 656952.844967844197527, 7159955.056980891153216 ], [ 656994.717900142539293, 7159942.650176011025906 ], [ 657042.794232788030058, 7159942.650166036561131 ], [ 657108.898991136811674, 7159928.140884354710579 ], [ 657168.41302772751078, 7159896.124654231593013 ], [ 657168.413021572399884, 7159866.658513269387186 ], [ 657162.209617981454358, 7159838.743223123252392 ], [ 657149.027378629660234, 7159747.243103940971196 ], [ 657128.866326520568691, 7159702.268471935763955 ], [ 657102.501874711131677, 7159647.988744074478745 ], [ 657088.544217127142474, 7159587.50561554916203 ], [ 657094.747602903749794, 7159530.12418188713491 ], [ 657100.950994507293217, 7159500.658039655536413 ], [ 657125.764578735572286, 7159468.090194512158632 ], [ 657172.290051221381873, 7159416.912150582298636 ], [ 657211.06127974728588, 7159381.242603495717049 ], [ 657229.671462645521387, 7159331.615414887666702 ], [ 657238.976549555896781, 7159285.089927263557911 ], [ 657238.976533997803926, 7159210.64915016386658 ], [ 657238.976519412710331, 7159140.860921639017761 ], [ 657243.629059950239025, 7159103.640532128512859 ], [ 657254.485001157503575, 7159080.377787034958601 ], [ 657276.196885514771566, 7159043.157393980771303 ], [ 657301.010468422668055, 7159004.386150764301419 ], [ 657318.069804784376174, 7158968.716608203016222 ], [ 657330.476593479979783, 7158936.148765655234456 ], [ 657344.434230963117443, 7158900.479223744943738 ], [ 657344.434226746670902, 7158880.318179953843355 ], [ 657352.188468098640442, 7158852.402886943891644 ], [ 657369.247807698207907, 7158832.241839610040188 ], [ 657394.061396110453643, 7158819.835038273595273 ], [ 657435.93433125782758, 7158821.385879084467888 ], [ 657473.154719390557148, 7158829.140118951909244 ], [ 657510.375106550287455, 7158832.241810249164701 ], [ 657550.697191936895251, 7158832.241801857948303 ], [ 657560.137565889395773, 7158817.59781357832253 ], [ 657560.137560414383188, 7158791.457361251115799 ], [ 657579.742891068453901, 7158755.514235220849514 ], [ 657594.446888201520778, 7158724.472445024177432 ], [ 657587.911768972757272, 7158693.430659249424934 ], [ 657584.644207476521842, 7158668.923985878005624 ], [ 657586.277981208404526, 7158647.684868024662137 ], [ 657592.813089486444369, 7158626.445749154314399 ], [ 657605.883308776421472, 7158597.03773757070303 ], [ 657605.883305354043841, 7158580.699954872950912 ], [ 657602.615742146619596, 7158548.02439015544951 ], [ 657607.517072583432309, 7158528.419049896299839 ], [ 657615.685961093753576, 7158516.98260030336678 ], [ 657633.657517320709303, 7158499.011035595089197 ], [ 657652.44596024195198, 7158469.603022823110223 ], [ 657658.98106611892581, 7158436.927456069737673 ], [ 657652.445937646087259, 7158361.773657030425966 ], [ 657660.614818963920698, 7158316.027863784693182 ], [ 657654.079702817718498, 7158299.690082452259958 ], [ 657636.108139063697308, 7158281.718525232747197 ], [ 657632.840580305550247, 7158270.282078030519187 ], [ 657642.643245282350108, 7158250.676736757159233 ], [ 657654.079690150450915, 7158239.24028648994863 ], [ 657668.783691036165692, 7158226.170057274401188 ], [ 657685.121469759382308, 7158211.466049445793033 ], [ 657701.45924711227417, 7158190.226928543299437 ], [ 657711.261911058682017, 7158165.720252465456724 ], [ 657707.994350930443034, 7158147.748692186549306 ], [ 657707.994344422477297, 7158116.706905074417591 ], [ 657707.994336203206331, 7158077.49622662179172 ], [ 657706.360550487879664, 7158041.553105048835278 ], [ 657690.022760125575587, 7158000.708651734516025 ], [ 657677.769408707739785, 7157928.82241046987474 ], [ 657653.262724711326882, 7157874.907732715830207 ], [ 657648.361382981645875, 7157840.598390102386475 ], [ 657648.361375791719183, 7157806.289046468213201 ], [ 657666.332928578485735, 7157771.979699090123177 ], [ 657689.205817612586543, 7157745.839242034591734 ], [ 657716.980042896931991, 7157727.867675296962261 ], [ 657731.68404411431402, 7157716.431224354542792 ], [ 657757.824489504331723, 7157690.290766617283225 ], [ 657764.359598452923819, 7157672.319204308092594 ], [ 657764.359595026704483, 7157655.981421627104282 ], [ 657748.021809464786202, 7157638.009864087216556 ], [ 657713.712459136848338, 7157597.165414541959763 ], [ 657700.642230964032933, 7157584.09519112482667 ], [ 657677.769328921800479, 7157548.152073999866843 ], [ 657636.924860408646055, 7157481.167173536494374 ], [ 657618.953293594531715, 7157448.491611931473017 ], [ 657597.714166657999158, 7157397.84449006523937 ], [ 657597.714159812196158, 7157365.16892471909523 ], [ 657597.71415399457328, 7157337.394694175571203 ], [ 657607.516817931784317, 7157312.888018126599491 ], [ 657622.220814349944703, 7157278.578671453520656 ], [ 657632.023478628718294, 7157255.705773672088981 ], [ 657649.178134436253458, 7157183.819526351988316 ], [ 657645.910555483773351, 7157075.990161426365376 ], [ 657613.234976175474003, 7157000.836367970332503 ], [ 657601.798519347212277, 7156955.090578893199563 ], [ 657621.40384857961908, 7156912.612339884974062 ], [ 657639.375403742771596, 7156889.739440411329269 ], [ 657670.417183296638541, 7156861.965203419327736 ], [ 657688.388738455716521, 7156839.092303948476911 ], [ 657704.726510297274217, 7156791.712730826810002 ], [ 657725.965619069291279, 7156755.769604548811913 ], [ 657737.402060143300332, 7156726.361593376845121 ], [ 657737.402053634054027, 7156695.319806326180696 ], [ 657737.402049523894675, 7156675.714467137120664 ], [ 657758.641158289276063, 7156639.771340863779187 ], [ 657794.584273729822598, 7156618.532215914689004 ], [ 657825.626055667409673, 7156602.194426784291863 ], [ 657871.371841537998989, 7156587.490412851795554 ], [ 657882.808287063380703, 7156579.32151913549751 ], [ 657892.61095098243095, 7156554.814843107014894 ], [ 657891.794057435356081, 7156533.575725825503469 ], [ 657873.822486174409278, 7156479.661046819761395 ], [ 657815.00645741482731, 7156411.04237194545567 ], [ 657775.795771579374559, 7156365.296588700264692 ], [ 657743.120203253347427, 7156342.423699803650379 ], [ 657707.177078917622566, 7156321.184589847922325 ], [ 657663.065062675159425, 7156295.044146802276373 ], [ 657635.290829910896719, 7156277.072591675445437 ], [ 657614.051709168357775, 7156255.833478657528758 ], [ 657599.347699420410208, 7156226.42547295242548 ], [ 657571.573462895932607, 7156190.48235691152513 ], [ 657555.235678396653384, 7156177.412134198471904 ], [ 657529.095224156742916, 7156161.074356993660331 ], [ 657494.785880064941011, 7156149.637916283681989 ], [ 657470.279202977661043, 7156128.398803945630789 ], [ 657453.941416429821402, 7156105.525911642238498 ], [ 657431.068516837782227, 7156081.019242433831096 ], [ 657422.899622197030112, 7156063.047683224081993 ], [ 657419.632060374249704, 7156036.907231673598289 ], [ 657417.181383538525552, 7155991.161440784111619 ], [ 657409.012489923974499, 7155978.091216368600726 ], [ 657379.604476608568802, 7155948.683213729411364 ], [ 657350.196467055706307, 7155937.246771997772157 ], [ 657294.648009427823126, 7155938.880561811849475 ], [ 657245.634667233098298, 7155953.584576377645135 ], [ 657224.395550950430334, 7155953.584580790251493 ], [ 657191.719985389267094, 7155943.781917992979288 ], [ 657175.382198854582384, 7155920.909025689586997 ], [ 657154.143074038438499, 7155880.064573500305414 ], [ 657132.903948541847058, 7155835.952564785256982 ], [ 657132.903943423181772, 7155811.445890826173127 ], [ 657141.07283191033639, 7155800.009441282600164 ], [ 657157.410605471231975, 7155760.798759559169412 ], [ 657157.410597620299086, 7155723.221859494224191 ], [ 657157.410593182896264, 7155701.982742065563798 ], [ 657144.340362321236171, 7155675.842292564921081 ], [ 657105.129677589517087, 7155634.997844118624926 ], [ 657077.355445886380039, 7155621.927623776718974 ], [ 657007.102975839166902, 7155581.083181774243712 ], [ 656980.962521633366123, 7155564.745404563844204 ], [ 656962.990957278409041, 7155543.506290869787335 ], [ 656951.554504600702785, 7155517.365841031074524 ], [ 656943.385609296150506, 7155496.126725304871798 ], [ 656930.315380489453673, 7155479.788945384323597 ], [ 656910.710039668134414, 7155466.718723345547915 ], [ 656894.372255196096376, 7155453.648500626906753 ], [ 656860.06290807982441, 7155427.508055532351136 ], [ 656846.992680979543366, 7155419.339166928082705 ], [ 656830.654895488638431, 7155401.367609421722591 ], [ 656817.584665665635839, 7155380.128494712524116 ], [ 656796.345543949864805, 7155353.988046909682453 ], [ 656784.909092301153578, 7155332.748931862413883 ], [ 656770.205085668945685, 7155318.044930544681847 ], [ 656755.501080398797058, 7155309.876042276620865 ], [ 656745.698410672368482, 7155306.608487782999873 ], [ 656726.909959285752848, 7155295.172043836675584 ], [ 656695.868173975730315, 7155295.172050263732672 ], [ 656676.262835544999689, 7155293.538276063278317 ], [ 656655.023715879768133, 7155277.200497832149267 ], [ 656635.418371323961765, 7155246.158714901655912 ], [ 656601.109022866585292, 7155213.483156753703952 ], [ 656565.165902357664891, 7155210.215607667341828 ], [ 656514.518778624478728, 7155208.581839881837368 ], [ 656478.575658796355128, 7155208.581847317516804 ], [ 656431.196088352124207, 7155192.244074489921331 ], [ 656388.717853112029843, 7155179.173857170157135 ], [ 656364.211178125813603, 7155167.737414400093257 ], [ 656334.803170315921307, 7155164.469863950274885 ], [ 656311.930273505509831, 7155153.033420840278268 ], [ 656272.719596313196234, 7155148.132094154134393 ], [ 656233.508920818567276, 7155151.399658776819706 ], [ 656202.467141621862538, 7155180.807673909701407 ], [ 656159.988911474356428, 7155192.24413051456213 ], [ 656127.313344943802804, 7155177.540132896974683 ], [ 656104.440446779131889, 7155159.568576728925109 ], [ 656083.201325093978085, 7155133.428128914907575 ], [ 656073.398654355318286, 7155125.259239625185728 ], [ 656048.891977341845632, 7155104.020127270370722 ], [ 656027.652853627689183, 7155068.077009880915284 ], [ 656016.216398956486955, 7155032.133890471421182 ], [ 655994.977275922778063, 7154999.458329608663917 ], [ 655968.8368190479232, 7154970.050326282158494 ], [ 655911.654575525550172, 7154934.107216305099428 ], [ 655874.077671442879364, 7154904.699215333908796 ], [ 655852.838549435487948, 7154876.924989258870482 ], [ 655839.768315247842111, 7154834.446757147088647 ], [ 655846.303420493612066, 7154798.503634044900537 ], [ 655861.007421004818752, 7154783.799626660533249 ], [ 655877.345200701849535, 7154773.996953725814819 ], [ 655895.316760607296601, 7154773.996950022876263 ], [ 655916.555874824873172, 7154764.194276077672839 ], [ 655923.090984129928984, 7154747.856492115184665 ], [ 655916.555865002097562, 7154716.814706493169069 ], [ 655900.218077177414671, 7154687.406701155938208 ], [ 655877.345177001436241, 7154659.632475424557924 ], [ 655846.303383255726658, 7154618.788025288842618 ], [ 655828.331818277598359, 7154594.281355073675513 ], [ 655810.360252964310348, 7154568.140906595624983 ], [ 655779.318462947150692, 7154545.268017334863544 ], [ 655746.642895436030813, 7154525.662684928625822 ], [ 655722.13622081966605, 7154515.860020408406854 ], [ 655687.826878521125764, 7154512.592470947653055 ], [ 655663.320202890434302, 7154497.88847164157778 ], [ 655645.348638598225079, 7154476.649357946589589 ], [ 655624.109518976998515, 7154460.311579708009958 ], [ 655584.898840136011131, 7154447.24136168602854 ], [ 655579.997502577956766, 7154432.537358346395195 ], [ 655578.363721702713519, 7154419.467132594436407 ], [ 655581.631273991195485, 7154399.861792793497443 ], [ 655581.631270273355767, 7154381.89023192692548 ], [ 655578.363708521937951, 7154355.749780427664518 ], [ 655563.659702945966274, 7154345.947113888338208 ], [ 655542.420583667233586, 7154331.243113908916712 ], [ 655521.181464728433639, 7154318.172892190515995 ], [ 655498.30856896773912, 7154311.637783851474524 ], [ 655478.703230903716758, 7154311.637787880375981 ], [ 655454.196554608410224, 7154293.666232051327825 ], [ 655439.492547347210348, 7154275.694674206897616 ], [ 655431.323652096674778, 7154254.455558499321342 ], [ 655424.788535021129064, 7154233.216442458331585 ], [ 655421.520974962739274, 7154215.244882265105844 ], [ 655418.25341153005138, 7154180.935539470985532 ], [ 655400.281836113659665, 7154105.781743194907904 ], [ 655385.577827168279327, 7154079.641294055618346 ], [ 655365.972486746730283, 7154068.204850262030959 ], [ 655339.83203499042429, 7154063.303520848974586 ], [ 655315.325358707457781, 7154045.331965020857751 ], [ 655298.987570582190529, 7154014.290181437507272 ], [ 655285.917338464641944, 7153981.614618921652436 ], [ 655264.678214480518363, 7153944.037723308429122 ], [ 655246.70665054989513, 7153924.432387879118323 ], [ 655202.594634533976205, 7153898.291944776661694 ], [ 655179.721736430190504, 7153880.320388614200056 ], [ 655165.017727496335283, 7153854.179939476773143 ], [ 655160.11638826597482, 7153831.307044849731028 ], [ 655151.947491343365982, 7153801.899037855677307 ], [ 655150.313709464971907, 7153783.927477336488664 ], [ 655153.58126108837314, 7153761.054581036791205 ], [ 655158.482592230662704, 7153744.716797438450158 ], [ 655173.1865896997042, 7153715.308785755187273 ], [ 655174.820359781151637, 7153676.098107201978564 ], [ 655179.721683842130005, 7153625.450980162248015 ], [ 655173.186560036730953, 7153571.536298960447311 ], [ 655155.214990724460222, 7153525.790511397644877 ], [ 655133.975867433240637, 7153491.481172319501638 ], [ 655117.638083709753118, 7153481.678506116382778 ], [ 655091.4976329858182, 7153481.678511477075517 ], [ 655078.427404255722649, 7153465.340731570497155 ], [ 655070.258511383552104, 7153455.538063693791628 ], [ 655063.72339566971641, 7153440.83406070433557 ], [ 655061.366827704594471, 7153424.470792965963483 ], [ 655047.644280715263449, 7153451.908536719158292 ], [ 655015.724279330577701, 7153478.518550430424511 ], [ 654962.51427664514631, 7153521.078572797589004 ], [ 654925.264278489630669, 7153568.968593332916498 ], [ 654880.034276419901289, 7153606.218612636439502 ], [ 654800.214266343042254, 7153640.808638298884034 ], [ 654760.314263766282238, 7153670.068654350936413 ], [ 654707.104255036567338, 7153683.37866882327944 ], [ 654621.964241060661152, 7153704.65869197063148 ], [ 654539.484226014348678, 7153717.958712410181761 ], [ 654507.564221318811178, 7153728.598721800372005 ], [ 654486.274216728983447, 7153728.598726147785783 ], [ 654379.854199248366058, 7153755.208755049854517 ], [ 654310.684184334939346, 7153755.208769164979458 ], [ 654230.864158937823959, 7153715.298774674534798 ], [ 654169.674141929950565, 7153696.678782124072313 ], [ 654129.764129510265775, 7153678.048785233870149 ], [ 654113.804115167702548, 7153624.838774136267602 ], [ 654087.204097443725914, 7153566.30876377876848 ], [ 654055.274084573728032, 7153537.048762395977974 ], [ 654018.024073281674646, 7153521.078765677288175 ], [ 653991.424065920058638, 7153513.098768942989409 ], [ 653970.134062426979654, 7153518.418774710968137 ], [ 653956.834063377114944, 7153537.048782437108457 ], [ 653895.644063810817897, 7153603.558812813833356 ], [ 653853.074062259285711, 7153640.808831512928009 ], [ 653821.144066262524575, 7153694.018852353096008 ], [ 653778.584073407575488, 7153773.828882534056902 ], [ 653730.69407015084289, 7153808.418901601806283 ], [ 653698.764064350980334, 7153813.738909523002803 ], [ 653642.894051213050261, 7153808.418919435702264 ], [ 653624.274048827122897, 7153816.398925370536745 ], [ 653592.34405008982867, 7153856.308942625299096 ], [ 653547.114043589215726, 7153872.268956115469337 ], [ 653501.884033830254339, 7153872.268965292721987 ], [ 653430.054018330411054, 7153872.268979864194989 ], [ 653360.874007203616202, 7153890.89899891987443 ], [ 653299.683994539780542, 7153893.559012040495872 ], [ 653249.133979834616184, 7153874.929017253220081 ], [ 653225.193968707346357, 7153845.669014204293489 ], [ 653187.943946039071307, 7153773.829002363607287 ], [ 653126.753922551870346, 7153723.279001116752625 ], [ 653054.913900028914213, 7153688.699006328359246 ], [ 652983.083879675134085, 7153664.749014399945736 ], [ 652935.193865028675646, 7153643.469018345698714 ], [ 652887.303847138071433, 7153606.219017983414233 ], [ 652832.763824306428432, 7153551.67901430465281 ], [ 652821.351884862873703, 7153517.814104618504643 ], [ 652800.189983139396645, 7153482.544282721355557 ], [ 652763.15665727830492, 7153431.403042254969478 ], [ 652724.359845579834655, 7153406.714171772822738 ], [ 652662.637646327493712, 7153373.207849374040961 ], [ 652593.861482588807121, 7153341.465019702911377 ], [ 652565.645621397183277, 7153332.647568851709366 ], [ 652544.483724341029301, 7153320.303133962675929 ], [ 652523.321825497318059, 7153299.141242532990873 ], [ 652491.578977590892464, 7153269.161896695382893 ], [ 652451.018682206282392, 7153281.506344026885927 ], [ 652399.877440970973112, 7153300.90475872065872 ], [ 652346.972712453221902, 7153339.70157815515995 ], [ 652290.54100114479661, 7153376.734906988218427 ], [ 652237.636274399934337, 7153424.349182961508632 ], [ 652212.947408839710988, 7153480.780909799039364 ], [ 652197.075995058985427, 7153516.050739161670208 ], [ 652213.726205847109668, 7153556.942372435703874 ], [ 652234.092515914002433, 7153585.794634220190346 ], [ 652217.120606031036004, 7153636.710400958545506 ], [ 652155.663691684836522, 7153616.859168358147144 ], [ 652094.473674199078232, 7153595.579174930229783 ], [ 652001.353645000839606, 7153550.349181456491351 ], [ 651948.143626554636285, 7153515.759182824753225 ], [ 651918.873614879790694, 7153489.159181538969278 ], [ 651886.95359779894352, 7153438.609174330718815 ], [ 651873.643591172993183, 7153419.979171987622976 ], [ 651855.023588242242113, 7153425.309177160263062 ], [ 651823.103586207842454, 7153449.249190013855696 ], [ 651780.533581877592951, 7153473.189205003902316 ], [ 651724.934889367781579, 7153482.266017761081457 ], [ 651672.321940556983463, 7153500.93514152802527 ], [ 651652.823565658880398, 7153529.069245669990778 ], [ 651610.25355917471461, 7153542.369257787242532 ], [ 651557.043555223383009, 7153579.619278485886753 ], [ 651487.873545148526318, 7153603.559298793785274 ], [ 651424.023536752676591, 7153630.169318749569356 ], [ 651378.79353236220777, 7153656.769334970973432 ], [ 651357.832704329281114, 7153653.775738952681422 ], [ 651334.624768072040752, 7153667.929993856698275 ], [ 651321.554544679820538, 7153677.732666024938226 ], [ 651288.878984553972259, 7153694.070455152541399 ], [ 651248.034531273879111, 7153698.971798095852137 ], [ 651218.626525516272523, 7153705.506917010992765 ], [ 651181.049628903856501, 7153712.042037557810545 ], [ 651166.345627994742244, 7153725.112266568467021 ], [ 651136.937625846476294, 7153749.618946332484484 ], [ 651099.360734155983664, 7153780.66074076294899 ], [ 651065.051398146664724, 7153808.434978023171425 ], [ 651019.305614938959479, 7153836.209217565134168 ], [ 650998.066501012188382, 7153847.645669620484114 ], [ 650980.094944411073811, 7153863.983455801382661 ], [ 650970.29227866535075, 7153880.321240352466702 ], [ 650970.292282928130589, 7153901.560357727110386 ], [ 650986.63007283792831, 7153942.404810955747962 ], [ 650993.165195690467954, 7153993.051935700699687 ], [ 650998.066535782301798, 7154020.826165138743818 ], [ 650999.700318217510357, 7154042.065282190218568 ], [ 651014.404327335651033, 7154069.839509673416615 ], [ 651027.474557300563902, 7154092.712402701377869 ], [ 651045.44612407812383, 7154127.021742573007941 ], [ 651047.079908483312465, 7154158.063529189676046 ], [ 651048.713694201200269, 7154195.64042884670198 ], [ 651045.446154918754473, 7154280.596899032592773 ], [ 651047.079937684582546, 7154303.469794351607561 ], [ 651058.516389810945839, 7154327.976465974003077 ], [ 651073.220398609293625, 7154354.116915205493569 ], [ 651084.656850408413447, 7154376.989808570593596 ], [ 651084.656859269714914, 7154421.101821606978774 ], [ 651084.656866161036305, 7154455.41116508282721 ], [ 651092.825764243025333, 7154491.354285188019276 ], [ 651104.262217356357723, 7154520.762291599065065 ], [ 651114.064890988636762, 7154543.635185293853283 ], [ 651135.304012482287362, 7154569.775633226148784 ], [ 651158.176912153372541, 7154595.916080832481384 ], [ 651181.049810509197414, 7154615.521415395662189 ], [ 651202.288932337425649, 7154643.295641589909792 ], [ 651213.725384472170845, 7154667.802313223481178 ], [ 651226.795617409516126, 7154705.379210621118546 ], [ 651243.133405709289946, 7154738.054772578179836 ], [ 651252.936082303174771, 7154775.631670631468296 ], [ 651262.738755611469969, 7154796.870786072686315 ], [ 651279.076542271650396, 7154821.377456728368998 ], [ 651301.949441295815632, 7154844.250347815454006 ], [ 651315.019669310189784, 7154857.320571295917034 ], [ 651327.273008567630313, 7154872.024573200382292 ], [ 651322.37167865014635, 7154894.897469842806458 ], [ 651299.498788167489693, 7154914.502813559025526 ], [ 651281.527228590217419, 7154916.136595413088799 ], [ 651247.217886950238608, 7154916.136602273210883 ], [ 651224.344994824612513, 7154927.573054678738117 ], [ 651217.809886400587857, 7154948.812173388898373 ], [ 651229.246342483558692, 7154992.924184174276888 ], [ 651252.119251367868856, 7155064.810423128306866 ], [ 651288.062391232000664, 7155164.47088993806392 ], [ 651306.033956730738282, 7155192.245116801932454 ], [ 651333.808189632603899, 7155211.850450396537781 ], [ 651364.849978883285075, 7155231.455783335492015 ], [ 651386.089100734796375, 7155259.230009549297392 ], [ 651413.863334627007134, 7155283.736677929759026 ], [ 651454.707794242887758, 7155309.877121955156326 ], [ 651480.848248977679759, 7155329.482455873861909 ], [ 651490.650924603221938, 7155362.158019166439772 ], [ 651475.946923996671103, 7155376.862026473507285 ], [ 651428.567357599269599, 7155380.129592483863235 ], [ 651387.722901926725172, 7155373.59448760561645 ], [ 651333.808222831226885, 7155376.862054918892682 ], [ 651299.498882157495245, 7155381.763396568596363 ], [ 651258.654429113608785, 7155388.298517787829041 ], [ 651230.880202778149396, 7155401.368749439716339 ], [ 651212.908645815914497, 7155416.072757398709655 ], [ 651191.669536118046381, 7155448.748326901346445 ], [ 651162.261532916687429, 7155468.353671932592988 ], [ 651145.923752813250758, 7155476.522566512227058 ], [ 651136.121085735619999, 7155486.325238048098981 ], [ 651116.515746984514408, 7155483.057685438543558 ], [ 651098.544188705738634, 7155491.226580342277884 ], [ 651088.741521298885345, 7155499.395473615266383 ], [ 651092.009082899428904, 7155525.535925170406699 ], [ 651109.980647415388376, 7155548.408817265182734 ], [ 651126.318433430162258, 7155569.647931423038244 ], [ 651142.65622174309101, 7155602.323493425734341 ], [ 651150.825121151749045, 7155644.801726639270782 ], [ 651155.726467495900579, 7155703.617743143811822 ], [ 651142.656268686056137, 7155835.953785109333694 ], [ 651132.853604558855295, 7155860.460461024194956 ], [ 651111.614491889486089, 7155878.432026168331504 ], [ 651087.107822868158109, 7155896.403591966256499 ], [ 651077.305157096590847, 7155912.741376562044024 ], [ 651078.93894314719364, 7155951.952054572291672 ], [ 651093.642948368447833, 7155960.120942954905331 ], [ 651144.290065572829917, 7155929.079145826399326 ], [ 651172.064291929127648, 7155916.008914163336158 ], [ 651211.274963872507215, 7155894.769788896664977 ], [ 651237.415415007504635, 7155896.403561936691403 ], [ 651273.358540123910643, 7155922.544006974436343 ], [ 651299.499003091012128, 7155982.993797518312931 ], [ 651307.667901198845357, 7156018.936917694285512 ], [ 651333.808362527517602, 7156071.217816922813654 ], [ 651351.779927392373793, 7156095.724487293511629 ], [ 651376.286606606212445, 7156128.400047676637769 ], [ 651392.624391982331872, 7156146.371605318970978 ], [ 651417.131069226656109, 7156169.244496117345989 ], [ 651436.736411942983977, 7156192.117387897334993 ], [ 651462.876870655803941, 7156231.328061016276479 ], [ 651462.876879867166281, 7156277.073852425441146 ], [ 651457.975551258889027, 7156306.481862174347043 ], [ 651440.003997240564786, 7156335.889874539338052 ], [ 651430.201334430952556, 7156366.93166353367269 ], [ 651430.20134265278466, 7156407.776120158843696 ], [ 651428.567576643894427, 7156468.225916294381022 ], [ 651428.567582565592602, 7156497.633925069123507 ], [ 651428.567587169120088, 7156520.506820781156421 ], [ 651418.764922384521924, 7156541.745940193533897 ], [ 651404.060921752243303, 7156556.449947524815798 ], [ 651392.624476157827303, 7156564.618841139599681 ], [ 651364.850248137488961, 7156569.520181492902339 ], [ 651330.540907079586759, 7156572.787744887173176 ], [ 651291.330235105124302, 7156594.026870177127421 ], [ 651257.020896346773952, 7156608.730881424620748 ], [ 651221.07778105174657, 7156631.603784328326583 ], [ 651181.867109398241155, 7156654.47668788023293 ], [ 651150.825326331891119, 7156665.913141942583025 ], [ 651118.14976607344579, 7156682.250931123271585 ], [ 651092.009316879324615, 7156690.419827673584223 ], [ 651070.770201233448461, 7156693.687388446182013 ], [ 651047.897308064741082, 7156700.222506072372198 ], [ 651035.643973704311065, 7156710.025178113020957 ], [ 651012.771085782675073, 7156742.700747993774712 ], [ 650970.292862027417868, 7156786.812769647687674 ], [ 650944.15241676219739, 7156814.587005382403731 ], [ 650916.37819495704025, 7156850.530132773332298 ], [ 650904.941751319216564, 7156868.501695981249213 ], [ 650904.94175557885319, 7156889.740813440643251 ], [ 650904.941761151421815, 7156917.515043964609504 ], [ 650904.941765413503163, 7156938.754161424934864 ], [ 650924.547111083986238, 7156976.331057637929916 ], [ 650932.716005577822216, 7156994.302616936154664 ], [ 650932.716009839088656, 7157015.541734399273992 ], [ 650919.645788022782654, 7157033.513297939673066 ], [ 650904.941786059061997, 7157041.682192200794816 ], [ 650873.90000035171397, 7157040.048420125618577 ], [ 650823.252872578566894, 7157018.809312759898603 ], [ 650779.140855553094298, 7156987.767534488812089 ], [ 650753.000402744160965, 7156977.964870101772249 ], [ 650728.493731060065329, 7156982.866209780797362 ], [ 650717.057286761584692, 7156997.57021645642817 ], [ 650728.493740553501993, 7157030.245779506862164 ], [ 650744.831530516967177, 7157071.090232912451029 ], [ 650749.732872908003628, 7157110.300910333171487 ], [ 650766.070667131338269, 7157172.384481208398938 ], [ 650775.873342095757835, 7157201.792488057166338 ], [ 650769.338250337983482, 7157306.354298440739512 ], [ 650766.070707405218855, 7157373.339208042249084 ], [ 650766.07071951997932, 7157433.789003927260637 ], [ 650777.507175612263381, 7157477.901014868170023 ], [ 650788.943630069145001, 7157513.844134472310543 ], [ 650808.548971163807437, 7157528.548134973272681 ], [ 650826.520534080336802, 7157543.252135798335075 ], [ 650847.759652700391598, 7157554.688579436391592 ], [ 650864.097438750555739, 7157575.927693659439683 ], [ 650867.364999040029943, 7157595.533032217994332 ], [ 650851.027223146054894, 7157624.941044293344021 ], [ 650826.520557337789796, 7157659.250392800197005 ], [ 650813.450337470974773, 7157687.024625958874822 ], [ 650813.45034598512575, 7157729.502860923297703 ], [ 650831.42191545816604, 7157776.882427113130689 ], [ 650836.323255239753053, 7157803.022878426127136 ], [ 650842.858375491690822, 7157840.599777290597558 ], [ 650842.858384663588367, 7157886.345568802207708 ], [ 650847.759726082556881, 7157920.654911458492279 ], [ 650868.998847662704065, 7157946.79535951744765 ], [ 650882.069077360327356, 7157968.034474402666092 ], [ 650882.069083587615751, 7157999.076261503621936 ], [ 650877.167754945112392, 7158028.484271314926445 ], [ 650862.463756566401571, 7158054.624726544134319 ], [ 650855.928648759610951, 7158079.131401877850294 ], [ 650860.829985265503637, 7158088.93407051358372 ], [ 650875.533988887211308, 7158088.93406757991761 ], [ 650909.843328049289994, 7158075.863834589719772 ], [ 650927.814889013650827, 7158080.765165813267231 ], [ 650940.885118389734998, 7158100.37050242908299 ], [ 650958.856683945981786, 7158128.144729413092136 ], [ 650971.926914633600973, 7158154.285179106518626 ], [ 650971.926919878926128, 7158180.42563140951097 ], [ 650960.490476221428253, 7158198.397194650024176 ], [ 650927.814918185351416, 7158226.171431740745902 ], [ 650865.731354862567969, 7158263.74834430962801 ], [ 650834.689575983327813, 7158296.423915879800916 ], [ 650764.437119452399202, 7158322.564382186159492 ], [ 650733.395338603178971, 7158345.437284140847623 ], [ 650713.790008943295106, 7158387.915523046627641 ], [ 650700.719794623320922, 7158443.463986812159419 ], [ 650677.846905326005071, 7158469.604443679563701 ], [ 650663.142903659958392, 7158479.40711622312665 ], [ 650641.903789922827855, 7158492.477346608415246 ], [ 650617.397119170287624, 7158502.280021103098989 ], [ 650605.960673211491667, 7158508.815136458724737 ], [ 650591.256670234724879, 7158512.082695924676955 ], [ 650571.651333043118939, 7158516.984034635126591 ], [ 650570.017556823324412, 7158526.786704577505589 ], [ 650578.186454268172383, 7158559.462268346920609 ], [ 650592.89046018908266, 7158570.898713309317827 ], [ 650617.397136178216897, 7158587.236491129733622 ], [ 650650.072712561814114, 7158650.953837150707841 ], [ 650671.311843316885643, 7158722.840076804161072 ], [ 650684.382080549141392, 7158781.656091926619411 ], [ 650701.536762910662219, 7158838.838327974081039 ], [ 650716.240770475007594, 7158858.443664289079607 ], [ 650744.015006113681011, 7158891.119224166497588 ], [ 650791.394579283078201, 7158920.527223598212004 ], [ 650838.774152456549928, 7158949.935223024338484 ], [ 650917.195514371502213, 7158995.680998968891799 ], [ 650961.307532829465345, 7159033.257890399545431 ], [ 650977.645320225972682, 7159061.032117744907737 ], [ 650980.912883804063313, 7159096.975239051505923 ], [ 650959.673776610987261, 7159142.721034875139594 ], [ 650946.603555739857256, 7159165.593933276832104 ], [ 650938.434671710361727, 7159199.903278600424528 ], [ 650938.434682198450901, 7159252.184183280915022 ], [ 650926.998241474619135, 7159284.859750987961888 ], [ 650907.392907213768922, 7159304.465094154700637 ], [ 650886.153792474186048, 7159312.633989745751023 ], [ 650866.548456573393196, 7159324.070441552437842 ], [ 650850.210678021190688, 7159340.408227525651455 ], [ 650842.041795622324571, 7159382.886464213952422 ], [ 650842.041805776068941, 7159433.533590634353459 ], [ 650850.210704553639516, 7159472.744267525151372 ], [ 650874.717382543720305, 7159498.884714988991618 ], [ 650897.590280385687947, 7159515.222493147477508 ], [ 650913.928067461121827, 7159541.362942240200937 ], [ 650930.265853556105867, 7159562.602056516334414 ], [ 650944.969863432925195, 7159593.643840754404664 ], [ 650958.040091196540743, 7159605.080286049284041 ], [ 650979.279210203676485, 7159618.150507990270853 ], [ 650993.983216151013039, 7159629.586952960118651 ], [ 650997.250776452245191, 7159649.1922915764153 ], [ 650997.25078038754873, 7159668.797630840912461 ], [ 650974.377890733070672, 7159693.304309486411512 ], [ 650959.67388740752358, 7159694.938090693205595 ], [ 650922.096990166464821, 7159699.839433003216982 ], [ 650899.22409854340367, 7159714.543442016467452 ], [ 650889.421432390343398, 7159729.247448420152068 ], [ 650864.91476618568413, 7159761.923018753528595 ], [ 650868.182328122435138, 7159789.697248734533787 ], [ 650907.393011417472735, 7159824.006584638729692 ], [ 650979.279264625161886, 7159889.357701206579804 ], [ 651016.856170072685927, 7159925.300815707072616 ], [ 651057.7006302527152, 7159953.075038194656372 ], [ 651096.911314878147095, 7159993.919487189501524 ], [ 651111.61532542668283, 7160028.228827985003591 ], [ 651111.61533428565599, 7160072.340841358527541 ], [ 651092.010005257907324, 7160118.086636919528246 ], [ 651096.911348342895508, 7160160.56487104576081 ], [ 651087.108686122461222, 7160194.874216742813587 ], [ 651062.602018272038549, 7160219.380895735695958 ], [ 651033.194013239815831, 7160230.817349517717957 ], [ 651005.419784425757825, 7160232.451133333146572 ], [ 650966.209106024354696, 7160222.648471512831748 ], [ 650933.533542655291967, 7160224.282256305217743 ], [ 650920.463320780661888, 7160242.253819921053946 ], [ 650920.463326023425907, 7160268.394272294826806 ], [ 650935.16733624227345, 7160301.069834834896028 ], [ 650940.068678335519508, 7160338.646734150126576 ], [ 650935.167348696268164, 7160363.153409233316779 ], [ 650918.829572088085115, 7160389.29386487044394 ], [ 650894.322904881322756, 7160417.068100412376225 ], [ 650881.25268857111223, 7160462.813894687220454 ], [ 650856.746020376565866, 7160485.686795407906175 ], [ 650824.070462563890032, 7160515.094810852780938 ], [ 650824.07046813191846, 7160542.869041511788964 ], [ 650820.802920929389074, 7160588.61483383923769 ], [ 650804.465146603761241, 7160626.191737401299179 ], [ 650752.18425251764711, 7160665.402426401153207 ], [ 650734.212701309937984, 7160709.514443391002715 ], [ 650721.142478768248111, 7160724.218450464308262 ], [ 650686.833142753690481, 7160753.626466237008572 ], [ 650659.058916535694152, 7160768.330476239323616 ], [ 650623.11579971422907, 7160784.668266138061881 ], [ 650598.609128231881186, 7160791.203384114429355 ], [ 650579.003792942734435, 7160805.907392485998571 ], [ 650572.468683467246592, 7160822.2451765332371 ], [ 650582.27135781547986, 7160848.38562697917223 ], [ 650608.411811410682276, 7160861.455847976729274 ], [ 650631.284712230553851, 7160892.497630646452308 ], [ 650636.18605267687235, 7160921.9056386211887 ], [ 650626.383388791466132, 7160948.046092968434095 ], [ 650601.876719919149764, 7160967.65143714658916 ], [ 650574.102492057718337, 7160974.186555773019791 ], [ 650557.764711828436702, 7160982.35545039921999 ], [ 650552.863379229791462, 7160992.158121025189757 ], [ 650561.032273757387884, 7161010.129680425859988 ], [ 650577.370059872977436, 7161031.368794752284884 ], [ 650598.609180222498253, 7161050.974129830487072 ], [ 650641.087417653645389, 7161073.847017229534686 ], [ 650663.96032077097334, 7161116.325247835367918 ], [ 650699.903454295359552, 7161183.310149973258376 ], [ 650709.706128326128237, 7161207.816822152584791 ], [ 650726.043913794215769, 7161225.788379931822419 ], [ 650747.28303251741454, 7161237.224823631346226 ], [ 650783.226156888529658, 7161258.463934056460857 ], [ 650802.831498733139597, 7161276.435491183772683 ], [ 650827.338172523537651, 7161281.336821127682924 ], [ 650851.844848606153391, 7161297.674598999321461 ], [ 650876.351526981685311, 7161325.448824806138873 ], [ 650892.689313440932892, 7161348.321717409417033 ], [ 650918.829769023926929, 7161371.194608060643077 ], [ 650951.505338014569134, 7161397.335053961724043 ], [ 650985.814686505240388, 7161430.010612638667226 ], [ 651008.68758932617493, 7161470.855064978823066 ], [ 651029.92671232286375, 7161503.530626263469458 ], [ 651052.79961318068672, 7161534.572408949024975 ], [ 651087.108961026766337, 7161563.980411076918244 ], [ 651100.179187511326745, 7161568.881743295118213 ], [ 651116.516975295031443, 7161598.289749007672071 ], [ 651132.854764391900972, 7161634.232867830432951 ], [ 651121.418324623140506, 7161671.809770473279059 ], [ 651114.883219745708629, 7161711.020450416952372 ], [ 651114.883227290934883, 7161748.597350781783462 ], [ 651123.052124465815723, 7161779.639136411249638 ], [ 651149.192582369199954, 7161813.948475005105138 ], [ 651194.938387069152668, 7161890.73604488838464 ], [ 651218.628174084587954, 7161907.073822926729918 ], [ 651226.797069624764845, 7161929.946717175655067 ], [ 651223.529518827679567, 7161957.720948540605605 ], [ 651202.290406315820292, 7161977.326292108744383 ], [ 651176.149957265937701, 7161987.128966995514929 ], [ 651146.74195183836855, 7161996.93164253141731 ], [ 651109.165056124678813, 7162010.001876253634691 ], [ 651086.292163451085798, 7162019.804550483822823 ], [ 651060.151714398059994, 7162029.607225365936756 ], [ 651050.349047234398313, 7162039.409896986559033 ], [ 651050.349050840595737, 7162057.381458038464189 ], [ 651068.320614198455587, 7162073.719237223267555 ], [ 651105.897517134435475, 7162096.592125609517097 ], [ 651120.601526083191857, 7162122.732575114816427 ], [ 651120.601532317232341, 7162153.77436238899827 ], [ 651105.897534522577189, 7162183.182374324649572 ], [ 651097.728649480617605, 7162212.590384954586625 ], [ 651092.827325081685558, 7162263.237512545660138 ], [ 651109.165115831885487, 7162307.349522789940238 ], [ 651140.206909632775933, 7162348.193973542191088 ], [ 651140.20691685192287, 7162384.137095661833882 ], [ 651136.939370645559393, 7162434.784222939051688 ], [ 651132.038047887966968, 7162493.600241936743259 ], [ 651132.038057732512243, 7162542.61359028890729 ], [ 651145.108301953994669, 7162635.738949562422931 ], [ 651159.812312227906659, 7162668.414512203074992 ], [ 651190.037211371236481, 7162681.484732395969331 ], [ 651221.078999282093719, 7162692.921174147166312 ], [ 651253.754565712762997, 7162705.9913938511163 ], [ 651270.092349584563635, 7162715.794060260057449 ], [ 651286.430135758244433, 7162737.033174620009959 ], [ 651286.430144297308289, 7162779.511409873142838 ], [ 651283.162595141562633, 7162815.454532666131854 ], [ 651283.162601382471621, 7162846.496319971047342 ], [ 651304.401726070907898, 7162887.340772707015276 ], [ 651335.443519248510711, 7162924.917666924186051 ], [ 651358.316422133124433, 7162965.762119336985052 ], [ 651361.583986729965545, 7163006.606575670652092 ], [ 651359.950219381600618, 7163060.521259224042296 ], [ 651359.95022825372871, 7163104.633272775448859 ], [ 651359.950237782788463, 7163152.012842891737819 ], [ 651359.950250927126035, 7163217.363974087871611 ], [ 651376.288042040774599, 7163263.109762663021684 ], [ 651394.259611677611247, 7163310.489329194650054 ], [ 651417.132511947187595, 7163338.263555383309722 ], [ 651443.272966300603002, 7163354.601332956925035 ], [ 651464.512085421942174, 7163367.671554949134588 ], [ 651487.38498405192513, 7163387.276889737695456 ], [ 651493.920100435847417, 7163405.248449511826038 ], [ 651493.920104053337127, 7163423.220010597258806 ], [ 651493.920106027275324, 7163433.022680280730128 ], [ 651480.84988345275633, 7163447.726687422022223 ], [ 651456.343213534215465, 7163462.430696848779917 ], [ 651417.132539558922872, 7163475.50093093700707 ], [ 651382.823202457977459, 7163500.007612008601427 ], [ 651356.682755987625569, 7163522.880513165146112 ], [ 651319.105872682062909, 7163598.034321591258049 ], [ 651301.134317167103291, 7163620.907221116125584 ], [ 651268.458757591666654, 7163642.146345296874642 ], [ 651243.952087990823202, 7163658.484133005142212 ], [ 651212.910304307588376, 7163668.286808889359236 ], [ 651208.00897169788368, 7163678.089479555375874 ], [ 651221.07920347538311, 7163709.13126428425312 ], [ 651239.050765561987646, 7163718.933930380269885 ], [ 651261.923662225482985, 7163728.736595496535301 ], [ 651286.430338395992294, 7163745.074373412877321 ], [ 651299.5005691916449, 7163771.214823299087584 ], [ 651301.134351982036605, 7163794.087718911468983 ], [ 651292.96546463156119, 7163812.059281637892127 ], [ 651271.726349113043398, 7163816.960620723664761 ], [ 651252.121010802104138, 7163816.960624643601477 ], [ 651230.881896595470607, 7163828.397076854482293 ], [ 651216.177897784742527, 7163852.90375401172787 ], [ 651193.305009979871102, 7163887.213102491572499 ], [ 651170.43211954634171, 7163908.452224719338119 ], [ 651152.460562707157806, 7163924.790011121891439 ], [ 651113.249890343635343, 7163946.029136610217392 ], [ 651070.771660933736712, 7163964.000706186518073 ], [ 651049.532546065282077, 7163972.169601831585169 ], [ 651038.096101993694901, 7163988.507386931218207 ], [ 651016.856993680354208, 7164029.351848213002086 ], [ 651000.519219288602471, 7164066.928751952946186 ], [ 650993.984111432335339, 7164091.43542748503387 ], [ 650993.984116676496342, 7164117.575879994779825 ], [ 650997.251677979831584, 7164142.082553574815392 ], [ 651016.857022200943902, 7164171.4905587406829 ], [ 651025.025916445651092, 7164187.82833993062377 ], [ 651033.194812986184843, 7164215.602569098584354 ], [ 651038.096151501871645, 7164235.207907507196069 ], [ 651042.997490015812218, 7164254.813245916739106 ], [ 651057.701497037545778, 7164271.151025805622339 ], [ 651074.039280285011046, 7164277.686135673895478 ], [ 651095.278397787245922, 7164282.587466282770038 ], [ 651126.320185762480833, 7164294.023908062838018 ], [ 651139.390415905276313, 7164316.896801407448947 ], [ 651145.925535242306069, 7164349.572365749627352 ], [ 651158.995766698615626, 7164378.980372227728367 ], [ 651175.333552902680822, 7164400.219486637972295 ], [ 651176.967337003676221, 7164429.627495398744941 ], [ 651165.530893255374394, 7164447.599058791995049 ], [ 651142.658000507857651, 7164457.40173305477947 ], [ 651123.052662836504169, 7164460.669293535873294 ], [ 651105.081106964498758, 7164481.908414797857404 ], [ 651088.743328304844908, 7164498.246200885623693 ], [ 651057.701547535602003, 7164522.7528813239187 ], [ 651021.758434147341177, 7164557.062232434749603 ], [ 650989.082875834545121, 7164584.836469763889909 ], [ 650969.477539469487965, 7164594.639143370091915 ], [ 650946.60464802570641, 7164610.976930761709809 ], [ 650930.266870342078619, 7164632.216051700524986 ], [ 650917.196651338832453, 7164664.891619968228042 ], [ 650915.562878713477403, 7164692.665851108729839 ], [ 650912.295329202432185, 7164726.975195709615946 ], [ 650909.027779036667198, 7164758.01698374375701 ], [ 650889.42244725197088, 7164790.692553317174315 ], [ 650886.154896102845669, 7164816.83300650678575 ], [ 650884.521123475045897, 7164844.60723765194416 ], [ 650884.521127078332938, 7164862.578798771835864 ], [ 650884.521130025503226, 7164877.282803324982524 ], [ 650884.521133957081474, 7164896.888142727315426 ], [ 650877.986024451092817, 7164913.225926864892244 ], [ 650864.915800855029374, 7164923.028599176555872 ], [ 650835.507796618971042, 7164939.366387870162725 ], [ 650822.437574987765402, 7164958.971729882061481 ], [ 650824.0713590758387, 7164988.379738662391901 ], [ 650822.437587101012468, 7165019.42152638360858 ], [ 650796.297147433157079, 7165076.603771530091763 ], [ 650783.226927760988474, 7165106.011783247813582 ], [ 650765.255373502615839, 7165135.419795943424106 ], [ 650744.016261541401036, 7165158.292696150019765 ], [ 650735.847375144250691, 7165181.165593758225441 ], [ 650742.382492181146517, 7165202.404710153117776 ], [ 650760.354056259384379, 7165222.010045986622572 ], [ 650789.762067383038811, 7165239.981601258739829 ], [ 650815.902521459851414, 7165254.685600612312555 ], [ 650842.042975211981684, 7165267.755821680650115 ], [ 650850.211870774161071, 7165290.628716036677361 ], [ 650860.014545843820088, 7165320.036723203957081 ], [ 650850.211885508615524, 7165364.148738843388855 ], [ 650846.944336320273578, 7165400.091861758381128 ], [ 650824.07145205012057, 7165452.372771431691945 ], [ 650797.931009749532677, 7165496.484790331684053 ], [ 650778.968052766867913, 7165518.895567974075675 ], [ 650799.850933230365627, 7165541.218239223584533 ], [ 650813.808581092394888, 7165555.175882264971733 ], [ 650826.215380124747753, 7165572.235224687494338 ], [ 650829.317080271197483, 7165578.438622215762734 ], [ 650841.723880858160555, 7165603.252212318591774 ], [ 650869.63917596405372, 7165628.065799333155155 ], [ 650906.85956995957531, 7165663.735331246629357 ], [ 650956.486762684653513, 7165714.913356047123671 ], [ 650989.05460988834966, 7165758.337136569432914 ], [ 650998.359709401032887, 7165772.294780541211367 ], [ 651001.461412661476061, 7165794.006673434749246 ], [ 650982.110648126923479, 7165821.355649533681571 ], [ 650980.875316028948873, 7165819.895712113007903 ], [ 650950.283389757736586, 7165838.981320195831358 ], [ 650940.978296775952913, 7165857.591516491025686 ], [ 650940.978300818591379, 7165877.752560464665294 ], [ 650948.732551812427118, 7165896.362753359600902 ], [ 650968.893598426831886, 7165914.972943779081106 ], [ 650984.402100417180918, 7165952.193329567089677 ], [ 650984.402107261470519, 7165986.312019377015531 ], [ 650985.952964179916307, 7166023.532407951541245 ], [ 650996.808917191578075, 7166057.651095600798726 ], [ 651020.071663028094918, 7166077.812134942039847 ], [ 651060.393753468990326, 7166101.074869953095913 ], [ 651116.224339997046627, 7166132.091849555261433 ], [ 651161.198978180647828, 7166152.25288456119597 ], [ 651203.071916836779565, 7166169.312221109867096 ], [ 651240.292308072326705, 7166191.024107195436954 ], [ 651263.555053294403479, 7166208.083447460085154 ], [ 651280.614401018247008, 7166226.693638497963548 ], [ 651305.427995072677732, 7166240.65127937681973 ], [ 651351.082128056441434, 7166233.154605297371745 ], [ 651369.906236021313816, 7166254.331719353795052 ], [ 651409.334914046921767, 7166268.566550277173519 ], [ 651419.447865625610575, 7166310.066033171489835 ], [ 651440.411076773889363, 7166333.649637461639941 ], [ 651453.245695844409056, 7166348.088578864000738 ], [ 651500.059642953099683, 7166446.914228955283761 ], [ 651544.437960768584162, 7166486.487896610051394 ], [ 651572.599571227561682, 7166530.74183867033571 ], [ 651595.499371064594015, 7166566.72722439467907 ], [ 651597.763191945618019, 7166612.85510996170342 ], [ 651605.517443899880163, 7166636.117851483635604 ], [ 651630.331042349804193, 7166671.787385894916952 ], [ 651672.420040368800983, 7166686.381552470847964 ], [ 651715.627785136923194, 7166784.999385109171271 ], [ 651728.034588585258462, 7166823.770621087402105 ], [ 651748.195638369070366, 7166857.889306897297502 ], [ 651807.405946636223234, 7166890.882859503850341 ], [ 651831.941530490876175, 7166964.897908285260201 ], [ 651862.958532723365352, 7167030.033582700416446 ], [ 651883.119583770399913, 7167070.355666672810912 ], [ 651914.136581317521632, 7167112.22859800606966 ], [ 651980.047695363289677, 7167172.711716811172664 ], [ 652014.16638681862969, 7167189.771054895594716 ], [ 652042.081677950336598, 7167194.423597909510136 ], [ 652087.056310268118978, 7167185.118491639383137 ], [ 652153.742834642529488, 7167174.262531468644738 ], [ 652187.861522026825696, 7167171.160825532861054 ], [ 652235.937855133088306, 7167171.160815868526697 ], [ 652262.302296495763585, 7167174.26250964589417 ], [ 652291.768436769489199, 7167177.364202799275517 ], [ 652322.785425557754934, 7167175.813347021117806 ], [ 652335.192219942808151, 7167169.609946365468204 ], [ 652356.904108546674252, 7167150.999747527763247 ], [ 652370.861750817741267, 7167137.042098866775632 ], [ 652383.268545828294009, 7167133.940397290512919 ], [ 652429.794029477750883, 7167133.940387925133109 ], [ 652487.175458997138776, 7167132.389526832848787 ], [ 652522.844993319595233, 7167116.88102425634861 ], [ 652566.268779315520078, 7167123.084413664415479 ], [ 652606.590867973864079, 7167137.042051393538713 ], [ 652650.014655544655398, 7167150.999688494950533 ], [ 652701.19269007560797, 7167163.40647448785603 ], [ 652744.61647387361154, 7167158.75391711294651 ], [ 652797.34535125142429, 7167138.592862462624907 ], [ 652815.955544398631901, 7167137.04200916737318 ], [ 652836.116587312310003, 7167137.042005099356174 ], [ 652853.175931631936692, 7167138.592851193621755 ], [ 652887.29462121555116, 7167146.347092002630234 ], [ 652913.659063841565512, 7167155.652183914557099 ], [ 652938.472655751742423, 7167158.75387798063457 ], [ 652969.489640125771984, 7167135.491128627210855 ], [ 653011.362572257756256, 7167119.982624773867428 ], [ 653047.032110037631355, 7167121.533467104658484 ], [ 653074.947401802637614, 7167129.287709157913923 ], [ 653105.964391849003732, 7167133.940251505933702 ], [ 653129.227135566994548, 7167143.24534403719008 ], [ 653166.447527219890617, 7167166.508079597726464 ], [ 653186.608572659897618, 7167178.914871834218502 ], [ 653209.871317011886276, 7167191.321663441136479 ], [ 653247.091708669788204, 7167214.584399001672864 ], [ 653285.862945048836991, 7167214.58439115434885 ], [ 653330.837578616570681, 7167211.482682969421148 ], [ 653383.566464830888435, 7167234.745415380224586 ], [ 653408.380064015625976, 7167273.516648842021823 ], [ 653426.990264748455957, 7167309.186184482648969 ], [ 653444.049614129820839, 7167335.550623199902475 ], [ 653461.108958139782771, 7167335.5506197437644 ], [ 653473.515752517734654, 7167329.347219071350992 ], [ 653489.024243911611848, 7167313.83872053027153 ], [ 653513.83783266635146, 7167301.431919182650745 ], [ 653538.651421737740748, 7167290.575967375189066 ], [ 653557.261613619164564, 7167282.821715904399753 ], [ 653575.871803286485374, 7167264.211517654359341 ], [ 653574.320949718472548, 7167244.050473953597248 ], [ 653552.609053548658267, 7167225.440283882431686 ], [ 653510.736115095671266, 7167209.931796977296472 ], [ 653458.007228562026285, 7167185.118215037509799 ], [ 653416.134284426341765, 7167141.694436421617866 ], [ 653355.651147781987675, 7167102.923210192471743 ], [ 653333.939244674053043, 7167050.19433025829494 ] ] ] ] } }
]
}
