{
"type": "FeatureCollection",
"name": "rio_padilha",
"crs": { "type": "name", "properties": { "name": "urn:ogc:def:crs:EPSG::31982" } },
"features": [
{ "type": "Feature", "properties": { "AREA": 31779537.504799999, "PERIMETER": 29705.27541, "BACIAS1_": 2, "BACIAS1_ID": 0, "NOME_BACIA": "RIO PADILHA", "SUB_AREA": 31.78, "SUBCODIGO": 1, "BACCODIGO": 2, "SUBNOME": "RIO PADILHA", "SUBBAC_DAT": "2002-01-03", "SUBBAC_POP": 189309, "SUBBAC_P_1": 188729, "SUBBAC_DEN": 5938.59, "SUBBAC_D_1": 5956.86 }, "geometry": { "type": "MultiPolygon", "coordinates": [ [ [ [ 672177.989672210998833, 7178985.305430563166738 ], [ 672203.456579475430772, 7178979.646111455745995 ], [ 672219.019690259010531, 7178979.646107919514179 ], [ 672230.33831628668122, 7178979.646105347201228 ], [ 672240.242116644512862, 7178990.964729741215706 ], [ 672247.316261470783502, 7179006.52783976867795 ], [ 672260.049720601527952, 7179027.750261833891273 ], [ 672269.95352549420204, 7179058.876482855528593 ], [ 672285.516639515990391, 7179073.024762624874711 ], [ 672305.324237001361325, 7179081.513728107325733 ], [ 672325.131833846797235, 7179087.173036925494671 ], [ 672347.769088166998699, 7179097.076830091886222 ], [ 672378.895310062798671, 7179098.491651343181729 ], [ 672412.851188144180924, 7179098.491643618792295 ], [ 672459.54052018315997, 7179097.076804665848613 ], [ 672510.474336983636022, 7179095.661964742466807 ], [ 672543.01538713555783, 7179097.0767856631428 ], [ 672606.682665670756251, 7179128.202994441613555 ], [ 672660.446146435569972, 7179159.329205472953618 ], [ 672715.624456106452271, 7179193.285072842612863 ], [ 672775.047247949289158, 7179215.922312591224909 ], [ 672834.470035901060328, 7179221.581612365320325 ], [ 672922.896804029354826, 7179231.48539051041007 ], [ 672958.267510045086965, 7179230.070554109290242 ], [ 672989.393730324343778, 7179224.411233679391444 ], [ 673012.030979137402028, 7179210.262945204041898 ], [ 673051.646163738565519, 7179181.966369539499283 ], [ 673085.602034020586871, 7179148.010481841862202 ], [ 673122.387560809962451, 7179114.054593501612544 ], [ 673166.24722918914631, 7179081.513531874865294 ], [ 673195.958618605160154, 7179064.535585114732385 ], [ 673232.744148314232007, 7179043.313151746988297 ], [ 673272.359337127301842, 7179033.40934437699616 ], [ 673283.67796282924246, 7179031.994513454847038 ], [ 673326.122812382178381, 7179040.483473734930158 ], [ 673336.026610805885866, 7179043.313128131441772 ], [ 673361.493526853970252, 7179075.85417390987277 ], [ 673382.715955863241106, 7179098.491422347724438 ], [ 673392.619754616171122, 7179102.735905073583126 ], [ 673402.523551413556561, 7179098.491417816840112 ], [ 673409.597688771551475, 7179081.513476230204105 ], [ 673418.086652427911758, 7179056.046564335934818 ], [ 673422.331130350590684, 7179026.335168417543173 ], [ 673427.990437825210392, 7179002.283085502684116 ], [ 673433.649744975962676, 7178976.816174258477986 ], [ 673444.968362533138134, 7178940.030635074712336 ], [ 673478.92423311364837, 7178907.489575702697039 ], [ 673507.220794591819867, 7178891.926457589492202 ], [ 673541.17666940507479, 7178877.778166512027383 ], [ 673569.473233487107791, 7178873.533675039187074 ], [ 673599.184626800823025, 7178873.533668233081698 ], [ 673637.384988001780584, 7178866.459517830982804 ], [ 673675.585351810790598, 7178870.703994069248438 ], [ 673722.274686771328561, 7178882.022610008716583 ], [ 673744.911943712970242, 7178903.245029777288437 ], [ 673770.37886271183379, 7178948.519530508667231 ], [ 673777.453012462239712, 7178985.305065480992198 ], [ 673785.941993403015658, 7179034.824055107310414 ], [ 673795.845798030379228, 7179064.535447780042887 ], [ 673818.483056941069663, 7179094.24683753401041 ], [ 673844.278740347246639, 7179113.832292725332081 ], [ 673883.356324899243191, 7179121.159330541267991 ], [ 673930.982127612456679, 7179115.053447240963578 ], [ 673957.847963303560391, 7179104.062870846129954 ], [ 673971.280878758872859, 7179088.187599675729871 ], [ 673986.847608641837724, 7179048.972292315214872 ], [ 674009.484854811918922, 7179023.505377165041864 ], [ 674042.025898428051732, 7178996.623631410300732 ], [ 674071.737285859882832, 7178971.156714635901153 ], [ 674090.130049885250628, 7178957.008427105844021 ], [ 674114.182125282590277, 7178935.785996624268591 ], [ 674138.23419152374845, 7178874.948372887447476 ], [ 674141.063833642285317, 7178812.695925704203546 ], [ 674143.893478373065591, 7178761.762105168774724 ], [ 674149.552765546599403, 7178649.990665797144175 ], [ 674158.041723287315108, 7178599.056843969970942 ], [ 674173.604821635526605, 7178545.293363862670958 ], [ 674189.167922596912831, 7178502.848510395735502 ], [ 674217.464476519729942, 7178454.744340681470931 ], [ 674281.13173608481884, 7178403.810506182722747 ], [ 674320.746918962104246, 7178368.439788832329214 ], [ 674358.947269979515113, 7178317.505960188806057 ], [ 674370.265890428912826, 7178293.453875986859202 ], [ 674370.265880604623817, 7178251.009026110172272 ], [ 674373.095523353433236, 7178191.586235634982586 ], [ 674385.82896288158372, 7178127.918957902118564 ], [ 674434.640516592771746, 7178037.369933621957898 ], [ 674471.426035076263361, 7177968.043337043374777 ], [ 674475.670510324882343, 7177927.013314537703991 ], [ 674475.670498529681936, 7177876.079494711942971 ], [ 674470.011170450598001, 7177810.997392907738686 ], [ 674454.448052154504694, 7177778.456344940699637 ], [ 674437.470102004474029, 7177730.352185687050223 ], [ 674438.884920755284838, 7177689.322163847275078 ], [ 674455.862846983363852, 7177634.143855145201087 ], [ 674479.914917743531987, 7177593.113828094676137 ], [ 674496.89284495159518, 7177542.180004380643368 ], [ 674539.337680339696817, 7177489.831346478313208 ], [ 674564.804583927383646, 7177468.608915694989264 ], [ 674607.249427174800076, 7177450.216137657873333 ], [ 674634.131162947625853, 7177445.97164648026228 ], [ 674658.183241891674697, 7177440.3123276270926 ], [ 674721.143092468846589, 7177412.015746559016407 ], [ 674749.43964893987868, 7177375.23020351678133 ], [ 674765.002749516977929, 7177331.370521776378155 ], [ 674776.321363701135851, 7177280.436699382029474 ], [ 674787.639980181818828, 7177239.406675277277827 ], [ 674800.373431147541851, 7177225.258389068767428 ], [ 674815.936541567323729, 7177223.843557149171829 ], [ 674828.669997459510341, 7177230.917695850133896 ], [ 674841.403455648338422, 7177247.895632837899029 ], [ 674851.307257011067122, 7177263.458742152899504 ], [ 674864.040714218281209, 7177276.192194160073996 ], [ 674899.411422438803129, 7177284.681155962869525 ], [ 674946.572681634686887, 7177268.872695870697498 ], [ 674970.152817522408441, 7177209.695238284766674 ], [ 674981.471435304614715, 7177174.324527490884066 ], [ 675004.108670209767297, 7177100.753449254669249 ], [ 675012.597629518131725, 7177056.893769158050418 ], [ 675022.501415760372765, 7177007.374775432050228 ], [ 675040.894174457876943, 7176970.589234687387943 ], [ 675062.116590634570457, 7176938.04817826859653 ], [ 675087.583488601725549, 7176892.773665930144489 ], [ 675120.124530439847149, 7176858.817778574302793 ], [ 675166.813856084947474, 7176830.521201251074672 ], [ 675192.280763254500926, 7176824.861882055178285 ], [ 675221.992155500105582, 7176820.617390209808946 ], [ 675254.533202269580215, 7176807.883927742950618 ], [ 675265.851824969984591, 7176793.735641862265766 ], [ 675270.096305109327659, 7176773.928044307976961 ], [ 675271.511130065307952, 7176759.779760718345642 ], [ 675271.511125784832984, 7176741.38699247688055 ], [ 675296.270612240536138, 7176707.431106916628778 ], [ 675327.39682680205442, 7176677.719704864546657 ], [ 675358.523041032720357, 7176646.593474486842752 ], [ 675396.723395844688639, 7176612.637585817836225 ], [ 675405.212355122203007, 7176568.777905747294426 ], [ 675405.212346229236573, 7176530.577540947124362 ], [ 675392.478883754345588, 7176495.206835744902492 ], [ 675379.745424903347157, 7176475.399242130108178 ], [ 675363.474883577902801, 7176404.657829607836902 ], [ 675363.474879954126664, 7176389.094718027859926 ], [ 675367.719352842192166, 7176338.160897321999073 ], [ 675371.963819470140152, 7176260.345338437706232 ], [ 675383.282428323873319, 7176186.774262899532914 ], [ 675379.03792974492535, 7176127.351474225521088 ], [ 675377.623094909125939, 7176099.05490804836154 ], [ 675360.645150991738774, 7176077.832487100735307 ], [ 675332.348583404906094, 7176066.513867050409317 ], [ 675312.540985628962517, 7176056.610073357820511 ], [ 675299.807526790187694, 7176036.80247975513339 ], [ 675288.488893234403804, 7176004.261430896818638 ], [ 675264.436807428719476, 7175980.209354938007891 ], [ 675247.458865824155509, 7175968.890732267871499 ], [ 675246.044030993594788, 7175940.594166099093854 ], [ 675257.362651705392636, 7175917.956910284236073 ], [ 675278.585066858795471, 7175881.171368930488825 ], [ 675309.711280396906659, 7175847.215481938794255 ], [ 675335.178182264557108, 7175818.918909554369748 ], [ 675374.793365609948523, 7175786.377848924137652 ], [ 675395.308363991905935, 7175738.2736811414361 ], [ 675406.626980415428989, 7175697.243657112121582 ], [ 675413.701118026743643, 7175681.680543906055391 ], [ 675412.286283847875893, 7175656.213634397834539 ], [ 675416.530763646587729, 7175634.991208551451564 ], [ 675426.434552480466664, 7175596.79084150493145 ], [ 675440.582823413889855, 7175547.271846886724234 ], [ 675463.220064814086072, 7175501.997335277497768 ], [ 675475.953505520243198, 7175443.989371043629944 ], [ 675481.612813233397901, 7175421.352116553112864 ], [ 675491.516607991768979, 7175408.618659343570471 ], [ 675508.494538706145249, 7175373.247947318479419 ], [ 675508.494532445212826, 7175346.366209167055786 ], [ 675508.494528487557545, 7175329.388269282877445 ], [ 675508.494521234882995, 7175298.262046163901687 ], [ 675531.131766910897568, 7175271.380302772857249 ], [ 675546.694873662199825, 7175254.402359282597899 ], [ 675567.917294717743061, 7175243.083727778866887 ], [ 675606.117657035239972, 7175241.668890601024032 ], [ 675654.221818065503612, 7175244.4985360968858 ], [ 675679.688729136250913, 7175255.817156782373786 ], [ 675715.059442885103635, 7175288.358200021088123 ], [ 675736.281871531857178, 7175309.580619952641428 ], [ 675744.770845963153988, 7175330.803042838349938 ], [ 675751.844995777239092, 7175367.58857761323452 ], [ 675771.652596839587204, 7175391.64065452106297 ], [ 675804.193649152875878, 7175402.959273561835289 ], [ 675831.075380549533293, 7175380.322014141827822 ], [ 675862.201593714999035, 7175344.951298825442791 ], [ 675884.83883541484829, 7175301.091615539044142 ], [ 675918.794700107770041, 7175244.498474711552262 ], [ 675944.261592344380915, 7175175.171880949288607 ], [ 675962.654350952012464, 7175138.386340275406837 ], [ 675986.706420554080978, 7175093.111828342080116 ], [ 676002.976941745262593, 7175077.548713006079197 ], [ 676028.443846534355544, 7175061.985595537349582 ], [ 676066.64420288882684, 7175035.103848520666361 ], [ 676104.844548655673862, 7174962.947595166042447 ], [ 676155.778353255824186, 7174910.598935376852751 ], [ 676186.904571350081824, 7174896.450644912198186 ], [ 676231.670063869445585, 7174895.175162680447102 ], [ 676250.62843022972811, 7174873.813376946374774 ], [ 676271.454693104606122, 7174835.782786786556244 ], [ 676295.902918190695345, 7174805.901606921106577 ], [ 676309.485261927940883, 7174774.209449333138764 ], [ 676332.12250198062975, 7174723.501996985636652 ], [ 676350.232289526844397, 7174663.739644427783787 ], [ 676371.964038435951807, 7174608.504741666838527 ], [ 676405.467154311481863, 7174536.065523765981197 ], [ 676428.104394988156855, 7174488.074541809037328 ], [ 676467.040458527975716, 7174446.421986941248178 ], [ 676493.299663532408886, 7174415.63531653676182 ], [ 676500.883133959723637, 7174377.378356948494911 ], [ 676499.751267650281079, 7174361.532280008308589 ], [ 676486.168912523775361, 7174344.554343311116099 ], [ 676478.245870905928314, 7174329.840130610391498 ], [ 676474.850278346100822, 7174309.466603565961123 ], [ 676474.850270655239001, 7174276.642586504109204 ], [ 676474.850260310340673, 7174232.499942869879305 ], [ 676475.982111236662604, 7174182.697985687293112 ], [ 676477.113962692790665, 7174135.159753823652864 ], [ 676474.850230870768428, 7174106.863187922164798 ], [ 676477.113952879328281, 7174093.280835511162877 ], [ 676491.828160781296901, 7174068.379853629507124 ], [ 676511.069815879804082, 7174029.896518808789551 ], [ 676525.784024048480205, 7174006.127399584278464 ], [ 676535.97078236239031, 7173984.622006729245186 ], [ 676549.553126603830606, 7173955.193574485369027 ], [ 676563.135471110465005, 7173926.897004898637533 ], [ 676584.640855639241636, 7173906.523472064174712 ], [ 676598.223201204324141, 7173882.754353106021881 ], [ 676621.992307203705423, 7173846.534742549993098 ], [ 676635.574647989007644, 7173802.3920957762748 ], [ 676635.574639228638262, 7173765.040628106333315 ], [ 676632.744972654152662, 7173722.02984781935811 ], [ 676636.140556189930066, 7173703.920044524595141 ], [ 676642.931726183160208, 7173680.150927154347301 ], [ 676664.437108841841109, 7173651.854355728253722 ], [ 676678.019455200992525, 7173631.480824748985469 ], [ 676704.052290890016593, 7173614.502878828905523 ], [ 676717.634638836490922, 7173600.920523786917329 ], [ 676728.953262657974847, 7173591.865619894117117 ], [ 676739.1400241474621, 7173583.942578922957182 ], [ 676753.854233361314982, 7173564.700910335406661 ], [ 676764.040992194670253, 7173545.459242802113295 ], [ 676767.436573336599395, 7173517.16267560236156 ], [ 676766.3047062268015, 7173497.921010714955628 ], [ 676767.436562974471599, 7173473.020032013766468 ], [ 676777.623322868719697, 7173458.305815109983087 ], [ 676786.678220966015942, 7173446.987186434678733 ], [ 676810.447334913536906, 7173444.72345557436347 ], [ 676834.216448596911505, 7173441.327862057834864 ], [ 676842.139484630897641, 7173432.272958962246776 ], [ 676852.326243991614319, 7173415.295016743242741 ], [ 676864.776724023278803, 7173379.075408842414618 ], [ 676882.886519415187649, 7173353.04256352968514 ], [ 676925.89729187800549, 7173327.009712398052216 ], [ 676942.875227332464419, 7173312.2954939045012 ], [ 676944.00708859495353, 7173306.636180363595486 ], [ 676948.110080326674506, 7173263.342432818375528 ], [ 676948.110073346411809, 7173233.631038105115294 ], [ 676946.695238120038994, 7173203.91964372061193 ], [ 676948.110059715923853, 7173175.623076999559999 ], [ 676956.599020192981698, 7173137.422710387036204 ], [ 676974.991777699207887, 7173096.392684826627374 ], [ 676997.629018933046609, 7173051.118173316121101 ], [ 677040.07385621976573, 7173008.673313822597265 ], [ 677066.955589491175488, 7172994.525024346075952 ], [ 677113.64491582068149, 7172970.472932005301118 ], [ 677153.26010459731333, 7172961.983952824957669 ], [ 677181.556663444498554, 7172936.517036463133991 ], [ 677209.853220959426835, 7172905.390806823968887 ], [ 677224.001496719545685, 7172877.094237131997943 ], [ 677238.149774139747024, 7172855.87180903647095 ], [ 677249.468392749549821, 7172824.74558337032795 ], [ 677249.468387753469869, 7172803.523158587515354 ], [ 677243.809065796202049, 7172765.322795305401087 ], [ 677245.223891041008756, 7172752.589340100996196 ], [ 677249.468374433927238, 7172746.930025834590197 ], [ 677259.372170124435797, 7172738.441053604707122 ], [ 677277.764937265077606, 7172738.441049300134182 ], [ 677307.47633033816237, 7172738.44104234687984 ], [ 677345.67669252702035, 7172737.026205083355308 ], [ 677388.12153777340427, 7172728.537225235253572 ], [ 677420.662584659061395, 7172717.218591063283384 ], [ 677439.055344466585666, 7172686.092363744974136 ], [ 677446.129474335582927, 7172637.988199254497886 ], [ 677461.692561319796368, 7172537.535384997725487 ], [ 677482.914974265149795, 7172492.260873837396502 ], [ 677505.552217451971956, 7172455.475332259200513 ], [ 677516.870829706313089, 7172397.467368559911847 ], [ 677504.844781654537655, 7172363.511491743847728 ], [ 677486.452005185419694, 7172323.896303150802851 ], [ 677445.421976536745206, 7172282.866291541606188 ], [ 677390.24366815155372, 7172253.15490979142487 ], [ 677327.991213236935437, 7172200.806276608258486 ], [ 677305.353953725192696, 7172168.265230599790812 ], [ 677286.961178938043304, 7172135.724183598533273 ], [ 677274.227720778202638, 7172118.746246766299009 ], [ 677264.323922095471062, 7172114.501764134503901 ], [ 677245.931155637605116, 7172117.331425072625279 ], [ 677211.975280866608955, 7172130.064887877553701 ], [ 677196.41217055299785, 7172131.479719833470881 ], [ 677169.530431658495218, 7172121.575927896425128 ], [ 677155.38214891962707, 7172120.161102890968323 ], [ 677134.159725649165921, 7172121.575936170294881 ], [ 677095.959363159257919, 7172121.575945102609694 ], [ 677012.484490989358164, 7172096.109054896980524 ], [ 676964.380330818938091, 7172096.109066137112677 ], [ 676924.765138095710427, 7172087.620105488225818 ], [ 676873.831321114208549, 7172086.205289063975215 ], [ 676815.823360937996767, 7172076.301504384726286 ], [ 676792.47869264613837, 7172066.397711609490216 ], [ 676769.841433161636814, 7172033.856665593571961 ], [ 676767.011770039331168, 7172005.560099906288087 ], [ 676750.033826508326456, 7171985.752507425844669 ], [ 676720.322431142209098, 7171975.848716135136783 ], [ 676694.855515516595915, 7171944.722499098628759 ], [ 676676.462739765411243, 7171907.936967140063643 ], [ 676663.729279301012866, 7171881.055232087150216 ], [ 676643.921673651901074, 7171837.195558873936534 ], [ 676626.943726144963875, 7171800.410026593133807 ], [ 676608.550955709186383, 7171786.26174771040678 ], [ 676588.743355377810076, 7171765.039327575825155 ], [ 676571.765409534564242, 7171735.327936878427863 ], [ 676564.691260040854104, 7171699.957230607047677 ], [ 676562.569011381245218, 7171673.075493082404137 ], [ 676562.56900043215137, 7171626.386158633977175 ], [ 676547.005878188763745, 7171576.867171179503202 ], [ 676531.442753956653178, 7171518.859213832765818 ], [ 676488.997895835898817, 7171472.169889284297824 ], [ 676416.841648016241379, 7171439.628854816779494 ], [ 676339.026087909121998, 7171409.917478296905756 ], [ 676255.551222800393589, 7171414.161982675082982 ], [ 676204.617407519370317, 7171419.821307790465653 ], [ 676152.268762674648315, 7171419.821319965645671 ], [ 676121.142539099673741, 7171409.917528990656137 ], [ 676094.260799249750562, 7171395.769252078607678 ], [ 676022.104543847264722, 7171330.687166308052838 ], [ 676010.078501503216103, 7171320.783370891585946 ], [ 676003.004351378767751, 7171282.583008002489805 ], [ 675990.270886318990961, 7171235.893676538020372 ], [ 675987.441223223926499, 7171207.597110876813531 ], [ 675986.026387051213533, 7171173.641231626272202 ], [ 675986.026380107970908, 7171143.929836994968355 ], [ 675981.781887786113657, 7171111.388786721974611 ], [ 675976.122569541097619, 7171088.75153498724103 ], [ 675956.314969574450515, 7171068.943943172693253 ], [ 675913.870121433516033, 7171064.699468085542321 ], [ 675864.35113077762071, 7171054.795681375078857 ], [ 675841.713872024789453, 7171025.084292004816234 ], [ 675828.98041259474121, 7171002.447041913866997 ], [ 675823.32109732797835, 7170992.543245017528534 ], [ 675802.098674085107632, 7170993.958078259602189 ], [ 675785.120735228061676, 7170993.958082201890647 ], [ 675769.557625268003903, 7170996.787742444314063 ], [ 675746.920375106739812, 7171003.86188927385956 ], [ 675724.283125274116173, 7171012.350864419713616 ], [ 675714.37932925822679, 7171019.425008293241262 ], [ 675708.72001795633696, 7171026.499151182360947 ], [ 675700.231054140604101, 7171050.551234514452517 ], [ 675690.32726010447368, 7171066.114348284900188 ], [ 675673.349329164251685, 7171100.070231797173619 ], [ 675653.541736464598216, 7171111.388862916268408 ], [ 675622.415516209905036, 7171115.633355079218745 ], [ 675574.311355444137007, 7171112.803709600120783 ], [ 675541.770303320838138, 7171101.485090618953109 ], [ 675497.910627269884571, 7171098.655444150790572 ], [ 675455.465780116966926, 7171098.655453983694315 ], [ 675438.487836971413344, 7171080.262689813971519 ], [ 675429.998859299579635, 7171044.891983889043331 ], [ 675427.169198866235092, 7171027.914044762030244 ], [ 675401.702286622370593, 7171010.936110872775316 ], [ 675374.820548119489104, 7171002.447147206403315 ], [ 675352.183292352128774, 7170985.469212661497295 ], [ 675340.86466183536686, 7170965.661618866026402 ], [ 675340.864656894584186, 7170944.43919413536787 ], [ 675346.523962266044691, 7170911.898141575977206 ], [ 675357.842580923577771, 7170880.771916020661592 ], [ 675357.842575979768299, 7170859.549491293728352 ], [ 675353.598084345692769, 7170829.838097658008337 ], [ 675333.790481109521352, 7170795.882222683168948 ], [ 675278.61216995306313, 7170753.437386004254222 ], [ 675260.219395287916996, 7170720.896339017897844 ], [ 675209.285576095804572, 7170709.57772428356111 ], [ 675160.474000250920653, 7170702.503593999892473 ], [ 675116.614323896239512, 7170698.25911919772625 ], [ 675068.510161511483602, 7170688.355332113802433 ], [ 675034.554279532982036, 7170669.962571868672967 ], [ 674985.035286941681989, 7170651.569815220311284 ], [ 674965.227683068718761, 7170614.784283611923456 ], [ 674963.812842995161191, 7170563.85046461224556 ], [ 674958.153519195853733, 7170517.161131539382041 ], [ 674929.856943601393141, 7170470.471803700551391 ], [ 674883.167606843519025, 7170449.249389764852822 ], [ 674808.181696806102991, 7170391.241446189582348 ], [ 674733.195797614753246, 7170379.922836981713772 ], [ 674656.795072484761477, 7170378.508026286959648 ], [ 674628.498499866807833, 7170344.552153271622956 ], [ 674600.201933486387134, 7170337.478018225170672 ], [ 674584.638823535642587, 7170340.307678440585732 ], [ 674562.00157535308972, 7170355.870795114897192 ], [ 674543.608812533318996, 7170374.263567440211773 ], [ 674525.21604774997104, 7170384.16736987605691 ], [ 674509.652946978341788, 7170426.612222889438272 ], [ 674482.771218998124823, 7170463.397765258327127 ], [ 674464.378456831793301, 7170484.620194207876921 ], [ 674441.741207984625362, 7170497.353654254227877 ], [ 674421.933616924681701, 7170515.746426902711391 ], [ 674392.2222308232449, 7170545.457828349433839 ], [ 674378.073960900539532, 7170599.221307558938861 ], [ 674363.92569097597152, 7170652.984786774031818 ], [ 674345.532931095454842, 7170684.111013935878873 ], [ 674328.554994863923639, 7170695.429644360207021 ], [ 674290.354633757495321, 7170701.088966412469745 ], [ 674264.887726462329738, 7170705.333457215689123 ], [ 674238.005992238060571, 7170715.237261604517698 ], [ 674226.687368299579248, 7170723.726234097033739 ], [ 674229.517029686598107, 7170744.948658170178533 ], [ 674242.250488737365231, 7170766.171079965308309 ], [ 674246.494980325456709, 7170795.882473601028323 ], [ 674247.909815112128854, 7170824.179039577022195 ], [ 674246.494995715096593, 7170862.379404410719872 ], [ 674247.909833775833249, 7170904.824253540486097 ], [ 674256.398810079437681, 7170934.535646207630634 ], [ 674277.621240201056935, 7170962.832207629457116 ], [ 674304.502983604790643, 7170992.543596063740551 ], [ 674335.62921172240749, 7171022.254983525723219 ], [ 674349.777499346644618, 7171044.892233315855265 ], [ 674352.607160412124358, 7171064.699829081073403 ], [ 674332.799570641713217, 7171088.751915003173053 ], [ 674298.136285351822153, 7171117.048489296808839 ], [ 674265.595241761882789, 7171142.515406463295221 ], [ 674233.054196533048525, 7171160.908182052895427 ], [ 674200.513145408593118, 7171153.834047961048782 ], [ 674172.216579002561048, 7171146.759912887588143 ], [ 674143.920013905968517, 7171145.345091078430414 ], [ 674115.623450446408242, 7171151.004410847090185 ], [ 674087.326890254160389, 7171170.812013771384954 ], [ 674060.445161244249903, 7171203.353071209043264 ], [ 674026.489293655264191, 7171247.212756803259254 ], [ 674018.000329127768055, 7171268.435183493420482 ], [ 674022.244822018546984, 7171303.80589041672647 ], [ 674030.733799953246489, 7171340.591424679383636 ], [ 674030.73380747390911, 7171373.132475950755179 ], [ 674018.00036149926018, 7171408.503186779096723 ], [ 673989.703803911339492, 7171439.629416236653924 ], [ 673958.577588208718225, 7171463.681504759937525 ], [ 673941.599656203994527, 7171493.39290330093354 ], [ 673933.110692324349657, 7171517.444986630231142 ], [ 673933.110696244519204, 7171534.422926424071193 ], [ 673937.35518423106987, 7171548.571208614856005 ], [ 673965.651751958066598, 7171561.304656963795424 ], [ 674022.24488283530809, 7171566.963957232423127 ], [ 674113.501305905752815, 7171574.038077840581536 ], [ 674141.797870691283606, 7171574.038071336224675 ], [ 674181.413061392027885, 7171574.03806222602725 ], [ 674215.368940771673806, 7171581.112196002155542 ], [ 674247.909991257591173, 7171585.356673465110362 ], [ 674298.843809184501879, 7171591.015975011512637 ], [ 674337.044173283968121, 7171598.090107803232968 ], [ 674361.096257939236239, 7171617.897698698565364 ], [ 674363.925919987261295, 7171641.949779426679015 ], [ 674361.096270715584978, 7171673.076003045774996 ], [ 674358.266621117130853, 7171702.787398349493742 ], [ 674356.851797135546803, 7171721.180166793055832 ], [ 674342.703518669703044, 7171738.158109851181507 ], [ 674329.970068118302152, 7171753.721224264241755 ], [ 674317.236617889720947, 7171770.699166998267174 ], [ 674308.747653039055876, 7171790.506765387952328 ], [ 674308.747657624189742, 7171810.314361825585365 ], [ 674301.673520026961342, 7171825.877474939450622 ], [ 674287.525241886498407, 7171844.270246313884854 ], [ 674267.717648166348226, 7171851.344392456114292 ], [ 674167.264845758210868, 7171862.663042097352445 ], [ 674131.894142704433762, 7171875.396505083888769 ], [ 674095.108612067764625, 7171890.959625028073788 ], [ 674068.226878779008985, 7171905.107914377003908 ], [ 674039.930320521234535, 7171933.404487219639122 ], [ 674005.97445126331877, 7171970.190031269565225 ], [ 673973.433409587014467, 7172004.145918358117342 ], [ 673943.722020795103163, 7172022.538693305104971 ], [ 673919.669940711930394, 7172022.538698827847838 ], [ 673889.958547994727269, 7172023.953533967956901 ], [ 673865.906467913184315, 7172023.953539488837123 ], [ 673847.513701116433367, 7172025.368372028693557 ], [ 673826.291278494871221, 7172029.612861847504973 ], [ 673800.824372784234583, 7172040.931494233198464 ], [ 673768.283326852717437, 7172056.494613187387586 ], [ 673738.571939357789233, 7172080.546701401472092 ], [ 673718.764349868521094, 7172106.013615654781461 ], [ 673713.105042131384835, 7172128.650870036333799 ], [ 673713.105048657511361, 7172156.947436384856701 ], [ 673724.423681108746678, 7172185.244000144302845 ], [ 673721.59403148223646, 7172214.955395461991429 ], [ 673698.956791056785733, 7172264.474391775205731 ], [ 673662.8786839726381, 7172321.067532761022449 ], [ 673652.974887919728644, 7172328.141676619648933 ], [ 673628.922812721226364, 7172349.364106902852654 ], [ 673597.79659501358401, 7172364.927225533872843 ], [ 673549.692439717473462, 7172386.149661326780915 ], [ 673521.395878487499431, 7172401.712779307737947 ], [ 673480.365867978078313, 7172438.498324975371361 ], [ 673437.921025312622078, 7172458.305931147187948 ], [ 673409.624463751562871, 7172472.454220809042454 ], [ 673386.987216457957402, 7172492.261822442524135 ], [ 673353.738762236665934, 7172533.291851280257106 ], [ 673311.293925098259933, 7172577.151538863778114 ], [ 673294.31599694932811, 7172623.840877253562212 ], [ 673281.582550916704349, 7172659.21158813033253 ], [ 673253.28599585511256, 7172701.656444162130356 ], [ 673236.30807355674915, 7172773.812692293897271 ], [ 673239.137737852521241, 7172807.768571296706796 ], [ 673254.700857622898184, 7172847.383760665543377 ], [ 673268.849148829933256, 7172885.584122040309012 ], [ 673290.071579621057026, 7172916.710340203717351 ], [ 673290.071584503049962, 7172937.932764988392591 ], [ 673290.071592316729948, 7172971.888644646853209 ], [ 673280.167801784002222, 7173003.014869933947921 ], [ 673266.019527176162228, 7173036.970752831548452 ], [ 673257.530560980783775, 7173051.119037964381278 ], [ 673234.893313014530577, 7173068.096982974559069 ], [ 673205.181923510623164, 7173083.660101278685033 ], [ 673181.129843392176554, 7173083.660106779076159 ], [ 673145.759135386906564, 7173075.171144949272275 ], [ 673097.654974832199514, 7173073.756327621638775 ], [ 673066.528756107087247, 7173085.074961287900805 ], [ 673025.498739361413755, 7173094.978768898174167 ], [ 673001.446660218527541, 7173099.223259349353611 ], [ 672959.001814254093915, 7173104.882582318037748 ], [ 672909.482824478996918, 7173099.223280346021056 ], [ 672850.060036685783416, 7173092.149152310565114 ], [ 672805.492943485849537, 7173076.586050965823233 ], [ 672755.973951768362895, 7173062.437779065221548 ], [ 672717.773587609059177, 7173055.363646183162928 ], [ 672664.010116031626239, 7173062.437800034880638 ], [ 672621.565274933353066, 7173089.319547774270177 ], [ 672600.342852597357705, 7173094.978865887969732 ], [ 672574.875944886822253, 7173097.808528330177069 ], [ 672546.579381018527783, 7173102.053019730374217 ], [ 672516.867990848841146, 7173114.786481371149421 ], [ 672492.815914620645344, 7173131.764426683075726 ], [ 672460.274869910557754, 7173152.98685888107866 ], [ 672419.244854771066457, 7173169.964808056131005 ], [ 672375.38518088136334, 7173177.038959633558989 ], [ 672356.99241373129189, 7173177.038963820785284 ], [ 672345.673789087217301, 7173182.698279673233628 ], [ 672314.547571967123076, 7173201.091054907999933 ], [ 672280.591698681120761, 7173220.898659103550017 ], [ 672239.561682888772339, 7173235.046951630152762 ], [ 672208.435459614032879, 7173226.557988788932562 ], [ 672180.138891208218411, 7173210.994883705861866 ], [ 672136.27921310858801, 7173199.676267117261887 ], [ 672093.834365839720704, 7173199.676276762038469 ], [ 672028.752269925433211, 7173213.824574738740921 ], [ 671980.648111946298741, 7173223.728383898735046 ], [ 671933.958780594635755, 7173226.558051135390997 ], [ 671884.439793402096257, 7173232.217375652864575 ], [ 671834.920803949935362, 7173227.972901927307248 ], [ 671787.524053313885815, 7173208.165316203609109 ], [ 671777.62025368027389, 7173199.676348531618714 ], [ 671763.471968996338546, 7173189.772553503513336 ], [ 671752.153341446770355, 7173182.698414471000433 ], [ 671732.345747021841817, 7173186.94290392100811 ], [ 671706.878840274293907, 7173194.017051289789379 ], [ 671678.582276395405643, 7173198.261542663909495 ], [ 671599.351897081243806, 7173208.165358852595091 ], [ 671558.321873863227665, 7173189.772599990479648 ], [ 671549.832904409966432, 7173189.772601914592087 ], [ 671528.610479486174881, 7173184.113293441943824 ], [ 671515.877024984918535, 7173182.698468007147312 ], [ 671501.728743205429055, 7173185.528127846308053 ], [ 671491.824951631017029, 7173212.409868158400059 ], [ 671474.847020776709542, 7173247.780579993501306 ], [ 671449.380122720845975, 7173293.055091986432672 ], [ 671449.380138180684298, 7173360.966851335018873 ], [ 671459.283948121475987, 7173414.730325246229768 ], [ 671472.017420666641556, 7173495.375536603853106 ], [ 671446.550527755869552, 7173563.287301734089851 ], [ 671406.93535530695226, 7173643.932524954900146 ], [ 671354.586730591603555, 7173733.066720984876156 ], [ 671333.364317884901538, 7173781.170888684689999 ], [ 671333.364325608476065, 7173815.126768380403519 ], [ 671346.805199394002557, 7173839.178846794180572 ], [ 671368.02764075435698, 7173916.994399636983871 ], [ 671372.272138041094877, 7173972.172703191637993 ], [ 671375.101799035561271, 7173991.980299044400454 ], [ 671376.516631786245853, 7174011.78789522126317 ], [ 671387.835264177178033, 7174040.084459079429507 ], [ 671409.057703937287442, 7174110.825870337896049 ], [ 671407.642891148920171, 7174178.7376300804317 ], [ 671408.350322337355465, 7174253.723530957475305 ], [ 671387.12791026418563, 7174304.657355334609747 ], [ 671368.735153065994382, 7174348.517037464305758 ], [ 671364.490676060202532, 7174382.472918145358562 ], [ 671367.320340917445719, 7174419.25845387391746 ], [ 671372.979660012759268, 7174446.140190708450973 ], [ 671374.39449469500687, 7174474.436756828799844 ], [ 671365.905537461861968, 7174528.200234983116388 ], [ 671346.097960060229525, 7174607.430625500157475 ], [ 671348.927630390040576, 7174668.268242718651891 ], [ 671351.757297825068235, 7174716.372405036352575 ], [ 671351.757301365025342, 7174731.935516584664583 ], [ 671339.023851664038375, 7174751.743115978315473 ], [ 671272.52693282533437, 7174789.943495719693601 ], [ 671248.474857159424573, 7174809.751097673550248 ], [ 671200.370703570195474, 7174839.462503318674862 ], [ 671165.000001937383786, 7174859.270107829943299 ], [ 671136.703444743878208, 7174893.225993963889778 ], [ 671133.166384739801288, 7174939.915329415351152 ], [ 671124.677420086809434, 7174961.137756174430251 ], [ 671116.188453186070547, 7174972.45638467464596 ], [ 671102.040174264227971, 7174988.019499422982335 ], [ 671075.158443382126279, 7175013.48641530610621 ], [ 671022.809806963661686, 7175051.686791845597327 ], [ 670976.12048416514881, 7175092.716823749244213 ], [ 670933.675641608191654, 7175113.939258176833391 ], [ 670899.719765631714836, 7175122.428235772997141 ], [ 670871.423202638281509, 7175130.917212098836899 ], [ 670853.03043897182215, 7175146.480327798053622 ], [ 670821.904224939644337, 7175179.021386250853539 ], [ 670804.926291764131747, 7175204.488299896940589 ], [ 670797.852156950742938, 7175232.784867959097028 ], [ 670778.044569525052793, 7175268.155580507591367 ], [ 670763.896294119767845, 7175299.281806813552976 ], [ 670756.822158662136644, 7175324.74871823284775 ], [ 670756.822166359866969, 7175358.704598000273108 ], [ 670758.237001983681694, 7175391.245649119839072 ], [ 670768.140804521273822, 7175412.468071745708585 ], [ 670782.289089553058147, 7175423.786695146001875 ], [ 670809.17082880216185, 7175435.105315675958991 ], [ 670841.711881681228988, 7175449.253591576591134 ], [ 670889.81604687764775, 7175470.476005584001541 ], [ 670913.160718083847314, 7175493.113253502175212 ], [ 670925.894179687718861, 7175525.654302077367902 ], [ 670934.383155590621755, 7175553.95086664147675 ], [ 670957.020415886538103, 7175590.73639795742929 ], [ 670985.316989494720474, 7175628.936756322160363 ], [ 671003.709764732979238, 7175664.307460276409984 ], [ 671024.932200647192076, 7175718.070931805297732 ], [ 671048.984295305097476, 7175781.738200973719358 ], [ 671075.866056100116111, 7175887.850319241173565 ], [ 671090.014352715574205, 7175950.102762333117425 ], [ 671099.918159122695215, 7175988.303124863654375 ], [ 671105.577482401044108, 7176033.577629981562495 ], [ 671105.577502327389084, 7176121.296986129134893 ], [ 671127.50735238310881, 7176175.060457532294095 ], [ 671138.825984150287695, 7176200.527364827692509 ], [ 671185.515327266184613, 7176248.631517339497805 ], [ 671247.767772107967176, 7176257.120473220944405 ], [ 671302.946080219582655, 7176285.417027255520225 ], [ 671368.028185105533339, 7176309.469094071537256 ], [ 671416.132351338979788, 7176334.935993046499789 ], [ 671448.673410707968287, 7176377.380835451185703 ], [ 671482.629305415204726, 7176450.951900699175894 ], [ 671537.807630946976133, 7176555.649184318259358 ], [ 671576.008012351347134, 7176637.709218574687839 ], [ 671595.815621372079477, 7176697.132003786042333 ], [ 671636.138235491933301, 7176736.747187786735594 ], [ 671661.605155901634134, 7176789.095830088481307 ], [ 671694.146214660722762, 7176828.711015852168202 ], [ 671709.709332819562405, 7176861.25206383690238 ], [ 671712.538999639218673, 7176906.526569643989205 ], [ 671694.146247230703011, 7176971.608676836825907 ], [ 671660.190377627499402, 7177008.39422102086246 ], [ 671609.256567737553269, 7177039.520455748774111 ], [ 671554.078273418941535, 7177072.061519761569798 ], [ 671435.232723957160488, 7177175.344014529138803 ], [ 671415.425132646691054, 7177193.73678726144135 ], [ 671364.491322412854061, 7177223.448193650692701 ], [ 671348.928216813132167, 7177246.085450403392315 ], [ 671336.194769641151652, 7177277.211676483973861 ], [ 671331.950289076659828, 7177295.604445698671043 ], [ 671300.116665032226592, 7177346.538272680714726 ], [ 671278.894258009386249, 7177420.109350506216288 ], [ 671263.331174596678466, 7177540.369761873036623 ], [ 671259.086712360614911, 7177639.407745779491961 ], [ 671249.182934869197197, 7177728.541932683438063 ], [ 671256.257096388144419, 7177817.67611576244235 ], [ 671259.086763183353469, 7177862.950621630065143 ], [ 671257.671940720174462, 7177888.417531859129667 ], [ 671251.305220987880602, 7177920.958584854379296 ], [ 671231.497636084095575, 7177967.647924171760678 ], [ 671210.275223568314686, 7178017.166920468211174 ], [ 671197.541777666308917, 7178053.95245988946408 ], [ 671187.637988265720196, 7178090.737998675554991 ], [ 671186.223170945537277, 7178138.842162176966667 ], [ 671201.786290715448558, 7178178.457351870834827 ], [ 671218.76423616881948, 7178206.75391461327672 ], [ 671228.668039394542575, 7178230.805993970483541 ], [ 671223.00873378617689, 7178263.347046818584204 ], [ 671215.934602171415463, 7178305.791898291558027 ], [ 671201.786340551334433, 7178397.755742892622948 ], [ 671181.978756597614847, 7178448.689567225053906 ], [ 671165.000826571369544, 7178488.304764285683632 ], [ 671148.730308098020032, 7178516.601334555074573 ], [ 671138.826515155378729, 7178537.823761734180152 ], [ 671113.359610146610066, 7178553.386879110708833 ], [ 671077.988908334984444, 7178573.194483712315559 ], [ 671056.766491937916726, 7178605.735540090128779 ], [ 671042.618216801434755, 7178638.276594867929816 ], [ 671041.20339690009132, 7178675.062131762504578 ], [ 671055.351693239645101, 7178735.899746757932007 ], [ 671086.477926689898595, 7178788.248387945815921 ], [ 671120.433812469476834, 7178822.204260203056037 ], [ 671135.996931285248138, 7178857.574964944273233 ], [ 671161.463844017474912, 7178875.967727485112846 ], [ 671205.323524037958123, 7178894.360485872253776 ], [ 671266.161151782493107, 7178950.953605340793729 ], [ 671285.968751831562258, 7178970.761197488754988 ], [ 671311.435664571123198, 7178989.153960032388568 ], [ 671346.806374439620413, 7179004.717063669115305 ], [ 671387.836400863481686, 7179035.8432776639238 ], [ 671441.599880929104984, 7179064.139832114800811 ], [ 671459.992650798521936, 7179075.458454600535333 ], [ 671479.800249564112164, 7179089.606733424589038 ], [ 671522.245103930239566, 7179119.318118764087558 ], [ 671556.200993288774043, 7179168.83710265904665 ], [ 671590.156886519980617, 7179235.334026522934437 ], [ 671608.549661874887533, 7179270.704730632714927 ], [ 671619.868294026819058, 7179297.586466360837221 ], [ 671641.090721701737493, 7179314.564401527866721 ], [ 671667.972460135584697, 7179321.638537094928324 ], [ 671695.655290191294625, 7179325.232128197327256 ], [ 671688.459172053495422, 7179316.375371042639017 ], [ 671684.21468471258413, 7179305.056745352223516 ], [ 671698.362959513673559, 7179271.100862201303244 ], [ 671721.000206090160646, 7179247.048775443807244 ], [ 671742.222624090500176, 7179221.581860677339137 ], [ 671750.711588773177937, 7179200.359433789737523 ], [ 671764.859869052190334, 7179190.455632265657187 ], [ 671784.667462988290936, 7179183.381486121565104 ], [ 671815.793683276395313, 7179177.722165743820369 ], [ 671861.068184486473911, 7179164.988700497895479 ], [ 671896.43888985668309, 7179160.744207482784986 ], [ 671930.394766649114899, 7179155.084886457771063 ], [ 671948.787532330141403, 7179148.0107406321913 ], [ 671971.424781478475779, 7179135.277280515991151 ], [ 672005.380651811603457, 7179101.321392874233425 ], [ 672043.581004636827856, 7179057.461705951020122 ], [ 672081.781359074171633, 7179020.676160678267479 ], [ 672127.055859622429125, 7179005.113038763403893 ], [ 672158.18207763787359, 7178989.549920056015253 ], [ 672177.989672210998833, 7178985.305430563166738 ] ] ] ] } }
]
}
