{
"type": "FeatureCollection",
"name": "rio_isabel_alves",
"crs": { "type": "name", "properties": { "name": "urn:ogc:def:crs:EPSG::31982" } },
"features": [
{ "type": "Feature", "properties": { "AREA": 58224995.820809998, "PERIMETER": 49602.39089, "BACIAS1_": 25, "BACIAS1_ID": 0, "NOME_BACIA": "RIO ISABEL ALVES", "SUB_AREA": 58.23, "SUBCODIGO": 24, "BACCODIGO": 2, "SUBNOME": "RIO ISABEL ALVES", "SUBBAC_DAT": "2002-01-03", "SUBBAC_POP": 6395, "SUBBAC_P_1": 6395, "SUBBAC_DEN": 109.82, "SUBBAC_D_1": 110.56 }, "geometry": { "type": "MultiPolygon", "coordinates": [ [ [ [ 645248.030061923665926, 7164427.103680770844221 ], [ 645248.803166625322774, 7164462.173519372940063 ], [ 645245.535614966298454, 7164486.680194240994751 ], [ 645245.535620325012133, 7164514.454425046220422 ], [ 645250.436960897874087, 7164545.496211476624012 ], [ 645265.140972214285284, 7164584.706887443549931 ], [ 645278.211205020663328, 7164622.283785443753004 ], [ 645289.6476659423206, 7164692.536249417811632 ], [ 645284.746339557343163, 7164735.014485719613731 ], [ 645270.042343059554696, 7164772.591389058157802 ], [ 645243.901898566400632, 7164806.900738023221493 ], [ 645225.930342206731439, 7164826.506080870516598 ], [ 645212.860120747121982, 7164847.745201063342392 ], [ 645207.958794042351656, 7164888.58965908922255 ], [ 645216.127691321540624, 7164921.265223193913698 ], [ 645230.831702641095035, 7164960.475899183191359 ], [ 645256.972163221100345, 7165009.489242680370808 ], [ 645273.309949271730147, 7165030.728357234969735 ], [ 645307.619296101853251, 7165055.235024908557534 ], [ 645338.661084651597776, 7165069.939023504033685 ], [ 645366.435313971480355, 7165069.939018173143268 ], [ 645400.744656072813086, 7165069.939011584036052 ], [ 645428.518885392113589, 7165069.939006250351667 ], [ 645449.758005719166249, 7165089.544341575354338 ], [ 645470.997131099691615, 7165135.290129449218512 ], [ 645490.602475445484743, 7165166.331913080997765 ], [ 645497.137595175299793, 7165202.275034075602889 ], [ 645492.236269430955872, 7165248.020826978608966 ], [ 645492.236279852339067, 7165301.935510363429785 ], [ 645470.997170253540389, 7165337.878636702895164 ], [ 645444.856723539647646, 7165360.751537708565593 ], [ 645400.74471666815225, 7165383.624442165717483 ], [ 645366.435376761713997, 7165395.060896748676896 ], [ 645351.731375205796212, 7165406.497347564436495 ], [ 645340.294932881835848, 7165432.63780231308192 ], [ 645340.294939821353182, 7165468.580924578011036 ], [ 645343.562507570837624, 7165527.396942207589746 ], [ 645338.661181815317832, 7165573.142735126428306 ], [ 645335.393632362713106, 7165609.085858026519418 ], [ 645346.830085416790098, 7165638.493864964693785 ], [ 645359.083426306955516, 7165661.366758603602648 ], [ 645362.350989010650665, 7165694.042323682457209 ], [ 645350.914545735809952, 7165715.281443586573005 ], [ 645318.2389862179989, 7165738.154345856979489 ], [ 645285.563426698092371, 7165761.027248123660684 ], [ 645262.690536358510144, 7165783.900148507207632 ], [ 645239.817647276213393, 7165813.308162035420537 ], [ 645233.282538587111048, 7165834.547281002625823 ], [ 645233.282543629989959, 7165860.687733571976423 ], [ 645254.521668387809768, 7165903.165964926593006 ], [ 645283.92968318797648, 7165940.742859857156873 ], [ 645293.732359309564345, 7165976.685980265960097 ], [ 645282.295917919953354, 7166007.727769894525409 ], [ 645279.028370984829962, 7166056.741119103506207 ], [ 645279.028378868591972, 7166097.58557625580579 ], [ 645270.85949923156295, 7166156.40159612800926 ], [ 645258.606171890976839, 7166203.781168783083558 ], [ 645258.60617725213524, 7166231.555399653501809 ], [ 645261.873739322996698, 7166260.963408184237778 ], [ 645273.310192067874596, 7166288.737636862322688 ], [ 645294.549314632778987, 7166319.779420234262943 ], [ 645319.055994857102633, 7166357.356316125020385 ], [ 645323.957335444400087, 7166388.398102632723749 ], [ 645333.760010626749136, 7166419.439888201653957 ], [ 645356.632908239844255, 7166434.143888391554356 ], [ 645382.773362252046354, 7166448.847887955605984 ], [ 645405.64625892136246, 7166458.650553284212947 ], [ 645431.786716091795824, 7166489.692335717380047 ], [ 645435.054283220088109, 7166545.240796852856874 ], [ 645438.321845930302516, 7166577.916361971758306 ], [ 645439.955632020370103, 7166618.760818839073181 ], [ 645433.420525539899245, 7166651.436385840177536 ], [ 645423.617860765429214, 7166674.309283750131726 ], [ 645410.547638646909036, 7166692.280847420915961 ], [ 645392.576081931591034, 7166710.252412036061287 ], [ 645381.139638010179624, 7166728.223975393921137 ], [ 645379.505865806248039, 7166759.265763172879815 ], [ 645384.407206713687629, 7166791.94132798537612 ], [ 645400.744998486945406, 7166842.588451771065593 ], [ 645420.350341610377654, 7166867.095122322440147 ], [ 645438.321904010605067, 7166878.531566883437335 ], [ 645481.617026290507056, 7166878.531558567658067 ], [ 645512.658812075038441, 7166878.531552603468299 ], [ 645563.30593372345902, 7166865.461316565051675 ], [ 645595.98149897181429, 7166871.996423434466124 ], [ 645627.023288548574783, 7166891.601756917312741 ], [ 645654.797520781401545, 7166906.305756169371307 ], [ 645687.473085714969784, 7166911.207084746100008 ], [ 645703.810867390362546, 7166909.573303314857185 ], [ 645741.387762179481797, 7166889.967956625856459 ], [ 645764.260657917940989, 7166894.869287087582052 ], [ 645800.203778300900012, 7166894.869280166924 ], [ 645873.723798533552326, 7166901.404379157349467 ], [ 645904.765587803442031, 7166919.375934346579015 ], [ 645935.807380240410566, 7166953.685272412374616 ], [ 645968.4829518313054, 7166992.895945029333234 ], [ 646014.228751557529904, 7167045.176841432228684 ], [ 646042.002984120161273, 7167061.514618959277868 ], [ 646074.678550648037344, 7167074.58483896497637 ], [ 646104.086559826740995, 7167082.753724730573595 ], [ 646136.762125088484026, 7167089.288831576704979 ], [ 646171.071466965484433, 7167087.655046666041017 ], [ 646213.549696031259373, 7167066.415920717641711 ], [ 646247.859035366913304, 7167051.711909497156739 ], [ 646282.16837692388799, 7167048.444346292875707 ], [ 646305.041272036032751, 7167050.078120162710547 ], [ 646332.815504604368471, 7167066.41589767858386 ], [ 646374.47685631935019, 7167105.626568546518683 ], [ 646395.715975457802415, 7167118.696790749207139 ], [ 646421.85642855882179, 7167128.49945542216301 ], [ 646462.700883236480877, 7167126.86566923558712 ], [ 646514.981783722061664, 7167117.062989389523864 ], [ 646573.797793822130188, 7167090.922525392845273 ], [ 646619.543582140700892, 7167084.387403381988406 ], [ 646639.148919899016619, 7167081.119843009859324 ], [ 646683.260928424773738, 7167066.415829867124557 ], [ 646712.668933472479694, 7167053.345597865059972 ], [ 646748.612049084971659, 7167028.838916575536132 ], [ 646791.090277177165262, 7167002.698455730453134 ], [ 646820.498281899723224, 7166987.994445433840156 ], [ 646859.708957092138007, 7166979.825546387583017 ], [ 646890.750742881326005, 7166979.82554036937654 ], [ 646920.158750791102648, 7166981.459312950260937 ], [ 646946.299202939961106, 7166986.360642743296921 ], [ 646974.073434243793599, 7166996.163307080045342 ], [ 646991.228104700567201, 7166992.895747173577547 ], [ 647038.607672166428529, 7166991.261959685012698 ], [ 647071.283236794406548, 7166994.529509916901588 ], [ 647099.057466503931209, 7166996.163282810710371 ], [ 647126.831695896107703, 7166996.163277413696051 ], [ 647159.50725669064559, 7166979.825488181784749 ], [ 647180.746367854182608, 7166952.051253153942525 ], [ 647182.380140942637809, 7166925.910800227895379 ], [ 647175.845022396184504, 7166896.502792314626276 ], [ 647161.141013491200283, 7166870.362342566251755 ], [ 647133.366778995841742, 7166844.221895355731249 ], [ 647108.860101857804693, 7166822.982782375067472 ], [ 647095.789872753666714, 7166805.011223748326302 ], [ 647094.156091362354346, 7166788.67344119027257 ], [ 647105.592537158168852, 7166780.504547527059913 ], [ 647131.73298898129724, 7166783.772099025547504 ], [ 647164.408557752845809, 7166808.278766989707947 ], [ 647198.717906003352255, 7166839.320547791197896 ], [ 647228.125916783348657, 7166855.658324951305985 ], [ 647254.266368609620258, 7166858.925876443274319 ], [ 647270.604150601779111, 7166858.925873264670372 ], [ 647295.110822629882023, 7166854.024533635005355 ], [ 647306.547270983923227, 7166858.925866274163127 ], [ 647324.518830535584129, 7166855.658306201919913 ], [ 647342.490388487931341, 7166844.221854689531028 ], [ 647347.391720206593163, 7166829.517849145457149 ], [ 647345.757938170572743, 7166809.912510011345148 ], [ 647335.955265458440408, 7166791.940950751304626 ], [ 647332.687706182245165, 7166777.236946796998382 ], [ 647331.053925425279886, 7166764.166720814071596 ], [ 647332.687700426089577, 7166747.8289376180619 ], [ 647342.490367702324875, 7166738.026265986263752 ], [ 647362.095706728985533, 7166741.293818743899465 ], [ 647373.532167235389352, 7166808.278726315125823 ], [ 647381.701061749015935, 7166826.250285892747343 ], [ 647396.405069059226662, 7166844.22184419631958 ], [ 647411.109074452426285, 7166852.39073277451098 ], [ 647440.517082357313484, 7166854.02450533490628 ], [ 647466.657532264478505, 7166847.489387093111873 ], [ 647496.06553632800933, 7166829.517820198088884 ], [ 647515.670871834619902, 7166814.813811788335443 ], [ 647532.00864742253907, 7166782.138242850080132 ], [ 647545.07886692986358, 7166751.09645283780992 ], [ 647554.88153132062871, 7166726.589776611886919 ], [ 647571.219304662430659, 7166682.477759663015604 ], [ 647597.359746232395992, 7166633.464405942708254 ], [ 647598.993518344825134, 7166602.422618163749576 ], [ 647598.993511936627328, 7166569.747052418999374 ], [ 647595.725952978013083, 7166556.676826756447554 ], [ 647582.655723545816727, 7166537.071489857509732 ], [ 647572.853053394006565, 7166532.170156909152865 ], [ 647554.881491289357655, 7166522.367490688338876 ], [ 647540.177483020117506, 7166499.494597531855106 ], [ 647533.642362861311994, 7166461.917698203586042 ], [ 647530.374799421522766, 7166425.974576525390148 ], [ 647507.501899523194879, 7166399.834128390997648 ], [ 647482.178333289688453, 7166378.595015594735742 ], [ 647472.375661539030261, 7166365.524791209027171 ], [ 647472.375657058903016, 7166342.651895193383098 ], [ 647474.009426933946088, 7166300.173659422434866 ], [ 647480.544532364001498, 7166262.596757553517818 ], [ 647478.910747444839217, 7166228.287413857877254 ], [ 647474.009405809105374, 7166192.344292506575584 ], [ 647474.009397487388924, 7166149.866057060658932 ], [ 647472.375613847747445, 7166122.091826512478292 ], [ 647472.375608726055361, 7166095.951373932883143 ], [ 647501.78361083951313, 7166068.177137338556349 ], [ 647542.628065455588512, 7166066.543351093307137 ], [ 647593.275189898209646, 7166068.177119508385658 ], [ 647621.049420857802033, 7166076.346005525439978 ], [ 647663.527653992059641, 7166076.345997242256999 ], [ 647709.273441278142855, 7166064.909540314227343 ], [ 647774.624566289712675, 7166050.205522986128926 ], [ 647812.201459697913378, 7166024.065063073299825 ], [ 647846.510797670925967, 7166002.825938655994833 ], [ 647867.749906533514149, 7165963.615255646407604 ], [ 647879.18634749436751, 7165930.939687693491578 ], [ 647885.721455468446948, 7165906.433012127876282 ], [ 647892.256561837159097, 7165873.757445137016475 ], [ 647911.861896349466406, 7165854.152101877145469 ], [ 647938.002344933105633, 7165841.081870483234525 ], [ 647962.509017888223752, 7165841.081865696236491 ], [ 647995.184583111898974, 7165847.616972452029586 ], [ 648019.691259923158213, 7165867.222307091578841 ], [ 648054.000604631844908, 7165880.292526667006314 ], [ 648070.33838820992969, 7165888.461414901539683 ], [ 648093.211286826641299, 7165908.066749858669937 ], [ 648111.182851174264215, 7165929.305864058434963 ], [ 648145.492197816609405, 7165952.178753348067403 ], [ 648187.970433517708443, 7165965.248971324414015 ], [ 648250.870897972607054, 7165984.854298442602158 ], [ 648285.180240116547793, 7165984.854291723109782 ], [ 648322.757139942259528, 7165991.389397507533431 ], [ 648370.136708952486515, 7165997.924501366913319 ], [ 648406.07982703926973, 7165986.488046320155263 ], [ 648438.755385508411564, 7165958.713809052482247 ], [ 648495.937614998780191, 7165921.136897265911102 ], [ 648526.979396553710103, 7165899.897773459553719 ], [ 648549.852284542284906, 7165865.58842496946454 ], [ 648567.823836647905409, 7165824.743964301422238 ], [ 648568.944005909841508, 7165808.501462415792048 ], [ 648569.689389958744869, 7165797.69336205534637 ], [ 648569.999674954451621, 7165793.19421642459929 ], [ 648571.091383690596558, 7165777.364393377676606 ], [ 648585.795379399671219, 7165736.519933354109526 ], [ 648602.133152658585459, 7165692.407916439697146 ], [ 648608.668259316706099, 7165661.366127736866474 ], [ 648603.766918598674238, 7165630.324341278523207 ], [ 648589.06290870194789, 7165599.282556745223701 ], [ 648572.725118675152771, 7165558.438102822750807 ], [ 648564.55621898593381, 7165514.326090730726719 ], [ 648561.288657433819026, 7165488.185638814233243 ], [ 648549.852203289512545, 7165453.876297073438764 ], [ 648549.852195551386103, 7165414.665618238970637 ], [ 648554.75352143344935, 7165370.553603588603437 ], [ 648584.161521221278235, 7165331.342918988317251 ], [ 648618.470858172513545, 7165305.20245970133692 ], [ 648626.639743667212315, 7165277.428227262571454 ], [ 648633.991741676931269, 7165257.8228864017874 ], [ 648655.230851445579901, 7165223.51353826187551 ], [ 648669.934850043384358, 7165197.373082825914025 ], [ 648674.836179465986788, 7165171.23262931406498 ], [ 648668.301060875528492, 7165141.824621483683586 ], [ 648642.160603940603323, 7165112.416617501527071 ], [ 648607.851258288603276, 7165094.445063112303615 ], [ 648568.640576762380078, 7165069.938396546989679 ], [ 648526.16233949305024, 7165048.699287189170718 ], [ 648504.923220053547993, 7165033.995286799967289 ], [ 648478.782766995253041, 7165024.192622223868966 ], [ 648468.980093313613907, 7165001.31972817145288 ], [ 648451.008527365396731, 7164971.911722589284182 ], [ 648447.740965497563593, 7164944.137492405250669 ], [ 648452.642294927034527, 7164917.997038903646171 ], [ 648467.346295782132074, 7164903.293031468987465 ], [ 648500.02185065462254, 7164857.547233120538294 ], [ 648534.33118500886485, 7164818.336547584272921 ], [ 648545.767627858091146, 7164795.463649370707572 ], [ 648550.668955024564639, 7164757.886747892946005 ], [ 648560.471610326669179, 7164687.634279791265726 ], [ 648575.175599564798176, 7164614.11425416637212 ], [ 648592.330268669873476, 7164604.31158110126853 ], [ 648611.935605066246353, 7164594.508907554671168 ], [ 648636.442273786058649, 7164573.26978506706655 ], [ 648651.146274630678818, 7164558.565777631476521 ], [ 648682.188052573706955, 7164519.355092748068273 ], [ 648703.427161673549563, 7164481.77818807400763 ], [ 648703.427154572680593, 7164445.835065854713321 ], [ 648705.060924050980248, 7164401.723051905632019 ], [ 648705.060913075576536, 7164346.174590300768614 ], [ 648698.525794490822591, 7164316.766582500189543 ], [ 648672.385331127792597, 7164254.683012908324599 ], [ 648613.569304224220105, 7164194.233228014782071 ], [ 648556.387056812644005, 7164140.31855593342334 ], [ 648531.880380043527111, 7164120.713221358135343 ], [ 648510.641257083741948, 7164088.037659887224436 ], [ 648491.035913607687689, 7164061.897211224772036 ], [ 648474.698125552968122, 7164030.855427077040076 ], [ 648453.459004854201339, 7164009.616313580423594 ], [ 648442.022557502845302, 7164009.616315819323063 ], [ 648410.980771836126223, 7164009.616321906447411 ], [ 648384.840320747578517, 7164009.616327030584216 ], [ 648368.502538816770539, 7164009.616330232471228 ], [ 648352.164753344957717, 7163991.644772335886955 ], [ 648329.291854457464069, 7163970.40565915685147 ], [ 648309.686511956737377, 7163949.166545338928699 ], [ 648282.729164692573249, 7163913.223428427241743 ], [ 648251.687368087703362, 7163857.674972939305007 ], [ 648214.110457107541151, 7163793.957627326250076 ], [ 648204.307782483636402, 7163766.183398468419909 ], [ 648189.603769421344623, 7163718.803831193596125 ], [ 648179.80109383398667, 7163686.128267493098974 ], [ 648158.561971544986591, 7163656.720262592658401 ], [ 648093.210826815804467, 7163570.130026498809457 ], [ 648068.704151685698889, 7163558.69358332734555 ], [ 648042.563698041834868, 7163545.623362194746733 ], [ 648013.155687694204971, 7163530.919363420456648 ], [ 647972.311232251464389, 7163527.651814844459295 ], [ 647952.705892664147541, 7163521.11670555267483 ], [ 647939.635664558154531, 7163508.046481863595545 ], [ 647939.63566231157165, 7163496.61003389954567 ], [ 647944.53699431696441, 7163483.539806697517633 ], [ 647977.212556868907996, 7163477.004687188193202 ], [ 648026.225902624893934, 7163477.004677604883909 ], [ 648065.436579551897012, 7163478.638448217883706 ], [ 648093.210806241142564, 7163465.568216539919376 ], [ 648127.520142803434283, 7163437.793979061767459 ], [ 648153.660594193497673, 7163439.42775222659111 ], [ 648168.364596633240581, 7163432.89263622649014 ], [ 648184.702375333523378, 7163416.554850223474205 ], [ 648204.307710094493814, 7163398.583285301923752 ], [ 648219.011711245169863, 7163385.513056181371212 ], [ 648215.744152288069017, 7163372.442830579355359 ], [ 648196.138811093755066, 7163357.738829893991351 ], [ 648174.899692673003301, 7163347.93616437073797 ], [ 648150.393014652654529, 7163321.795716684311628 ], [ 648118.5343312373152, 7163277.683709355071187 ], [ 648102.196544499718584, 7163253.177038352936506 ], [ 648089.12631382397376, 7163227.036588428542018 ], [ 648076.056084758951329, 7163209.065029905177653 ], [ 648054.816964092082344, 7163187.825916422531009 ], [ 648033.577844073763117, 7163169.854359497316182 ], [ 648018.873836174258031, 7163148.61524473503232 ], [ 648018.873834247235209, 7163138.812575056217611 ], [ 648031.944057205342688, 7163125.742346263490617 ], [ 648061.352064321981743, 7163124.108562231995165 ], [ 648089.12629710836336, 7163142.080117877572775 ], [ 648125.069424065179192, 7163176.38945471867919 ], [ 648152.843654602533206, 7163182.924562403932214 ], [ 648190.420548497117124, 7163160.051659130491316 ], [ 648210.025885181850754, 7163151.882763891480863 ], [ 648231.265004562912509, 7163166.586764253675938 ], [ 648252.504123301478103, 7163178.023208051919937 ], [ 648275.37701894401107, 7163182.924538411200047 ], [ 648304.78502638626378, 7163182.924532651901245 ], [ 648353.798371477518231, 7163179.656966486945748 ], [ 648419.149497838458046, 7163173.121840559877455 ], [ 648482.866846649907529, 7163169.854271504096687 ], [ 648536.781525024445727, 7163160.051591247320175 ], [ 648564.555753629654646, 7163156.784029236994684 ], [ 648595.597539906622842, 7163160.051579704508185 ], [ 648610.301543627982028, 7163160.051576817408204 ], [ 648641.343329260009341, 7163160.051570722833276 ], [ 648667.483778704889119, 7163151.882674191147089 ], [ 648669.117553346208297, 7163133.911112791858613 ], [ 648659.314880648511462, 7163115.939553640782833 ], [ 648626.639310051454231, 7163081.630216182209551 ], [ 648603.766408603289165, 7163047.320876801386476 ], [ 648595.597510228981264, 7163009.743977976031601 ], [ 648587.428608952672221, 7162957.463074637576938 ], [ 648579.259707999415696, 7162906.815949581563473 ], [ 648574.358367622015066, 7162877.407941518351436 ], [ 648580.893474255921319, 7162846.366152931004763 ], [ 648593.963693327386864, 7162813.690584785304964 ], [ 648600.498801572597586, 7162790.817687595263124 ], [ 648600.498794152634218, 7162753.240787178277969 ], [ 648592.329895136412233, 7162712.396331810392439 ], [ 648575.992098074988462, 7162635.60875591635704 ], [ 648573.541425952222198, 7162611.102082218974829 ], [ 648581.710311739705503, 7162584.961628156714141 ], [ 648583.344087994541042, 7162575.158958166837692 ], [ 648571.907636149437167, 7162552.286064511165023 ], [ 648557.203628893359564, 7162534.314506333321333 ], [ 648537.59828577877488, 7162509.807836005464196 ], [ 648522.894277878687717, 7162488.568721272051334 ], [ 648511.457823780016042, 7162454.259379671886563 ], [ 648503.288928640075028, 7162433.020263655111194 ], [ 648511.457814752240665, 7162408.513587881810963 ], [ 648532.696927024517208, 7162387.274466097354889 ], [ 648578.442706653149799, 7162338.26110877841711 ], [ 648627.45604007341899, 7162276.177524594590068 ], [ 648632.357372059952468, 7162263.107297409325838 ], [ 648632.35736947786063, 7162250.037071186117828 ], [ 648622.554694857914001, 7162222.262842389754951 ], [ 648602.949349489761516, 7162186.319724129512906 ], [ 648584.977776184328832, 7162119.33481827378273 ], [ 648567.006199656287208, 7162036.012129652313888 ], [ 648562.104855413548648, 7161986.998782297596335 ], [ 648544.133285019895993, 7161934.717880954965949 ], [ 648534.330613308819011, 7161921.647656661458313 ], [ 648435.48702355986461, 7161874.268106017261744 ], [ 648410.980345256044529, 7161846.493880113586783 ], [ 648388.107443854212761, 7161812.184540783986449 ], [ 648366.868319675908424, 7161772.973866304382682 ], [ 648360.33320176997222, 7161746.833415159955621 ], [ 648353.798082575318404, 7161714.157850904390216 ], [ 648352.164298912510276, 7161686.383620522916317 ], [ 648352.164294724585488, 7161665.144502928480506 ], [ 648353.798070979188196, 7161655.34183295071125 ], [ 648375.03718355728779, 7161635.736489467322826 ], [ 648402.811411462025717, 7161629.201370917260647 ], [ 648466.528764011804014, 7161645.539141187444329 ], [ 648486.134102589101531, 7161647.172915617004037 ], [ 648502.471882211160846, 7161635.736464475281537 ], [ 648518.809658607002348, 7161607.96223057154566 ], [ 648526.978542452445254, 7161572.019106889143586 ], [ 648535.147426295909099, 7161536.075983207672834 ], [ 648551.485201399424113, 7161501.766636199317873 ], [ 648569.456753398757428, 7161460.922175770625472 ], [ 648589.062090357765555, 7161454.387058816850185 ], [ 648636.441655534901656, 7161442.950601581484079 ], [ 648654.41321333788801, 7161431.514150123111904 ], [ 648654.413210433209315, 7161416.810145637020469 ], [ 648633.17408721963875, 7161382.500806013122201 ], [ 648623.37141132040415, 7161348.191464144736528 ], [ 648616.836289858445525, 7161304.079451981000602 ], [ 648611.934945940040052, 7161256.699882948771119 ], [ 648607.033607830177061, 7161238.728322880342603 ], [ 648616.019380759680644, 7161202.785199053585529 ], [ 648619.28693067911081, 7161170.109632903710008 ], [ 648629.089593669516034, 7161139.067843745462596 ], [ 648635.624702544417232, 7161119.462503157556057 ], [ 648635.624695444596, 7161083.519381100311875 ], [ 648635.624690925935283, 7161060.64648524671793 ], [ 648633.990903704194352, 7161014.900693863630295 ], [ 648627.455785472411662, 7160987.126464472152293 ], [ 648616.019333004485816, 7160960.986014315858483 ], [ 648588.245097059290856, 7160926.676675993949175 ], [ 648563.738422007416375, 7160915.24023288115859 ], [ 648544.133081191917881, 7160902.170010530389845 ], [ 648539.231743085198104, 7160884.198450472205877 ], [ 648539.231737924972549, 7160858.057998074218631 ], [ 648547.400623049703427, 7160828.649987526237965 ], [ 648562.104614467825741, 7160766.566410204395652 ], [ 648580.076166770537384, 7160727.355728086084127 ], [ 648599.681501775514334, 7160711.017941495403647 ], [ 648617.653058269992471, 7160693.046376947313547 ], [ 648620.920610768836923, 7160673.441037012264132 ], [ 648629.089493629988283, 7160632.596578549593687 ], [ 648629.089486530283466, 7160596.653456516563892 ], [ 648625.821924996096641, 7160570.513004774227738 ], [ 648629.906364974100143, 7160542.73877331148833 ], [ 648636.441470937803388, 7160508.429428273811936 ], [ 648644.610354765318334, 7160472.486304641701281 ], [ 648649.511684478493407, 7160447.979629572480917 ], [ 648654.413015484926291, 7160430.00806759763509 ], [ 648664.215680722612888, 7160410.402726385742426 ], [ 648672.384567774948664, 7160390.797385494224727 ], [ 648675.652121562394314, 7160377.727158661931753 ], [ 648672.384562287013978, 7160363.023154843598604 ], [ 648672.384559704340063, 7160349.952928652986884 ], [ 648674.018335629720241, 7160338.516480417922139 ], [ 648682.187223650515079, 7160323.81247434951365 ], [ 648688.722333161509596, 7160307.474690331146121 ], [ 648695.257442995090969, 7160292.770684585906565 ], [ 648698.524997428059578, 7160282.968014301732183 ], [ 648703.426329400041141, 7160269.897787149995565 ], [ 648703.426326170796528, 7160253.560004415921867 ], [ 648703.426323911175132, 7160242.12355650216341 ], [ 648701.792538621928543, 7160206.180434809997678 ], [ 648690.356085518142208, 7160176.772428136318922 ], [ 648682.187190397176892, 7160155.533312188461423 ], [ 648677.28585067903623, 7160129.392860781401396 ], [ 648670.750728901126422, 7160083.64707041811198 ], [ 648667.483166721183807, 7160054.239062146283686 ], [ 648660.78467061300762, 7160026.138077165931463 ], [ 648660.784668289590627, 7160014.374873602762818 ], [ 648654.249552970402874, 7160001.304648702964187 ], [ 648645.100394620909356, 7159998.690605263225734 ], [ 648632.030170953134075, 7160007.839766159653664 ], [ 648622.881012863363139, 7160006.532745337113738 ], [ 648615.038876030012034, 7159998.69061116501689 ], [ 648601.968647456727922, 7159983.006342314183712 ], [ 648588.898418627446517, 7159966.01505084335804 ], [ 648564.064987388206646, 7159951.637806918472052 ], [ 648548.380715272971429, 7159943.795674286782742 ], [ 648535.31048954022117, 7159942.488654233515263 ], [ 648523.547287388471887, 7159946.409724397584796 ], [ 648501.327905630576424, 7159954.251864466816187 ], [ 648497.406838762341067, 7159958.172933090478182 ], [ 648488.257680673501454, 7159956.865912267938256 ], [ 648480.415544099523686, 7159950.330800715833902 ], [ 648477.80149771575816, 7159943.795688137412071 ], [ 648472.573404430411756, 7159928.11141774430871 ], [ 648473.880422077374533, 7159903.27798774279654 ], [ 648472.573395145707764, 7159881.05860349163413 ], [ 648467.345300057088025, 7159856.225174775347114 ], [ 648449.046980526880361, 7159836.619839092716575 ], [ 648416.371408341219649, 7159793.48809911031276 ], [ 648396.76606343255844, 7159759.505514888092875 ], [ 648377.160722391679883, 7159745.128269935026765 ], [ 648364.090494344709441, 7159732.058046320453286 ], [ 648357.555377999902703, 7159713.75973095279187 ], [ 648371.932622151449323, 7159694.15438886731863 ], [ 648382.388799176318571, 7159677.163092784583569 ], [ 648391.537953395512886, 7159658.864774342626333 ], [ 648401.994130418403074, 7159641.873478265479207 ], [ 648415.064354082336649, 7159632.724317376501858 ], [ 648418.98542275337968, 7159637.952407078817487 ], [ 648421.599472746253014, 7159662.785836301743984 ], [ 648425.520542964804918, 7159675.856061708182096 ], [ 648435.976725144544616, 7159685.005217984318733 ], [ 648451.660996483056806, 7159688.926282761618495 ], [ 648467.345268334262073, 7159695.461392772383988 ], [ 648485.643584507517517, 7159698.075434418395162 ], [ 648502.634875037707388, 7159685.00520490668714 ], [ 648511.784029253874905, 7159666.70688646286726 ], [ 648524.85425265901722, 7159656.250702958554029 ], [ 648549.687681049108505, 7159656.250698083080351 ], [ 648566.678971834713593, 7159644.487491188570857 ], [ 648569.293013832299039, 7159628.803219264373183 ], [ 648570.600034313974902, 7159618.347038066014647 ], [ 648583.670257459511049, 7159606.583831941708922 ], [ 648584.977276908815838, 7159590.899560272693634 ], [ 648594.126430863514543, 7159571.294219212606549 ], [ 648609.810697034699842, 7159549.074831636622548 ], [ 648631.376562858233228, 7159517.706284580752254 ], [ 648647.060827220208012, 7159486.337738683447242 ], [ 648660.131048294715583, 7159464.118351620621979 ], [ 648677.122335975989699, 7159436.670873317867517 ], [ 648679.7363782285247, 7159422.293624013662338 ], [ 648675.81530774908606, 7159407.916375994682312 ], [ 648664.052101214765571, 7159389.618061664514244 ], [ 648652.288896490354091, 7159380.468905653804541 ], [ 648626.148444013786502, 7159372.626775084063411 ], [ 648603.929059433168732, 7159366.091666362248361 ], [ 648592.165853160899132, 7159349.100374650210142 ], [ 648590.858826227136888, 7159326.880990413017571 ], [ 648600.007979146554135, 7159302.047558892518282 ], [ 648601.314997819950804, 7159282.442219382151961 ], [ 648600.007970886072144, 7159260.222835147753358 ], [ 648600.007967530167662, 7159243.231541126966476 ], [ 648606.543074322864413, 7159213.170019656419754 ], [ 648606.543067869148217, 7159180.494454231113195 ], [ 648606.543061932199635, 7159150.432934045791626 ], [ 648601.314966326463036, 7159122.985460119321942 ], [ 648576.481532016885467, 7159092.923944811336696 ], [ 648564.718323426670395, 7159064.169449552893639 ], [ 648546.420000300975516, 7159026.265797263011336 ], [ 648533.349769941763952, 7159001.43237011320889 ], [ 648513.090912485611625, 7158960.914672980085015 ], [ 648502.634726960211992, 7158934.774222700856626 ], [ 648488.257472767145373, 7158903.405682728625834 ], [ 648484.336398681742139, 7158870.730118090286851 ], [ 648494.792573113343678, 7158840.668595864437521 ], [ 648494.792569243349135, 7158821.063256619498134 ], [ 648489.564473644364625, 7158793.615782706066966 ], [ 648479.108286575297825, 7158759.633196737617254 ], [ 648476.494238131213933, 7158742.641903241164982 ], [ 648476.494234777987003, 7158725.650609231553972 ], [ 648481.722321606241167, 7158708.659314197488129 ], [ 648506.555741191958077, 7158664.220540381968021 ], [ 648541.845340362517163, 7158615.860696666873991 ], [ 648577.134944949531928, 7158594.948327885009348 ], [ 648591.512191395740956, 7158587.106189366430044 ], [ 648595.433257481316105, 7158579.26405290234834 ], [ 648600.661339658778161, 7158538.746350788511336 ], [ 648611.117509950185195, 7158487.772466721013188 ], [ 648625.494751487625763, 7158455.096898509189487 ], [ 648626.801772481878288, 7158447.254762558266521 ], [ 648616.999100556713529, 7158432.877515714615583 ], [ 648609.156962964567356, 7158421.114313712343574 ], [ 648605.235892232391052, 7158405.430043096654117 ], [ 648609.156957543687895, 7158393.66683878749609 ], [ 648614.385042558191344, 7158367.526385450735688 ], [ 648620.920147277414799, 7158327.008683091960847 ], [ 648640.525477956281975, 7158289.105023397132754 ], [ 648647.060583447804675, 7158252.508388884365559 ], [ 648647.060576216783375, 7158215.911755659617484 ], [ 648644.446522865444422, 7158174.087032487615943 ], [ 648652.288651157403365, 7158138.797420340590179 ], [ 648671.893984929891303, 7158116.578032036311924 ], [ 648703.26252134074457, 7158093.05161880236119 ], [ 648730.709989599883556, 7158066.911161108873785 ], [ 648754.236390224425122, 7158040.770704187452793 ], [ 648769.920657651498914, 7158025.086429726332426 ], [ 648782.990879214019515, 7158005.481087934225798 ], [ 648798.675146897207014, 7157991.103836089372635 ], [ 648813.05239307298325, 7157981.954674958251417 ], [ 648839.192840589443222, 7157964.963375825434923 ], [ 648850.956041932688095, 7157957.121237821877003 ], [ 648861.412220473517664, 7157947.972077462822199 ], [ 648867.9473303478444, 7157933.594827415421605 ], [ 648874.874546417035162, 7157916.342127537354827 ], [ 648887.421959319384769, 7157898.566617511212826 ], [ 648892.650045561487786, 7157878.699872740544379 ], [ 648904.151837739162147, 7157847.331327728927135 ], [ 648913.56239363795612, 7157814.917165037244558 ], [ 648921.927330672857352, 7157778.320530187338591 ], [ 648929.246651328052394, 7157750.088840276002884 ], [ 648935.520357260713354, 7157738.58704003598541 ], [ 648948.067772021982819, 7157730.22209283336997 ], [ 648964.797658507712185, 7157719.765908626839519 ], [ 648991.983723477693275, 7157699.899159537628293 ], [ 649021.261023687548004, 7157675.849937669932842 ], [ 649062.040118133416399, 7157630.888351710513234 ], [ 649085.043711579870433, 7157614.158457718789577 ], [ 649097.591124266153201, 7157595.337329601868987 ], [ 649109.092917672474869, 7157570.242493145167828 ], [ 649115.36662235762924, 7157552.466984359547496 ], [ 649117.457853244501166, 7157526.326531666330993 ], [ 649117.457844539894722, 7157482.410571839660406 ], [ 649115.366602046531625, 7157449.996411427855492 ], [ 649117.457834591157734, 7157432.220903467386961 ], [ 649126.345583738526329, 7157411.308539897203445 ], [ 649136.801760765491053, 7157394.578648380935192 ], [ 649152.486028379178606, 7157379.939992014318705 ], [ 649152.486025268328376, 7157364.255720652639866 ], [ 649152.486021537566558, 7157345.434595014899969 ], [ 649155.622870042570867, 7157317.20290594175458 ], [ 649148.303533022291958, 7157262.830766662023962 ], [ 649148.303528877208009, 7157241.918404845520854 ], [ 649143.075432694982737, 7157211.595481244847178 ], [ 649132.61924779380206, 7157188.591885309666395 ], [ 649123.208682584692724, 7157173.953233895823359 ], [ 649112.752497478504665, 7157149.904019869863987 ], [ 649098.113840857986361, 7157128.991660941392183 ], [ 649086.612036473350599, 7157098.6687385821715 ], [ 649083.475177606218494, 7157074.619523118250072 ], [ 649082.429555013310164, 7157051.61592533160001 ], [ 649069.882134670391679, 7157031.749184085056186 ], [ 649051.061006953939795, 7157016.064916435629129 ], [ 649030.671453637070954, 7157007.699975728988647 ], [ 649024.397745434194803, 7157007.699976963922381 ], [ 649017.07841857674066, 7157004.563124135136604 ], [ 649014.987181679578498, 7157000.380652183666825 ], [ 649019.169651122763753, 7156986.787616183981299 ], [ 649025.443356011528522, 7156970.057725502178073 ], [ 649028.580203276011162, 7156935.552327902056277 ], [ 649032.762667746515945, 7156896.864457737654448 ], [ 649035.899512525182217, 7156849.811643058434129 ], [ 649035.899504240369424, 7156807.986919451504946 ], [ 649036.945117923780344, 7156786.028939353302121 ], [ 649041.127580319996923, 7156736.884888296015561 ], [ 649057.857462018029764, 7156702.379488028585911 ], [ 649059.948693319573067, 7156678.330271546728909 ], [ 649059.948689175304025, 7156657.41790974792093 ], [ 649052.629358798614703, 7156636.505549389868975 ], [ 649048.446882935706526, 7156617.684424595907331 ], [ 649047.401260345242918, 7156594.680826826021075 ], [ 649052.629348853719421, 7156586.315881077200174 ], [ 649066.745188986998983, 7156569.5859888587147 ], [ 649076.15574941970408, 7156560.175424197688699 ], [ 649080.338218859978952, 7156546.582388203591108 ], [ 649080.338215543772094, 7156529.852498767897487 ], [ 649080.338214508723468, 7156524.624408319592476 ], [ 649074.064503407105803, 7156509.985756299458444 ], [ 649066.745174068259075, 7156494.301486396230757 ], [ 649054.197753734653816, 7156474.434745161794126 ], [ 649052.106515803607181, 7156465.024182766675949 ], [ 649052.106513317674398, 7156452.476765690371394 ], [ 649057.33460120356176, 7156440.974965674802661 ], [ 649073.018868382670917, 7156424.245073151774704 ], [ 649100.204933925066143, 7156407.515178360044956 ], [ 649129.482237812131643, 7156402.287082143127918 ], [ 649153.53145132609643, 7156396.013368865475059 ], [ 649166.078866893541999, 7156391.830894033424556 ], [ 649183.854371586581692, 7156382.420327723026276 ], [ 649184.899987753247842, 7156373.009764711372554 ], [ 649184.899984018993564, 7156354.188639097847044 ], [ 649174.443798714317381, 7156329.093807011842728 ], [ 649168.170086992671713, 7156311.318300729617476 ], [ 649170.261315593845211, 7156273.676049096509814 ], [ 649175.489399952115491, 7156244.398741563782096 ], [ 649189.082421105122194, 7156177.479181167669594 ], [ 649193.264887843513861, 7156150.293110022321343 ], [ 649223.457098942482844, 7156101.933267442509532 ], [ 649273.123949003173038, 7156069.25769236125052 ], [ 649320.176753979641944, 7156036.582117791287601 ], [ 649373.764674249803647, 7156016.976768044754863 ], [ 649411.668324550846592, 7155999.985466612502933 ], [ 649433.887705402798019, 7155988.222258722409606 ], [ 649471.79135699942708, 7155977.766070345416665 ], [ 649490.089670488028787, 7155967.309885841794312 ], [ 649513.616073357523419, 7155952.932632468640804 ], [ 649520.151181903318502, 7155932.020269400440156 ], [ 649522.765222567133605, 7155909.800884492695332 ], [ 649529.300330852274783, 7155887.581498814746737 ], [ 649541.063527478487231, 7155856.212953822687268 ], [ 649560.668858825811185, 7155822.230362061411142 ], [ 649573.739079550141469, 7155798.703952481970191 ], [ 649577.660140932770446, 7155767.335409045219421 ], [ 649577.660134175559506, 7155733.352821161970496 ], [ 649564.589901498286054, 7155696.7561906427145 ], [ 649554.133712083334103, 7155651.010401334613562 ], [ 649551.519663104787469, 7155631.405062692239881 ], [ 649552.826682006940246, 7155613.106745885685086 ], [ 649569.81797034596093, 7155589.580335536971688 ], [ 649584.195216985302977, 7155583.045219641178846 ], [ 649603.637178498669527, 7155589.253573197871447 ], [ 649618.341181422001682, 7155585.986013764515519 ], [ 649641.214069367852062, 7155553.310443977825344 ], [ 649659.185617261915468, 7155492.860644690692425 ], [ 649682.058498374419287, 7155425.875731384381652 ], [ 649708.198943312047049, 7155396.467717481777072 ], [ 649740.874498342629522, 7155353.989476185292006 ], [ 649742.508269686019048, 7155319.68013234436512 ], [ 649735.973147232318297, 7155270.666785761713982 ], [ 649737.606920527527109, 7155246.160111501812935 ], [ 649747.409583067288622, 7155213.48454431258142 ], [ 649755.57846775604412, 7155182.442755712196231 ], [ 649770.282464490621351, 7155148.133409291505814 ], [ 649804.591802234412171, 7155128.528063355013728 ], [ 649856.872698912397027, 7155104.021379068493843 ], [ 649892.815814500325359, 7155082.782254539430141 ], [ 649923.857597846072167, 7155072.979578817263246 ], [ 649949.998044715728611, 7155053.374234490096569 ], [ 649967.969601367600262, 7155037.036448307335377 ], [ 649972.870932629681192, 7155020.698664719238877 ], [ 649972.870926115196198, 7154988.023099478334188 ], [ 649949.998016703408211, 7154912.869303967803717 ], [ 649938.561557115521282, 7154850.785732293501496 ], [ 649925.491325542912818, 7154819.743947915732861 ], [ 649914.054867585422471, 7154765.829267552122474 ], [ 649900.984631457366049, 7154711.914587518200278 ], [ 649887.914398586610332, 7154674.337690098211169 ], [ 649866.675276805646718, 7154646.563463866710663 ], [ 649842.168600634904578, 7154628.591907848604023 ], [ 649845.436156329815276, 7154625.32435067743063 ], [ 649865.041493425145745, 7154620.4230120126158 ], [ 649884.646832798607647, 7154626.95812117215246 ], [ 649902.618393999524415, 7154633.49323065765202 ], [ 649918.956175727071241, 7154633.493227418512106 ], [ 649959.800628090044484, 7154623.69054975733161 ], [ 649981.039741727756336, 7154610.620319459587336 ], [ 650005.546412362484261, 7154600.817645032890141 ], [ 650048.024645176250488, 7154602.451414871960878 ], [ 650079.066432411316782, 7154612.25407827924937 ], [ 650108.474438540637493, 7154607.352737663313746 ], [ 650123.17843785462901, 7154586.113617351278663 ], [ 650113.375763928517699, 7154561.606945381499827 ], [ 650075.798861396731809, 7154538.734057184308767 ], [ 650028.419286248157732, 7154497.889610059559345 ], [ 649977.772156063001603, 7154463.580276625230908 ], [ 649948.364140492398292, 7154421.102047676220536 ], [ 649946.730353200575337, 7154375.356256704777479 ], [ 649961.434351211530156, 7154347.58202336076647 ], [ 649987.574797077220865, 7154323.075344271957874 ], [ 650010.447689856402576, 7154314.906448434107006 ], [ 650023.517912625567988, 7154301.836219757795334 ], [ 650020.250349763897248, 7154269.160655200481415 ], [ 650020.250340313883498, 7154221.781085653230548 ], [ 650025.151672221370973, 7154208.710858598351479 ], [ 650046.390783239621669, 7154182.570402224548161 ], [ 650082.333900734782219, 7154171.133947276510298 ], [ 650106.840571678592823, 7154162.965051112696528 ], [ 650113.375680451979861, 7154143.35971069522202 ], [ 650111.741895759361796, 7154110.684145817533135 ], [ 650119.910780094680376, 7154078.008578998968005 ], [ 650115.009441667352803, 7154058.403240852989256 ], [ 650090.502764858072624, 7154037.16412833891809 ], [ 650065.996088701416738, 7154019.192572340369225 ], [ 650016.982735415222123, 7153978.348125570453703 ], [ 649972.870717949583195, 7153944.038790863007307 ], [ 649941.828924554516561, 7153903.194340528920293 ], [ 649909.153355597052723, 7153875.42011659219861 ], [ 649900.984460182837211, 7153852.547222578898072 ], [ 649900.984455949743278, 7153831.308105207979679 ], [ 649935.293785487650894, 7153770.858302814885974 ], [ 649937.359773630392738, 7153757.869649294763803 ], [ 649936.793241812032647, 7153757.869649407453835 ], [ 649896.883231087587774, 7153747.22965444624424 ], [ 649761.193191768601537, 7153696.679667688906193 ], [ 649689.363167286501266, 7153651.449669713154435 ], [ 649628.173145634005778, 7153608.879670342430472 ], [ 649543.033120945910923, 7153576.949678572826087 ], [ 649495.14310693112202, 7153558.329683020710945 ], [ 649465.88309693033807, 7153539.709683787077665 ], [ 649410.013075915980153, 7153494.479682637378573 ], [ 649396.703065123641863, 7153454.569674517959356 ], [ 649330.193043943261728, 7153419.979678334668279 ], [ 649245.053013483528048, 7153358.789678663946688 ], [ 649181.202993420651183, 7153326.869682667776942 ], [ 649080.102966933278367, 7153302.919696152210236 ], [ 649021.307957317098044, 7153248.054043976590037 ], [ 648949.742924155318178, 7153228.429701790213585 ], [ 648899.19291434623301, 7153233.749713173136115 ], [ 648848.642904535867274, 7153239.069724551402032 ], [ 648792.772895687026903, 7153255.029739836230874 ], [ 648720.932879720348865, 7153252.369753248989582 ], [ 648659.742861838429235, 7153228.429758835583925 ], [ 648587.912840094882995, 7153196.499764360487461 ], [ 648513.412826189305633, 7153207.139781851321459 ], [ 648401.832862016512081, 7153203.927170900627971 ], [ 648323.762024505413137, 7153180.166496673598886 ], [ 648227.022047707461752, 7153018.933265229687095 ], [ 648152.345575531478971, 7152900.129832215607166 ], [ 648081.063497772207484, 7152833.939353919588029 ], [ 648016.570194106549025, 7152798.298332256264985 ], [ 647972.44319164683111, 7152747.382577626034617 ], [ 647924.921802486525849, 7152682.889286791905761 ], [ 647843.456573671195656, 7152621.790386812761426 ], [ 647789.146420466015115, 7152577.663402607664466 ], [ 647722.95591781870462, 7152506.381346988491714 ], [ 647672.040149996057153, 7152469.043130551464856 ], [ 647621.124386842362583, 7152455.465603625401855 ], [ 647565.117055300506763, 7152480.923496175557375 ], [ 647529.022480040090159, 7152520.729790179990232 ], [ 647513.062487585004419, 7152576.599808268249035 ], [ 647510.402497452567331, 7152629.809823054820299 ], [ 647513.062517329119146, 7152728.249848939478397 ], [ 647513.062525159446523, 7152768.159859649837017 ], [ 647493.835056521929801, 7152816.967547560110688 ], [ 647468.377182256663218, 7152847.517010482028127 ], [ 647442.919305658666417, 7152866.186128643341362 ], [ 647417.461427396745421, 7152876.369286257773638 ], [ 647398.792317536193877, 7152888.249634661711752 ], [ 647397.095130841014907, 7152915.404708734713495 ], [ 647405.581097580725327, 7152949.348549263551831 ], [ 647439.524946912424639, 7152995.172729598358274 ], [ 647481.954757999279536, 7153049.482868826016784 ], [ 647481.132583011640236, 7153098.059954477474093 ], [ 647470.492591161513701, 7153151.26997085660696 ], [ 647422.602588698733598, 7153191.179990923032165 ], [ 647361.412581809097901, 7153223.11001143231988 ], [ 647300.222569183446467, 7153225.770024064928293 ], [ 647265.632561750360765, 7153225.770030798390508 ], [ 647201.782545425463468, 7153212.460039647296071 ], [ 647137.922531705349684, 7153212.460052071139216 ], [ 647066.092516273260117, 7153212.460066037252545 ], [ 647020.862504994031042, 7153204.480072684586048 ], [ 646940.550530250999145, 7153181.863958729431033 ], [ 646881.913404087885283, 7153133.374175997450948 ], [ 646858.98801040824037, 7153092.813880378380418 ], [ 646848.407055216375738, 7153052.253582362085581 ], [ 646829.008645343012176, 7153018.747251288034022 ], [ 646806.083258213824593, 7153011.693290507420897 ], [ 646788.448350568534806, 7153034.618680925108492 ], [ 646784.921375716803595, 7153073.41549037117511 ], [ 646787.221577928285114, 7153110.213939880952239 ], [ 646778.933696097577922, 7153153.504224075004458 ], [ 646751.286107024759986, 7153193.797887293621898 ], [ 646720.222447153413668, 7153239.070140356197953 ], [ 646659.032439191127196, 7153265.670159377157688 ], [ 646592.522431120509282, 7153297.600180859677494 ], [ 646472.792411083821207, 7153326.870211927220225 ], [ 646377.022398258908652, 7153366.77024120092392 ], [ 646291.882383056683466, 7153382.740261970087886 ], [ 646259.952374118380249, 7153372.10026527941227 ], [ 646249.312364588258788, 7153334.850257311947644 ], [ 646241.332353560021147, 7153286.960245969705284 ], [ 646212.062333820853382, 7153217.790233021602035 ], [ 646209.40232238615863, 7153161.910218509845436 ], [ 646196.102314358460717, 7153135.310213928110898 ], [ 646174.822305649518967, 7153114.020212317816913 ], [ 646124.272293246351182, 7153106.040219940245152 ], [ 646068.402283319272101, 7153116.690233591943979 ], [ 646009.862276946427301, 7153148.610253474675119 ], [ 645951.332270572078414, 7153180.540273354388773 ], [ 645850.232252466492355, 7153199.160297859460115 ], [ 645783.722234569024295, 7153180.54030567407608 ], [ 645722.532217299100012, 7153159.250311737880111 ], [ 645645.372194547206163, 7153127.33031801879406 ], [ 645573.542173971887678, 7153100.720324690453708 ], [ 645525.092370585072786, 7153095.307434762828052 ], [ 645491.148531874176115, 7153103.793401839211583 ], [ 645463.99346090387553, 7153110.582175498828292 ], [ 645443.627159974654205, 7153127.554100509732962 ], [ 645483.082183372229338, 7153249.710382154211402 ], [ 645477.762192006688565, 7153300.260396774858236 ], [ 645459.142197266453877, 7153348.150413241237402 ], [ 645413.912189083639532, 7153356.13042408414185 ], [ 645368.682183473138139, 7153377.420438507571816 ], [ 645310.152175511117093, 7153401.360456196591258 ], [ 645222.352158166700974, 7153409.340475204400718 ], [ 645179.782146442565136, 7153396.04047979414463 ], [ 645150.522136042593047, 7153374.760479683056474 ], [ 645123.912131858989596, 7153382.74048693664372 ], [ 645105.292135553201661, 7153422.64050124771893 ], [ 645102.632141654146835, 7153457.230511070229113 ], [ 645118.59215022274293, 7153483.840515173971653 ], [ 645150.522167877992615, 7153539.710524095222354 ], [ 645185.654054529266432, 7153548.457793349400163 ], [ 645228.083857618039474, 7153562.035322088748217 ], [ 645287.485580240376294, 7153572.218463344499469 ], [ 645336.704150425037369, 7153580.704414445906878 ], [ 645375.739569480763748, 7153594.281943827867508 ], [ 645404.591836424777284, 7153607.859475168399513 ], [ 645416.472188760410063, 7153650.28927565086633 ], [ 645411.380628783022985, 7153733.451690061017871 ], [ 645413.077830974478275, 7153786.064645174890757 ], [ 645411.380648143123835, 7153833.586024612188339 ], [ 645397.803118222625926, 7153865.832677334547043 ], [ 645358.767710960004479, 7153913.354063951410353 ], [ 645318.035114623839036, 7153976.150179897435009 ], [ 645275.605321016861126, 7154011.791222388856113 ], [ 645229.781140415929258, 7154032.157536527141929 ], [ 645171.802268487517722, 7154037.220654187723994 ], [ 645076.022251911228523, 7154058.510678309947252 ], [ 645019.329336835071445, 7154067.798611241392791 ], [ 644935.022236327640712, 7154135.660726176574826 ], [ 644895.112230781000108, 7154151.630738133564591 ], [ 644863.18222593027167, 7154162.270747124217451 ], [ 644828.602220506872982, 7154172.910756619647145 ], [ 644783.372221486992203, 7154228.780780375935137 ], [ 644743.462221562978812, 7154274.010800240561366 ], [ 644692.912217796663754, 7154311.260819979943335 ], [ 644607.772205519489944, 7154343.180844891816378 ], [ 644573.192198038101196, 7154343.180851500481367 ], [ 644527.962183141848072, 7154316.580852949991822 ], [ 644493.19984980172012, 7154271.461765341460705 ], [ 644472.833541319007054, 7154249.398271774873137 ], [ 644432.100932834204286, 7154249.398279552347958 ], [ 644383.04656333476305, 7154210.867846723645926 ], [ 644388.337028175708838, 7154165.017071655020118 ], [ 644395.390984907746315, 7154122.693278872407973 ], [ 644390.100502124289051, 7154075.079014517366886 ], [ 644397.154461903613992, 7154048.626643526367843 ], [ 644402.44492945028469, 7154016.883798942901194 ], [ 644390.100489598116837, 7154009.829836061224341 ], [ 644344.094123935559765, 7154051.89429931435734 ], [ 644287.818013721844181, 7154085.659981890581548 ], [ 644249.192442621919326, 7154079.32538927346468 ], [ 644203.372066001640633, 7154071.810848746448755 ], [ 644176.772056178073399, 7154050.530848070047796 ], [ 644126.222046791110188, 7154058.510859856382012 ], [ 644102.272045694990084, 7154079.790870167315006 ], [ 644080.992054351256229, 7154148.970892906188965 ], [ 644062.372066634241492, 7154234.100919457152486 ], [ 644043.742077382863499, 7154311.260943863540888 ], [ 644033.102093933615834, 7154409.700972512364388 ], [ 643985.212096810108051, 7154478.871000342071056 ], [ 643950.622093394515105, 7154500.15101268235594 ], [ 643916.042088962160051, 7154516.121023584157228 ], [ 643857.51207323174458, 7154500.151030394248664 ], [ 643830.902068996801972, 7154508.141037616878748 ], [ 643830.902071540826, 7154521.441041215322912 ], [ 643838.882083953707479, 7154577.311054822057486 ], [ 643849.522095417138189, 7154625.201065769419074 ], [ 643852.192102102795616, 7154657.131073905155063 ], [ 643841.542105898726732, 7154689.051084576174617 ], [ 643804.302108506439254, 7154744.921106792986393 ], [ 643767.052104498259723, 7154766.211119642481208 ], [ 643689.892092335037887, 7154790.151140788570046 ], [ 643607.422085621627048, 7154848.681172313168645 ], [ 643554.212082197889686, 7154891.251193953678012 ], [ 643516.9620791899506, 7154917.861208236776292 ], [ 643463.752073219744489, 7154947.121226266026497 ], [ 643426.502073248033412, 7154989.691244874149561 ], [ 643397.242070442764089, 7155008.311255470849574 ], [ 643370.632067199563608, 7155021.621264128014445 ], [ 643349.352065618732013, 7155037.5812724865973 ], [ 643317.422068820800632, 7155090.791292980313301 ], [ 643304.122072012978606, 7155122.721304167062044 ], [ 643312.102078308816999, 7155146.661309154704213 ], [ 643328.062088877777569, 7155183.911316243931651 ], [ 643328.062096481909975, 7155223.821327082812786 ], [ 643325.402101478655823, 7155253.081335536204278 ], [ 643301.462104888400063, 7155298.311352356337011 ], [ 643285.492110535036772, 7155346.201368395239115 ], [ 643277.512116400408559, 7155386.111380754038692 ], [ 643258.892116399714723, 7155407.391390063799918 ], [ 643237.61211632587947, 7155431.341400604695082 ], [ 643200.362110239570029, 7155441.981410548090935 ], [ 643168.432105816435069, 7155455.281420207582414 ], [ 643085.962102024117485, 7155529.771456068381667 ], [ 643067.332106060930528, 7155572.34147117100656 ], [ 643048.712109592277557, 7155612.251485550776124 ], [ 643024.762113478034735, 7155660.141503111459315 ], [ 643000.82211786636617, 7155710.691521398723125 ], [ 643000.822127476567402, 7155761.241535164415836 ], [ 643008.802139839157462, 7155817.111548868939281 ], [ 643008.802150967530906, 7155875.641564815305173 ], [ 642979.542154691531323, 7155928.851584846153855 ], [ 642944.952154213679023, 7155966.101601535454392 ], [ 642910.362150194123387, 7155984.721613146364689 ], [ 642870.452145012211986, 7156003.351625762879848 ], [ 642835.872137455269694, 7156003.351632289588451 ], [ 642780.002121709170751, 7155984.721637757495046 ], [ 642710.822105078259483, 7155976.741648634895682 ], [ 642641.652094002813101, 7155998.031667480245233 ], [ 642583.122085245093331, 7156019.311684316024184 ], [ 642548.532078694668598, 7156024.631692282855511 ], [ 642505.962067878106609, 7156016.651698127388954 ], [ 642423.492044815327972, 7155990.041706401854753 ], [ 642383.582036094507203, 7155990.041713912039995 ], [ 642327.712028920068406, 7156016.651731679216027 ], [ 642274.970217291498557, 7156058.605481931008399 ], [ 642239.329192804987542, 7156101.035291537642479 ], [ 642198.612111193011515, 7156094.911432070657611 ], [ 642244.875375334522687, 7156169.249367754906416 ], [ 642258.197392078582197, 7156191.794310670346022 ], [ 642260.246934786671773, 7156204.091553241014481 ], [ 642260.246936336392537, 7156212.289715211838484 ], [ 642259.22216847143136, 7156224.586958361789584 ], [ 642228.479062743252143, 7156224.586964139714837 ], [ 642194.661644310224801, 7156213.314497787505388 ], [ 642172.116696237353608, 7156192.819097095169127 ], [ 642156.745139886741526, 7156174.373235548846424 ], [ 642134.200194526230916, 7156168.224618308246136 ], [ 642123.952492617303506, 7156168.22462023422122 ], [ 642116.266718121478334, 7156178.47232413943857 ], [ 642115.241951609728858, 7156197.942959013395011 ], [ 642111.142874718876556, 7156218.438364708796144 ], [ 642109.093339563696645, 7156246.107161748223007 ], [ 642106.019034217111766, 7156273.77595897950232 ], [ 642104.994269640184939, 7156303.494296318851411 ], [ 642102.944733904441819, 7156328.088782619684935 ], [ 642097.820887594716623, 7156352.683269499801099 ], [ 642095.77134876139462, 7156360.881431858055294 ], [ 642092.697038768790662, 7156363.955743173137307 ], [ 642083.474107047892176, 7156363.955744906328619 ], [ 642056.830081497202627, 7156360.881439168937504 ], [ 642037.359448447241448, 7156363.955753564834595 ], [ 642030.186058076680638, 7156369.079606143757701 ], [ 642031.210829041898251, 7156373.178686939179897 ], [ 642031.210831363219768, 7156385.475929899141192 ], [ 642044.532844816101715, 7156390.599778631702065 ], [ 642057.854859043494798, 7156399.82270834967494 ], [ 642067.077793473843485, 7156414.169490071944892 ], [ 642083.47411924332846, 7156428.516270443797112 ], [ 642104.994298484525643, 7156456.185063064098358 ], [ 642120.365855420008302, 7156477.705235358327627 ], [ 642134.712641777121462, 7156497.175867352634668 ], [ 642144.960345433210023, 7156506.398797646164894 ], [ 642157.257589859189466, 7156517.671268051490188 ], [ 642165.455752358655445, 7156522.795117745175958 ], [ 642172.629143890808336, 7156523.819886644370854 ], [ 642191.075010822620243, 7156542.265747619792819 ], [ 642207.471336596179754, 7156556.612527996301651 ], [ 642213.619959488278255, 7156565.835459061898291 ], [ 642221.818121214397252, 7156566.860227767378092 ], [ 642233.090593125438318, 7156565.835455399006605 ], [ 642244.363067749654874, 7156579.157466491684318 ], [ 642263.321320362505503, 7156600.677638111636043 ], [ 642284.841497095650993, 7156615.024417523294687 ], [ 642314.559834394021891, 7156624.247344156727195 ], [ 642346.327710717567243, 7156626.296878673136234 ], [ 642375.02127821254544, 7156637.569345992058516 ], [ 642393.467143793590367, 7156648.841815236024559 ], [ 642409.863466858980246, 7156648.841812151484191 ], [ 642418.061628197669052, 7156647.817040362395346 ], [ 642426.259788370225579, 7156640.643647089600563 ], [ 642433.433178352774121, 7156633.470254011452198 ], [ 642448.804729867144488, 7156626.296859387308359 ], [ 642455.978120626881719, 7156623.222547296434641 ], [ 642460.07720158516895, 7156624.247316773049533 ], [ 642465.201053708326072, 7156630.395937290042639 ], [ 642466.225826808949932, 7156645.767490801401436 ], [ 642466.225829527364112, 7156660.114274257794023 ], [ 642470.324913592776284, 7156677.53536768630147 ], [ 642487.746009567286819, 7156691.882147861644626 ], [ 642530.786363439285196, 7156722.625247171148658 ], [ 642557.430393469985574, 7156749.26926857419312 ], [ 642568.70287004520651, 7156772.838982135057449 ], [ 642586.123967966414057, 7156797.433464784175158 ], [ 642609.693685484933667, 7156813.829784298315644 ], [ 642634.288171446649358, 7156821.003171391785145 ], [ 642658.882655661320314, 7156818.953626262024045 ], [ 642676.303746588411741, 7156806.656380010768771 ], [ 642693.724838487687521, 7156799.482984994538128 ], [ 642709.096391752595082, 7156801.532522588968277 ], [ 642728.567027534125373, 7156812.804991635493934 ], [ 642742.913813523598947, 7156830.226083132438362 ], [ 642758.285369901568629, 7156848.671944682486355 ], [ 642768.53307415288873, 7156860.969185717403889 ], [ 642777.756007435498759, 7156869.167345955036581 ], [ 642799.276184965856373, 7156887.613206347450614 ], [ 642813.622969596879557, 7156897.860906110145152 ], [ 642816.697282117325813, 7156908.10860800370574 ], [ 642816.697283673100173, 7156916.306769981980324 ], [ 642810.548664274509065, 7156925.529703369364142 ], [ 642806.961969379684888, 7156929.628785035572946 ], [ 642815.160134222824126, 7156947.049877693876624 ], [ 642828.482151388423517, 7156971.64436111971736 ], [ 642843.853708743466996, 7156995.214073907583952 ], [ 642855.126182995620184, 7157006.486544501967728 ], [ 642869.472967241075821, 7157014.684703771956265 ], [ 642886.89406245178543, 7157024.932402957230806 ], [ 642900.216077478369698, 7157038.25441365968436 ], [ 642919.686717553529888, 7157072.071828152984381 ], [ 642939.157355681527406, 7157095.641540169715881 ], [ 642965.801387687330134, 7157132.533264048397541 ], [ 642976.049093115958385, 7157150.979126572608948 ], [ 642989.371109899366274, 7157173.52406950481236 ], [ 642995.519734753295779, 7157192.99470304697752 ], [ 642998.594048836966977, 7157211.440566927194595 ], [ 643008.84175485081505, 7157232.96074019279331 ], [ 643024.213311243336648, 7157251.406601748429239 ], [ 643037.53532666573301, 7157266.778152947314084 ], [ 643047.783031319268048, 7157281.124934481456876 ], [ 643057.005963244242594, 7157282.149702984839678 ], [ 643078.526137284818105, 7157282.149698914960027 ], [ 643091.848149785771966, 7157282.149696396663785 ], [ 643097.996771134552546, 7157283.174465482123196 ], [ 643105.170163262053393, 7157287.273545116186142 ], [ 643107.219705010997131, 7157294.446936463937163 ], [ 643107.219706376083195, 7157301.620328199118376 ], [ 643107.219708325341344, 7157311.868030678480864 ], [ 643111.318790849298239, 7157321.090962134301662 ], [ 643135.400894271908328, 7157341.586362538859248 ], [ 643142.574287958210334, 7157353.883604156784713 ], [ 643141.549519521184266, 7157363.106536582112312 ], [ 643135.400901486165822, 7157379.502861713990569 ], [ 643136.425672653247602, 7157384.626712758094072 ], [ 643139.4999840115197, 7157388.725793169811368 ], [ 643150.772456713602878, 7157391.800101781263947 ], [ 643162.04492883128114, 7157391.800099648535252 ], [ 643171.267860174644738, 7157389.750557405874133 ], [ 643187.664183059590869, 7157388.725784056819975 ], [ 643211.233898268896155, 7157392.824860587716103 ], [ 643230.704535438911989, 7157411.27072136849165 ], [ 643262.472415311960503, 7157431.766120314598083 ], [ 643295.265065378975123, 7157452.261519068852067 ], [ 643320.884320779936388, 7157455.335824959911406 ], [ 643333.181563483318314, 7157457.385363128036261 ], [ 643350.602658320101909, 7157465.583521813154221 ], [ 643358.80082161759492, 7157474.806452492251992 ], [ 643364.949446289334446, 7157493.252315792255104 ], [ 643364.949450390413404, 7157514.772491006180644 ], [ 643369.048534090397879, 7157530.144043952226639 ], [ 643373.147617009934038, 7157541.416515905410051 ], [ 643375.19716051989235, 7157557.812839487567544 ], [ 643383.395324406214058, 7157570.110080915503204 ], [ 643389.543946539866738, 7157575.233930988237262 ], [ 643401.328804538934492, 7157579.3330097515136 ], [ 643416.700358407339081, 7157584.456858078017831 ], [ 643433.0966824691277, 7157589.580706212669611 ], [ 643454.616858276189305, 7157598.803634367883205 ], [ 643476.137032326427288, 7157598.803630288690329 ], [ 643496.63243715907447, 7157603.927477642893791 ], [ 643516.103071215329692, 7157605.977014446631074 ], [ 643534.548936249455437, 7157614.175172933377326 ], [ 643554.019572651945055, 7157628.521952717565 ], [ 643576.564520610263571, 7157647.992583159357309 ], [ 643618.580103215761483, 7157672.587061146274209 ], [ 643641.125052546616644, 7157699.231083327904344 ], [ 643655.471837791614234, 7157712.553093832917511 ], [ 643661.620463646715507, 7157737.147578628733754 ], [ 643678.016788888024166, 7157748.420048250816762 ], [ 643705.685586449108087, 7157760.717285977676511 ], [ 643726.180992072215304, 7157769.94021432287991 ], [ 643747.701166322338395, 7157770.96498048119247 ], [ 643780.493816612986848, 7157792.485149472020566 ], [ 643799.9644538074499, 7157810.931010250002146 ], [ 643807.137846138561144, 7157816.05486012622714 ], [ 643822.509398448048159, 7157812.980546461418271 ], [ 643837.880950168822892, 7157806.831922046840191 ], [ 643847.103880534647033, 7157799.658528553321958 ], [ 643860.425890498794615, 7157786.336512789130211 ], [ 643876.822210648562759, 7157770.964955942705274 ], [ 643892.193763739662245, 7157771.989723270758986 ], [ 643904.491007820237428, 7157781.212653169408441 ], [ 643919.862563657923602, 7157796.584203973412514 ], [ 643933.184579696971923, 7157815.030065914615989 ], [ 643957.779069823562168, 7157843.723628198727965 ], [ 643961.878153341123834, 7157858.070410897955298 ], [ 643961.87815608701203, 7157872.417194381356239 ], [ 643954.704767087241635, 7157884.714438728988171 ], [ 643939.333217326086015, 7157901.110765632241964 ], [ 643923.961665996583179, 7157909.308930546976626 ], [ 643913.713967984193005, 7157929.804337469860911 ], [ 643903.46627016691491, 7157951.324514642357826 ], [ 643897.3176523395814, 7157968.745610042475164 ], [ 643887.069954913691618, 7157992.315327714197338 ], [ 643874.772717101383023, 7158015.88504577614367 ], [ 643871.698411420802586, 7158041.504302583634853 ], [ 643874.772726703900844, 7158066.098787974566221 ], [ 643874.996899973251857, 7158091.141610889695585 ], [ 643858.984877028153278, 7158150.386143956333399 ], [ 643863.788494046661071, 7158185.61262035369873 ], [ 643866.990903657162562, 7158200.023451374843717 ], [ 643878.199331019539386, 7158217.636687902733684 ], [ 643884.604146260418929, 7158225.642704255878925 ], [ 643897.413774907123297, 7158232.047515876591206 ], [ 643911.824608512339182, 7158246.458344766870141 ], [ 643919.830629938631319, 7158268.875192443840206 ], [ 643919.830633001052774, 7158284.887227589264512 ], [ 643913.425823579658754, 7158307.304078010842204 ], [ 643889.407776144100353, 7158328.119728267192841 ], [ 643889.407781655085273, 7158356.94139152765274 ], [ 643891.008989677298814, 7158380.959443943575025 ], [ 643921.431861240649596, 7158414.584711967967451 ], [ 643947.051121296943165, 7158441.805166845209897 ], [ 643966.265567030292004, 7158465.823215913027525 ], [ 643991.884831075323746, 7158513.859316485002637 ], [ 643991.884835671866313, 7158537.877369210124016 ], [ 643979.075216212077066, 7158579.508663039654493 ], [ 643945.449945747619495, 7158587.514687011949718 ], [ 643895.812640079064295, 7158590.717103481292725 ], [ 643849.377740655327216, 7158590.717112310230732 ], [ 643818.954876740346663, 7158597.121932152658701 ], [ 643779.725397334666923, 7158621.139992333948612 ], [ 643757.308551171212457, 7158630.747217684984207 ], [ 643744.498925884021446, 7158641.95564472489059 ], [ 643733.290504332864657, 7158654.765274975448847 ], [ 643722.082084920490161, 7158678.783329834230244 ], [ 643720.480898314737715, 7158766.849523484706879 ], [ 643730.088121946551837, 7158782.861556814983487 ], [ 643738.094143373891711, 7158805.278404511511326 ], [ 643747.701366700232029, 7158819.6892343275249 ], [ 643765.314606559230015, 7158830.897655591368675 ], [ 643800.541086279088631, 7158853.314498116262257 ], [ 643840.57118088263087, 7158899.749392465688288 ], [ 643861.386832195799798, 7158934.975865858606994 ], [ 643880.601280082017183, 7158970.202339554205537 ], [ 643891.809709292952903, 7158997.422797195613384 ], [ 643896.613322643795982, 7159013.434831440448761 ], [ 643899.815735932672396, 7159047.060104670003057 ], [ 643920.631385108805262, 7159071.0781534537673 ], [ 643946.250642124097794, 7159082.286573195829988 ], [ 643959.060269560199231, 7159082.28657075855881 ], [ 643970.268692952697165, 7159079.084161594510078 ], [ 643981.477116040419787, 7159074.2805489115417 ], [ 643987.881926386500709, 7159056.667309015057981 ], [ 643997.489142979611643, 7159035.851661480031908 ], [ 644016.703579841181636, 7159013.434808596968651 ], [ 644031.11440917220898, 7159005.428788275457919 ], [ 644055.933062020456418, 7159003.827580034732819 ], [ 644099.165559518150985, 7159029.446828060783446 ], [ 644163.213705895701423, 7159077.482921347022057 ], [ 644211.249817680101842, 7159123.91781416349113 ], [ 644240.071487698936835, 7159167.150303612463176 ], [ 644267.291950302198529, 7159189.56714765354991 ], [ 644320.131668703863397, 7159216.787597355432808 ], [ 644361.762963405693881, 7159245.609252713620663 ], [ 644387.382223815191537, 7159274.430911125615239 ], [ 644422.608703574398533, 7159296.847753637470305 ], [ 644453.031570587772876, 7159306.454968931153417 ], [ 644470.644811392645352, 7159322.467000734061003 ], [ 644486.656853070948273, 7159360.89588207937777 ], [ 644502.668895060080104, 7159400.925966944545507 ], [ 644510.674926050240174, 7159472.980123676359653 ], [ 644529.889374595251866, 7159511.409004418179393 ], [ 644550.705023804912344, 7159535.427053200080991 ], [ 644569.919466506806202, 7159543.433067116886377 ], [ 644593.937518579885364, 7159546.635469562374055 ], [ 644622.75918032869231, 7159546.635464054532349 ], [ 644645.176028046989813, 7159545.034256253391504 ], [ 644667.592876073904335, 7159545.034251969307661 ], [ 644678.000701142242178, 7159559.445081633515656 ], [ 644694.012740374775603, 7159585.064334848895669 ], [ 644694.012744685518555, 7159607.481184090487659 ], [ 644692.411547105293721, 7159637.904051227495074 ], [ 644679.601928280899301, 7159682.737752163782716 ], [ 644657.185088254627772, 7159724.369047904387116 ], [ 644657.185093795531429, 7159753.190711222589016 ], [ 644673.197132723173127, 7159777.208760926499963 ], [ 644713.22722681122832, 7159820.441248251125216 ], [ 644758.060928733204491, 7159850.864106517285109 ], [ 644804.495836247224361, 7159892.49538909830153 ], [ 644841.323525335872546, 7159945.335098145529628 ], [ 644847.728348927339539, 7159996.573609498329461 ], [ 644858.936780035612173, 7160033.40128827188164 ], [ 644879.75243081105873, 7160065.425354653969407 ], [ 644937.395760516519658, 7160097.449413983151317 ], [ 645031.866766994819045, 7160118.265041626989841 ], [ 645095.91491043777205, 7160150.289099718444049 ], [ 645147.954029072774574, 7160187.116770666092634 ], [ 645171.972083948203363, 7160204.730004765093327 ], [ 645187.984124447335489, 7160236.754072065465152 ], [ 645203.996163400937803, 7160260.772121774032712 ], [ 645229.615421402151696, 7160276.784152046777308 ], [ 645253.633474119706079, 7160283.188961513340473 ], [ 645271.246712489286438, 7160286.391365169547498 ], [ 645290.461153674521483, 7160286.391361481510103 ], [ 645317.6816132562235, 7160292.796170330606401 ], [ 645343.30087404511869, 7160323.219032268971205 ], [ 645376.926155709894374, 7160372.856334896758199 ], [ 645400.944216166622937, 7160419.291232336312532 ], [ 645426.563477272749878, 7160451.315297795459628 ], [ 645444.176719052367844, 7160472.13094016071409 ], [ 645501.820051290211268, 7160516.964627621695399 ], [ 645529.040519861970097, 7160569.804338525980711 ], [ 645564.267000956111588, 7160598.625995100475848 ], [ 645594.689869275200181, 7160614.638024445623159 ], [ 645615.505517620476894, 7160633.852462674491107 ], [ 645615.505520096747205, 7160646.662090832367539 ], [ 645612.30311664135661, 7160664.275330163538456 ], [ 645597.892291012685746, 7160691.495792768895626 ], [ 645591.487481928663328, 7160715.513846796005964 ], [ 645583.481470339931548, 7160744.335511691868305 ], [ 645561.865236383746378, 7160808.383656645193696 ], [ 645571.472462558420375, 7160837.205318156629801 ], [ 645573.073670638841577, 7160861.223370647989213 ], [ 645560.264046889264137, 7160880.437815354205668 ], [ 645531.442395308869891, 7160933.2775370599702 ], [ 645512.227965254918672, 7160990.92086748406291 ], [ 645507.424364553764462, 7161040.558177540078759 ], [ 645513.829188816598617, 7161094.999096005223691 ], [ 645531.442436187062413, 7161144.636401757597923 ], [ 645550.656882658251561, 7161171.856857914477587 ], [ 645552.258089499548078, 7161189.47009633295238 ], [ 645536.246063521015458, 7161232.702594473958015 ], [ 645509.025620933272876, 7161314.363979276269674 ], [ 645504.222029516939074, 7161412.037394987419248 ], [ 645500.219032077468, 7161469.680722523480654 ], [ 645503.421446067513898, 7161506.508402900770307 ], [ 645516.231080047320575, 7161540.133674388751388 ], [ 645541.85033840907272, 7161557.746908199042082 ], [ 645564.267188043799251, 7161565.752921497449279 ], [ 645596.291257358621806, 7161568.955322380177677 ], [ 645633.1189428656362, 7161602.580589247867465 ], [ 645671.547833360382356, 7161644.211873416788876 ], [ 645705.173111075651832, 7161673.033530336804688 ], [ 645738.798386620241217, 7161690.646762603893876 ], [ 645774.024862811202183, 7161693.849162864498794 ], [ 645798.042917439131998, 7161709.861193456687033 ], [ 645809.251348310033791, 7161745.087668780237436 ], [ 645820.459788181586191, 7161826.749046243727207 ], [ 645830.067017170949839, 7161869.981539493426681 ], [ 645830.067027099779807, 7161921.220052203163505 ], [ 645830.067035789135844, 7161966.053750831633806 ], [ 645825.263443168718368, 7162057.322352541610599 ], [ 645825.263449063291773, 7162087.74521947093308 ], [ 645813.25443136121612, 7162129.376513376832008 ], [ 645789.236385095748119, 7162156.596977889537811 ], [ 645760.414727898547426, 7162180.615036283619702 ], [ 645731.593071630923077, 7162209.436705244705081 ], [ 645717.182248458033428, 7162249.466796096414328 ], [ 645701.170217505190521, 7162267.08003792911768 ], [ 645667.54494503326714, 7162265.478840880095959 ], [ 645649.931704136659391, 7162249.466809038072824 ], [ 645622.711241692537442, 7162228.651168474927545 ], [ 645595.490781727363355, 7162220.645156097598374 ], [ 645577.877543931361288, 7162220.645159484818578 ], [ 645563.466717960312963, 7162246.264418624341488 ], [ 645555.460705735022202, 7162271.883676531724632 ], [ 645545.85349285940174, 7162311.913766458630562 ], [ 645545.853499672375619, 7162347.140243969857693 ], [ 645539.448691191500984, 7162374.360705096274614 ], [ 645517.031846795231104, 7162393.575151685625315 ], [ 645497.817407724214718, 7162404.783580042421818 ], [ 645468.995748653076589, 7162419.194417292252183 ], [ 645438.572887998539954, 7162443.212475989945233 ], [ 645406.548825764097273, 7162476.837756135500968 ], [ 645350.506707954336889, 7162489.647395087406039 ], [ 645300.869401724776253, 7162491.248608141206205 ], [ 645259.238112987950444, 7162494.451023178175092 ], [ 645227.214041472179815, 7162480.040197612717748 ], [ 645174.374324045726098, 7162459.224561941809952 ], [ 645116.730997237609699, 7162443.212537759914994 ], [ 645049.48045073915273, 7162432.004125986248255 ], [ 645006.247958877007477, 7162436.807744841091335 ], [ 644999.843146982602775, 7162446.414967207238078 ], [ 644999.843149141175672, 7162457.623391872271895 ], [ 645006.247965356102213, 7162470.433018831536174 ], [ 645022.260002191411331, 7162483.24264395236969 ], [ 645046.278055594302714, 7162492.849860491231084 ], [ 645078.302124636713415, 7162494.451057879254222 ], [ 645105.522583370096982, 7162496.052256184630096 ], [ 645139.147856159019284, 7162499.254656784236431 ], [ 645171.171925820759498, 7162504.058261215686798 ], [ 645201.594795444281772, 7162526.47510471008718 ], [ 645246.428498782683164, 7162563.302777152508497 ], [ 645280.854377002920955, 7162585.719619877636433 ], [ 645295.265214736806229, 7162620.946094635874033 ], [ 645327.289292752277106, 7162668.98219420388341 ], [ 645376.926610437571071, 7162726.625511536374688 ], [ 645392.93865347316023, 7162771.459207136183977 ], [ 645399.343472171924077, 7162797.078462293371558 ], [ 645399.343474645866081, 7162809.888090487569571 ], [ 645394.539867118466645, 7162824.298923127353191 ], [ 645370.521820814814419, 7162851.51938765309751 ], [ 645349.706180148059502, 7162872.335037466138601 ], [ 645316.080913834739476, 7162902.757910884916782 ], [ 645263.241209973813966, 7162952.39523028768599 ], [ 645234.419552422128618, 7162974.812085162848234 ], [ 645224.011734402738512, 7162997.228936503641307 ], [ 645199.993692720774561, 7163048.467453902587295 ], [ 645182.380464171408676, 7163096.503563023172319 ], [ 645179.178061620215885, 7163118.920412985607982 ], [ 645179.17806903203018, 7163157.349297584965825 ], [ 645164.767247046576813, 7163203.784202571958303 ], [ 645159.963644760311581, 7163245.415495147928596 ], [ 645159.96365155512467, 7163280.641972701996565 ], [ 645140.749220485566184, 7163333.481692721135914 ], [ 645135.945616654469632, 7163367.106967676430941 ], [ 645135.945618815021589, 7163378.315392352640629 ], [ 645145.552842534845695, 7163394.327425768598914 ], [ 645166.368489400018007, 7163405.535846453160048 ], [ 645183.98172815144062, 7163410.339453654363751 ], [ 645209.600985333323479, 7163421.547873416915536 ], [ 645236.821445335168391, 7163429.553885823115706 ], [ 645268.845516274217516, 7163440.762304358184338 ], [ 645288.059960321174003, 7163455.173132399097085 ], [ 645291.262371526216157, 7163477.58998114708811 ], [ 645286.458769864053465, 7163522.423680786974728 ], [ 645292.863591658184305, 7163564.054971229285002 ], [ 645299.268412214820273, 7163599.281447568908334 ], [ 645324.087070776149631, 7163626.501902746036649 ], [ 645340.099111971445382, 7163661.728377247229218 ], [ 645354.509950963896699, 7163703.359666157513857 ], [ 645362.515974346199073, 7163735.38373514264822 ], [ 645368.920797382248566, 7163783.419839702546597 ], [ 645373.72441728762351, 7163833.057148097082973 ], [ 645381.730441290652379, 7163868.283624143339694 ], [ 645389.736463746754453, 7163895.504082556813955 ], [ 645404.14730027213227, 7163924.325743267312646 ], [ 645426.564153380226344, 7163949.944995386525989 ], [ 645437.772583647631109, 7163981.969063770025969 ], [ 645436.171383300796151, 7163997.981099346652627 ], [ 645428.165369814028963, 7164017.195543205365539 ], [ 645413.754542257403955, 7164034.808784766122699 ], [ 645394.540108709945343, 7164074.838876632973552 ], [ 645383.331690506660379, 7164105.261745797470212 ], [ 645368.120264009339735, 7164137.285819259472191 ], [ 645364.917865479830652, 7164180.518315106630325 ], [ 645366.51908376486972, 7164257.376084106974304 ], [ 645369.721502397675067, 7164318.221817534416914 ], [ 645369.721513840835541, 7164377.466348054818809 ], [ 645369.721520334482193, 7164411.091622134670615 ], [ 645364.917917743790895, 7164451.121711250394583 ], [ 645350.507090486236848, 7164470.336156349629164 ], [ 645339.298667946597561, 7164478.342176143079996 ], [ 645323.286633535870351, 7164478.34217921551317 ], [ 645294.464970053406432, 7164470.336167109198868 ], [ 645275.250526908552274, 7164460.728949628770351 ], [ 645264.042100040358491, 7164446.318120030686259 ], [ 645248.030061923665926, 7164427.103680770844221 ] ] ] ] } }
]
}
