{
"type": "FeatureCollection",
"name": "rio_irai",
"crs": { "type": "name", "properties": { "name": "urn:ogc:def:crs:EPSG::31982" } },
"features": [
{ "type": "Feature", "properties": { "AREA": 111779270.82412, "PERIMETER": 63572.7369, "BACIAS1_": 12, "BACIAS1_ID": 0, "NOME_BACIA": "RIO IRAI", "SUB_AREA": 111.78, "SUBCODIGO": 11, "BACCODIGO": 2, "SUBNOME": "RIO IRAI", "SUBBAC_DAT": "2002-01-03", "SUBBAC_POP": 37678, "SUBBAC_P_1": 26533, "SUBBAC_DEN": 237.37, "SUBBAC_D_1": 337.1 }, "geometry": { "type": "MultiPolygon", "coordinates": [ [ [ [ 687340.120388639508747, 7198426.650675961747766 ], [ 687430.372463732375763, 7198496.844726615585387 ], [ 687503.68250353995245, 7198575.794734593480825 ], [ 687554.432531538535841, 7198632.184740689583123 ], [ 687571.352546717273071, 7198674.484750491566956 ], [ 687591.092565478174947, 7198728.054763325490057 ], [ 687650.302595122717321, 7198781.624766405671835 ], [ 687732.442758069839329, 7198841.658013559877872 ], [ 687827.342361303162761, 7198849.189704886637628 ], [ 687922.241967166424729, 7198867.2657969314605 ], [ 687982.495685694855638, 7198880.822868665680289 ], [ 688062.33186165173538, 7198894.379935540258884 ], [ 688127.104607693618163, 7198903.417977258563042 ], [ 688163.256840168382041, 7198916.975054949522018 ], [ 688214.4724972974509, 7198913.962356323376298 ], [ 688280.751570809516124, 7198861.240336222574115 ], [ 688341.005284079699777, 7198853.708606462925673 ], [ 688398.246312719536945, 7198850.695906329900026 ], [ 688456.99368235678412, 7198840.151491011492908 ], [ 688559.42498568422161, 7198790.442147833295166 ], [ 688631.72943331184797, 7198748.264526940882206 ], [ 688716.112877696054056, 7198736.514487186446786 ], [ 688803.512896141735837, 7198713.954457988031209 ], [ 688885.619253623648547, 7198713.787683989852667 ], [ 688978.332938676932827, 7198691.394407012499869 ], [ 689071.382958670379594, 7198668.844376377761364 ], [ 689116.492964739678428, 7198643.464356746524572 ], [ 689170.062970309052616, 7198606.814331278204918 ], [ 689222.721697127679363, 7198555.269161665812135 ], [ 689235.764345679199323, 7198527.177283267490566 ], [ 689236.767617820529267, 7198491.059157830663025 ], [ 689280.032948252977803, 7198398.164234915748239 ], [ 689342.062955414527096, 7198358.684206401929259 ], [ 689435.102974645327777, 7198333.314174804836512 ], [ 689494.322994479094632, 7198347.404164670966566 ], [ 689553.53300935192965, 7198341.764148021116853 ], [ 689666.313034714316018, 7198319.214112395420671 ], [ 689750.903050892520696, 7198291.014081936329603 ], [ 689787.553056009113789, 7198271.274066254496574 ], [ 689852.413063204847276, 7198228.984036070294678 ], [ 689874.692971236421727, 7198208.295363361947238 ], [ 689896.589328180532902, 7198176.667273500002921 ], [ 690041.323085322394036, 7198110.56394970882684 ], [ 690161.416667913785204, 7198037.612014230340719 ], [ 690227.314291732618585, 7197983.290969204157591 ], [ 690281.635305345756933, 7197936.09399639070034 ], [ 690309.241064321249723, 7197904.035677563399076 ], [ 690343.080355736194178, 7197761.554282854311168 ], [ 690374.033070027013309, 7197687.623726897872984 ], [ 690441.703074349439703, 7197631.223691345192492 ], [ 690523.473086091224104, 7197588.933656895533204 ], [ 690582.68308950192295, 7197538.183625320903957 ], [ 690622.163072532392107, 7197428.213579216040671 ], [ 690647.533065943745896, 7197374.643555218353868 ], [ 690678.553065886953846, 7197340.813536297529936 ], [ 690749.043067363090813, 7197270.323495401069522 ], [ 690788.513066755258478, 7197225.203470645472407 ], [ 690813.893070848658681, 7197213.923460556194186 ], [ 690853.363078083842993, 7197199.833445997908711 ], [ 690906.94309203280136, 7197197.013431590981781 ], [ 690968.973112574080005, 7197211.103420613333583 ], [ 691014.246210028417408, 7197229.003369547426701 ], [ 691035.846599253360182, 7197232.243422549217939 ], [ 691062.847080381470732, 7197214.963104074820876 ], [ 691092.515013064723462, 7197154.731946492567658 ], [ 691135.208347871666774, 7197082.120689868927002 ], [ 691174.089033305761404, 7197028.119706101715565 ], [ 691231.193113565212116, 7196931.963262867182493 ], [ 691296.043123423587531, 7196900.953236340545118 ], [ 691386.273146648192778, 7196895.313211733475327 ], [ 691462.403163155307993, 7196878.393186973407865 ], [ 691552.623176351422444, 7196833.283149395138025 ], [ 691645.673186008352786, 7196771.253105541691184 ], [ 691718.983189544873312, 7196706.403065744787455 ], [ 691758.453183116624132, 7196638.733033575117588 ], [ 691823.313177153002471, 7196545.682986670173705 ], [ 691874.063176653347909, 7196489.292955353856087 ], [ 691902.253179318970069, 7196469.552941753529012 ], [ 691969.923188440152444, 7196432.892912622541189 ], [ 692037.593193969223648, 7196382.142878867685795 ], [ 692105.273201645468362, 7196339.852847882546484 ], [ 692150.383211783017032, 7196331.392833688296378 ], [ 692189.853221820550971, 7196328.572822768241167 ], [ 692229.333235454862006, 7196339.852816462516785 ], [ 692322.94530088303145, 7196323.80744987539947 ], [ 692382.562357801478356, 7196264.974794757552445 ], [ 692415.133253725944087, 7196212.992727821692824 ], [ 692415.133248938363977, 7196194.222721673548222 ], [ 692409.353240735712461, 7196168.242714637890458 ], [ 692409.353228950756602, 7196122.04269951581955 ], [ 692400.693216649699025, 7196083.062688956037164 ], [ 692397.803209602716379, 7196058.522681657224894 ], [ 692401.104934079921804, 7196043.774299491196871 ], [ 692400.693638263270259, 7196034.314550793729722 ], [ 692394.524234902230091, 7196025.266096981242299 ], [ 692387.943539081374183, 7196019.919284109026194 ], [ 692384.653190174140036, 7196013.33859012182802 ], [ 692384.241895091719925, 7196006.757895408198237 ], [ 692384.653186502750032, 7195998.943320205435157 ], [ 692388.766118753701448, 7195991.951330916956067 ], [ 692419.201828938559629, 7195985.370628379285336 ], [ 692439.673198159667663, 7195969.012641757726669 ], [ 692441.113191555137746, 7195941.592632424086332 ], [ 692441.113187133334577, 7195924.262626757845283 ], [ 692452.663187329075299, 7195912.712620051577687 ], [ 692482.983190415543504, 7195892.502605751156807 ], [ 692514.743197947740555, 7195888.172596277669072 ], [ 692560.943209037766792, 7195882.402582665905356 ], [ 692592.703216197900474, 7195876.622572716325521 ], [ 692633.12322350195609, 7195862.192557737231255 ], [ 692672.093230776488781, 7195849.192543592303991 ], [ 692684.630731859826483, 7195830.813563485629857 ], [ 692690.786172602674924, 7195821.466407022438943 ], [ 692696.029695786302909, 7195811.891271404922009 ], [ 692701.729178419802338, 7195805.051888326182961 ], [ 692711.988248031004332, 7195796.16068959608674 ], [ 692773.153238696977496, 7195772.682492912746966 ], [ 692793.363241237588227, 7195761.132484002038836 ], [ 692815.013241215143353, 7195738.032470950856805 ], [ 692828.013237735023722, 7195710.60245868563652 ], [ 692828.013231461518444, 7195686.062450667843223 ], [ 692828.013224448077381, 7195658.632441706955433 ], [ 692820.793216952006333, 7195636.982436468824744 ], [ 692809.243204589001834, 7195600.892427617684007 ], [ 692803.473188259173185, 7195543.142410226166248 ], [ 692793.363176657585427, 7195508.492401482537389 ], [ 692783.253168748458847, 7195488.282397454604506 ], [ 692783.253165795700625, 7195476.732393682934344 ], [ 692787.593165499158204, 7195470.962390696629882 ], [ 692797.693166025681421, 7195462.302385303191841 ], [ 692807.80316655524075, 7195453.642379907891154 ], [ 692819.35316599754151, 7195439.20237225946039 ], [ 692814.785901411669329, 7195373.85629834420979 ], [ 692814.001456830650568, 7195336.987844185903668 ], [ 692817.903130543651059, 7195302.062327882274985 ], [ 692812.133117167977616, 7195255.862314280122519 ], [ 692800.583105178782716, 7195221.212305917404592 ], [ 692797.693091478315182, 7195170.682290175929666 ], [ 692797.69308188452851, 7195133.152277940884233 ], [ 692806.353078695945442, 7195111.502268683165312 ], [ 692846.773084847955033, 7195092.732252292335033 ], [ 692874.203088583657518, 7195078.292240615934134 ], [ 692895.863089281832799, 7195058.082228522747755 ], [ 692904.523086089640856, 7195036.432219266891479 ], [ 692908.85307322954759, 7194981.572200292721391 ], [ 692911.743064409936778, 7194944.032187327742577 ], [ 692917.51305711211171, 7194909.392174579203129 ], [ 692947.833058298565447, 7194881.962157936766744 ], [ 692977.163847018498927, 7194859.266766632907093 ], [ 692987.361497816513292, 7194834.949272884055972 ], [ 692982.483047727029771, 7194804.00212374329567 ], [ 692952.846328903222457, 7194748.661409829743207 ], [ 692946.570840235799551, 7194719.637309083715081 ], [ 692945.001960493274964, 7194682.768855158239603 ], [ 692940.295341735240072, 7194652.175883621908724 ], [ 692930.882114655571058, 7194631.780570857226849 ], [ 692912.840098663349636, 7194602.756473109126091 ], [ 692906.564607389853336, 7194563.534714790992439 ], [ 692896.366943752742372, 7194537.64835584256798 ], [ 692885.384845563909039, 7194514.115302689373493 ], [ 692884.600404189084657, 7194489.797811744734645 ], [ 692897.935794400633313, 7194460.773706022650003 ], [ 692906.56457588810008, 7194440.378388678655028 ], [ 692904.995698355487548, 7194412.138721945695579 ], [ 692901.857949910452589, 7194381.545750020071864 ], [ 692902.642379246884957, 7194358.797129076905549 ], [ 692897.151328948093578, 7194342.323991315439343 ], [ 692886.169233972672373, 7194331.341901335865259 ], [ 692874.402703841100447, 7194320.359811553731561 ], [ 692864.205044020200148, 7194309.377721376717091 ], [ 692850.869643379352055, 7194297.611196796409786 ], [ 692840.671982154599391, 7194281.138060230761766 ], [ 692835.180932460702024, 7194267.018228065222502 ], [ 692835.180930254166014, 7194258.389440887607634 ], [ 692839.103103420464322, 7194248.191782316192985 ], [ 692858.713979280204512, 7194236.425249363295734 ], [ 692890.091385268722661, 7194235.640806188806891 ], [ 692917.546616286737844, 7194237.994104800745845 ], [ 692945.00184629985597, 7194236.425227424129844 ], [ 692981.085864421911538, 7194240.347394233569503 ], [ 693005.403353215428069, 7194236.425212057307363 ], [ 693031.56291541759856, 7194235.211926316842437 ], [ 693056.102922037709504, 7194235.211920073255897 ], [ 693122.512937360443175, 7194225.101899888366461 ], [ 693164.372945692623034, 7194213.551885480992496 ], [ 693216.352957865456119, 7194206.341869903728366 ], [ 693261.10296586540062, 7194190.461853345856071 ], [ 693292.862968878587708, 7194168.801838221028447 ], [ 693318.842969962046482, 7194145.701824103482068 ], [ 693331.842969396500848, 7194129.821815636008978 ], [ 693340.502967659733258, 7194113.941808274015784 ], [ 693340.502963960869238, 7194099.51180359069258 ], [ 693339.052958389045671, 7194079.301797399297357 ], [ 693363.602960562799126, 7194061.971785517409444 ], [ 693404.022964051808231, 7194033.101765844970942 ], [ 693424.232961351750419, 7194001.341750387102365 ], [ 693450.212960946606472, 7193972.471734397113323 ], [ 693447.040271282545291, 7193947.752946801483631 ], [ 693453.10294987494126, 7193926.271718673408031 ], [ 693463.212945190258324, 7193897.401706732809544 ], [ 693461.762937394320033, 7193868.531697737984359 ], [ 693454.552931748330593, 7193854.09169489517808 ], [ 693441.552926026866771, 7193845.431695401668549 ], [ 693425.076052352786064, 7193812.830098426900804 ], [ 693394.483072257367894, 7193777.432467941194773 ], [ 693381.735994714894332, 7193752.918871272355318 ], [ 693381.735987423337065, 7193724.483095367439091 ], [ 693392.521961741847917, 7193689.183508737944067 ], [ 693428.802080327062868, 7193660.747723585925996 ], [ 693454.296214284608141, 7193627.409221199341118 ], [ 693456.257290096953511, 7193580.343108868226409 ], [ 693443.510209536296315, 7193544.062984244897962 ], [ 693426.768731924239546, 7193478.679400963708758 ], [ 693407.305282847140916, 7193425.154955772683024 ], [ 693414.604060495155863, 7193383.795151518657804 ], [ 693417.036976809264161, 7193332.703630303964019 ], [ 693426.768680754117668, 7193279.179177676327527 ], [ 693441.366240411647595, 7193213.490076053887606 ], [ 693463.262586447526701, 7193140.502183921635151 ], [ 693507.245453070732765, 7193104.748615702614188 ], [ 693557.804741425090469, 7193071.042402945458889 ], [ 693605.299829563591629, 7193035.804090974852443 ], [ 693645.134422481642105, 7193017.418880888260901 ], [ 693684.969018149538897, 7193009.758370749652386 ], [ 693764.638196890242398, 7192945.410150684416294 ], [ 693874.949371822644025, 7192873.401422819122672 ], [ 694012.302808685577475, 7192792.081208842806518 ], [ 694098.202825499465689, 7192768.021179100498557 ], [ 694173.80283424409572, 7192723.351145333610475 ], [ 694258.830388831556775, 7192685.544154607690871 ], [ 694390.272875374066643, 7192658.0710688252002 ], [ 694486.482901125214994, 7192658.071044163778424 ], [ 694530.688083648914471, 7192682.846318322233856 ], [ 694551.754470236366615, 7192732.639562683179975 ], [ 694555.584735326119699, 7192792.008436426520348 ], [ 694549.839369562338106, 7192826.48068774305284 ], [ 694565.160377545515075, 7192860.9529336579144 ], [ 694584.311634310870431, 7192891.594928607344627 ], [ 694649.425886866170913, 7192916.491536790505052 ], [ 694789.229995146859437, 7192883.934376051649451 ], [ 694904.137474450864829, 7192830.310846775770187 ], [ 695026.705455760355107, 7192786.262940471991897 ], [ 695104.983078233432025, 7192702.740899749100208 ], [ 695153.083075990900397, 7192644.320868523791432 ], [ 695214.93307119817473, 7192561.860826008021832 ], [ 695293.9630736525869, 7192489.700782394036651 ], [ 695377.173225020058453, 7192458.776476863771677 ], [ 695465.773108023335226, 7192445.030723736621439 ], [ 695548.282915092306212, 7192437.385009225457907 ], [ 695628.569587066187523, 7192442.250847620889544 ], [ 695686.95990124635864, 7192473.878916703164577 ], [ 695752.649004939710721, 7192510.372842997312546 ], [ 695819.683223179541528, 7192524.060657942667603 ], [ 695898.713238071301021, 7192500.010629779659212 ], [ 695991.493246811092831, 7192438.160585870966315 ], [ 696029.293243520660326, 7192386.620559487491846 ], [ 696053.343225825228728, 7192293.8405233733356 ], [ 696067.083207161631435, 7192207.940492147579789 ], [ 696122.063183416961692, 7192060.190430359914899 ], [ 696207.963164317887276, 7191898.69035617634654 ], [ 696280.123160304967314, 7191809.350308774039149 ], [ 696362.593162603327073, 7191733.760263124480844 ], [ 696482.853185692569241, 7191699.400220938026905 ], [ 696585.933216736884788, 7191713.140198646113276 ], [ 696709.633248799014837, 7191709.710165474563837 ], [ 696812.713274467037991, 7191702.830136522650719 ], [ 696881.443283805507235, 7191668.470107642002404 ], [ 696936.413285885937512, 7191620.370077915489674 ], [ 697015.44330423802603, 7191610.060054080560803 ], [ 697152.893342637224123, 7191616.93002057261765 ], [ 697280.023373795673251, 7191606.619984205812216 ], [ 697479.323412472149357, 7191551.649914683774114 ], [ 697616.763440057868138, 7191517.28986785095185 ], [ 697688.923454760573804, 7191500.109843527898192 ], [ 697795.44347589998506, 7191472.619806930422783 ], [ 697888.21349427558016, 7191448.55977500602603 ], [ 697956.253504802356474, 7191419.699747985228896 ], [ 698055.203523186268285, 7191389.459712443873286 ], [ 698195.403553255018778, 7191361.969666998833418 ], [ 698280.613570136716589, 7191339.979637671262026 ], [ 698385.040749716339633, 7191287.242766246199608 ], [ 698452.421182868187316, 7191260.290571038611233 ], [ 698509.02074096351862, 7191215.819463223218918 ], [ 698537.320516637642868, 7191180.781624965369701 ], [ 698549.448987008421682, 7191147.091399819590151 ], [ 698544.058542918064632, 7191113.401179263368249 ], [ 698544.058534401236102, 7191081.058566173538566 ], [ 698542.710917080519721, 7191048.715953439474106 ], [ 698546.753732491284609, 7191006.940077144652605 ], [ 698564.272642336087301, 7190989.421157141216099 ], [ 698599.310470894910395, 7190988.073539087548852 ], [ 698627.610255785519257, 7190988.073531676083803 ], [ 698669.386130141676404, 7190993.463956248946488 ], [ 698700.381135483505204, 7191004.244819158688188 ], [ 698720.595270745223388, 7191016.373293770477176 ], [ 698728.680930675473064, 7191043.325469221919775 ], [ 698723.290505404118448, 7191081.05851923674345 ], [ 698719.247690354590304, 7191124.182004414498806 ], [ 698715.204876373172738, 7191171.348316229879856 ], [ 698721.942932827398181, 7191218.51462522521615 ], [ 698746.199895576806739, 7191234.685925418511033 ], [ 698766.414019122254103, 7191202.343307027593255 ], [ 698804.147043623612262, 7191118.79154665209353 ], [ 698844.133637367282063, 7191026.609389630146325 ], [ 698890.863636723952368, 7190977.12936151959002 ], [ 698951.343635372584686, 7190911.159324515610933 ], [ 699011.813639812753536, 7190867.179294560104609 ], [ 699080.533644980867393, 7190817.699260678142309 ], [ 699127.263648664811626, 7190784.709237845614552 ], [ 699183.299327099579386, 7190757.416741337627172 ], [ 699206.729683768935502, 7190716.795713837258518 ], [ 699210.560869868961163, 7190676.540756121277809 ], [ 699218.7393321468262, 7190650.187907190993428 ], [ 699257.814233297482133, 7190622.017612436786294 ], [ 699305.943651003646664, 7190614.27913635596633 ], [ 699330.511730206897482, 7190593.847308849915862 ], [ 699331.420442523318343, 7190569.311899540014565 ], [ 699317.789648446952924, 7190523.87596040405333 ], [ 699333.433625583420508, 7190490.579089557752013 ], [ 699399.403624152997509, 7190419.10904935747385 ], [ 699446.13362925243564, 7190391.619028281420469 ], [ 699523.103637989261188, 7190347.638993976637721 ], [ 699569.833634348935448, 7190287.168962356634438 ], [ 699613.813633610494435, 7190240.428935846313834 ], [ 699644.053626324865036, 7190182.708909448236227 ], [ 699674.293626311933622, 7190152.468891827389598 ], [ 699726.523635752964765, 7190135.978872807696462 ], [ 699836.47366555116605, 7190138.728844723664224 ], [ 699918.943686624523252, 7190135.978822111152112 ], [ 700004.153707692632452, 7190130.478797889314592 ], [ 700092.123752837069333, 7190212.948801029473543 ], [ 700156.250646204920486, 7190245.314286442473531 ], [ 700251.134914462338202, 7190325.60093629732728 ], [ 700307.0922986199148, 7190354.796076033264399 ], [ 700380.080191234010272, 7190393.722929436713457 ], [ 700484.696168759139255, 7190442.381492649205029 ], [ 700589.312148889759555, 7190500.771774024702609 ], [ 700672.031755930627696, 7190527.533977116458118 ], [ 700747.452573453774676, 7190549.430323049426079 ], [ 700991.004079246893525, 7190545.558669693768024 ], [ 701083.196821585763246, 7190510.503361415117979 ], [ 701114.824897418962792, 7190486.174057599157095 ], [ 701153.751758880796842, 7190452.113033671863377 ], [ 701202.410329534206539, 7190386.42392310500145 ], [ 701252.144085329258814, 7190309.158524848520756 ], [ 701301.624068328877911, 7190196.448475699871778 ], [ 701364.85406816622708, 7190133.228438720107079 ], [ 701414.334060685825534, 7190056.258401 ], [ 701458.314047334715724, 7189962.798359481617808 ], [ 701466.554031883599237, 7189896.828336241655052 ], [ 701477.554014952620491, 7189822.608309639617801 ], [ 701496.793991378508508, 7189715.39827033597976 ], [ 701535.721462161745876, 7189651.679113024845719 ], [ 701555.184881153283641, 7189590.855869340710342 ], [ 701569.782425717683509, 7189471.642317998223007 ], [ 701579.514130981988274, 7189425.41665415558964 ], [ 701574.648257859516889, 7189371.892205575481057 ], [ 701529.783891329308972, 7189308.568131966516376 ], [ 701496.793871621019207, 7189267.328127604909241 ], [ 701444.563843183452263, 7189212.358123989775777 ], [ 701408.833822763175704, 7189171.118120360188186 ], [ 701392.333797127124853, 7189091.408099390566349 ], [ 701395.083778757951222, 7189019.938075934536755 ], [ 701355.684499573078938, 7188953.428383057005703 ], [ 701338.653983995900489, 7188916.934444507583976 ], [ 701326.489321380737238, 7188858.544138826429844 ], [ 701296.123698423034512, 7188816.518037566915154 ], [ 701246.643680290784687, 7188797.278044587932527 ], [ 701194.423665109672584, 7188791.77805669605732 ], [ 701117.453630962758325, 7188739.548060527071357 ], [ 701081.713610582519323, 7188698.318056914955378 ], [ 701037.733591706259176, 7188670.828059850260615 ], [ 701010.243575694970787, 7188637.838056663051248 ], [ 701004.743569122976623, 7188618.598052013665438 ], [ 701023.993568308884278, 7188596.608039934188128 ], [ 701065.223568863118999, 7188558.128016794100404 ], [ 701144.94357583601959, 7188505.897979082539678 ], [ 701186.173569773905911, 7188442.66794809140265 ], [ 701191.673555810120888, 7188384.947928329929709 ], [ 701191.673546271747909, 7188349.207916999235749 ], [ 701172.433525092201307, 7188288.73790293559432 ], [ 701155.933500965358689, 7188214.517883794382215 ], [ 701142.193479761714116, 7188148.537866537459195 ], [ 701147.693465067073703, 7188088.067845927551389 ], [ 701161.433453257544897, 7188030.337824006564915 ], [ 701183.423450207104906, 7187997.357807729393244 ], [ 701219.1634426782839, 7187934.127778237685561 ], [ 701213.663433900335804, 7187906.637770997360349 ], [ 701180.673416474135593, 7187873.657769318670034 ], [ 701147.693402717122808, 7187854.407771976664662 ], [ 701133.943392522050999, 7187829.66776779666543 ], [ 701147.693385113729164, 7187788.437751109711826 ], [ 701175.173376886406913, 7187730.707725565880537 ], [ 701243.903374293935485, 7187653.747682999819517 ], [ 701298.873362218728289, 7187554.787637138739228 ], [ 701312.472757190931588, 7187480.373664548620582 ], [ 701313.569593946682289, 7187423.337357649579644 ], [ 701339.894023246364668, 7187354.235671503469348 ], [ 701372.799568580463529, 7187300.489912316203117 ], [ 701375.843308133888058, 7187277.147529033944011 ], [ 701356.603293575113639, 7187241.417522868141532 ], [ 701307.123268934898078, 7187197.427522126585245 ], [ 701244.46784596319776, 7187151.318067606538534 ], [ 701201.690609006443992, 7187116.218813369050622 ], [ 701149.041705905226991, 7187087.700674045830965 ], [ 701112.845582355745137, 7187058.085678305476904 ], [ 701104.070760588627309, 7187036.148639642633498 ], [ 701143.557410835288465, 7186956.078429556451738 ], [ 701180.673159694415517, 7186911.547465559095144 ], [ 701208.16315290320199, 7186859.317441809922457 ], [ 701232.903143926872872, 7186801.597417064011097 ], [ 701257.643134944140911, 7186743.867392321117222 ], [ 701279.633125977357849, 7186688.887369176372886 ], [ 701323.613109505502507, 7186584.43732462823391 ], [ 701367.593093753792346, 7186482.727280953899026 ], [ 701397.833079566829838, 7186400.257246990688145 ], [ 701414.333055198192596, 7186293.047208908945322 ], [ 701424.351315600913949, 7186190.976130198687315 ], [ 701421.880708305863664, 7186085.976507596671581 ], [ 701413.233662828220986, 7186018.035577204078436 ], [ 701395.939590361667797, 7185951.329938797280192 ], [ 701364.852930742432363, 7185875.227090869098902 ], [ 701337.3629052703036, 7185806.49707661382854 ], [ 701312.622888592421077, 7185768.017071114853024 ], [ 701285.132865335792303, 7185707.547059456817806 ], [ 701285.132854321505874, 7185666.307046529836953 ], [ 701285.13283596932888, 7185597.587024997919798 ], [ 701268.64281482656952, 7185534.367009568959475 ], [ 701243.902796690817922, 7185490.37700236029923 ], [ 701235.652781348442659, 7185440.896989053115249 ], [ 701235.65276373422239, 7185374.926968402229249 ], [ 701232.902750548208132, 7185328.196954507380724 ], [ 701238.402734353323467, 7185262.226932404562831 ], [ 701238.402718203607947, 7185201.746913484297693 ], [ 701238.402703526313417, 7185146.776896293275058 ], [ 701254.892691627610475, 7185086.29687300696969 ], [ 701271.382684130920097, 7185042.316854879260063 ], [ 701263.142665857099928, 7184981.836838167160749 ], [ 701260.392645329236984, 7184907.616815708577633 ], [ 701252.142629992915317, 7184858.136802441440523 ], [ 701241.152611750178039, 7184800.416787336580455 ], [ 701227.402596470550634, 7184756.436777252703905 ], [ 701216.412586303893477, 7184728.946771590039134 ], [ 701166.932553765363991, 7184654.726761555299163 ], [ 701147.692539280164056, 7184618.986755509860814 ], [ 701142.192528330953792, 7184583.256745820865035 ], [ 701139.442519552190788, 7184553.016737117432058 ], [ 701142.192514389520511, 7184531.026729529723525 ], [ 701143.080741911078803, 7184530.138501486741006 ], [ 701126.967530011781491, 7184514.025297277607024 ], [ 701108.404787461622618, 7184495.462563587352633 ], [ 701073.135577115346678, 7184462.049643434584141 ], [ 701037.866371724288911, 7184447.199461896903813 ], [ 700995.172069811378606, 7184426.780460743233562 ], [ 700935.771298622363247, 7184385.942451538518071 ], [ 700904.214637788012624, 7184359.954625844955444 ], [ 700833.676223065005615, 7184315.404071868397295 ], [ 700764.994081613840535, 7184268.997243534773588 ], [ 700701.880767876282334, 7184246.721973915584385 ], [ 700618.348448232631199, 7184244.865722165443003 ], [ 700553.378862223471515, 7184228.15927460603416 ], [ 700473.55908614594955, 7184211.452830969356 ], [ 700445.71497334598098, 7184187.321278143674135 ], [ 700427.152228352846578, 7184159.477175138890743 ], [ 700404.876934362575412, 7184126.064251538366079 ], [ 700384.457922030938789, 7184122.351709214970469 ], [ 700356.613814665237442, 7184118.639168852940202 ], [ 700334.338529560249299, 7184118.639174738898873 ], [ 700284.219142518821172, 7184135.345652727410197 ], [ 700234.099756460404024, 7184155.764678430743515 ], [ 700193.261739686015062, 7184178.039975546300411 ], [ 700137.573533331975341, 7184202.171550437808037 ], [ 700072.603958672028966, 7184228.159401638433337 ], [ 700018.772029518848285, 7184265.284893059171736 ], [ 699979.790290924720466, 7184304.266654424369335 ], [ 699922.245814736117609, 7184343.248420681804419 ], [ 699888.832891993690282, 7184361.811168103478849 ], [ 699862.84506773413159, 7184393.367830595001578 ], [ 699831.288424654281698, 7184434.205863861367106 ], [ 699801.588051395025104, 7184460.193705746904016 ], [ 699746.827980411238968, 7184478.756458790972829 ], [ 699713.415055200457573, 7184488.037836898118258 ], [ 699670.720764633500949, 7184510.313134483061731 ], [ 699631.739022565772757, 7184536.300978811457753 ], [ 699589.044733960647136, 7184566.001371838152409 ], [ 699572.338275039219297, 7184584.564114851877093 ], [ 699525.931434977566823, 7184599.414317958988249 ], [ 699485.093417174997739, 7184617.97706732340157 ], [ 699453.536766696255654, 7184630.970992658287287 ], [ 699416.411297885118984, 7184655.102562629617751 ], [ 699395.992290455731563, 7184669.952758893370628 ], [ 699370.004464200348593, 7184694.08432593382895 ], [ 699321.741352822864428, 7184718.215898828580976 ], [ 699297.609796394477598, 7184727.497274484485388 ], [ 699273.478242422104813, 7184746.060019447468221 ], [ 699202.939849840593524, 7184785.041789090260863 ], [ 699182.520842893281952, 7184801.748259213753045 ], [ 699169.526932458393276, 7184824.023548975586891 ], [ 699167.67066654691007, 7184853.723931260406971 ], [ 699162.101859982125461, 7184909.412148592993617 ], [ 699152.820505894720554, 7184965.100366908125579 ], [ 699149.107965239789337, 7184991.088201961480081 ], [ 699130.545233518816531, 7185013.36349318921566 ], [ 699106.4136780614499, 7185026.357416566461325 ], [ 699065.575656794244424, 7185031.92624887637794 ], [ 699032.162729099043645, 7185031.926257650367916 ], [ 698978.330793465021998, 7185044.920188819058239 ], [ 698946.774142961017787, 7185057.91411414090544 ], [ 698907.792396921431646, 7185069.051767543889582 ], [ 698863.241828128928319, 7185074.620600819587708 ], [ 698811.266163801774383, 7185078.333162177354097 ], [ 698761.146772745531052, 7185080.189449181780219 ], [ 698724.021297526662238, 7185080.189458914101124 ], [ 698690.608368851826526, 7185076.47691994626075 ], [ 698670.189355525188148, 7185069.051829842850566 ], [ 698633.063879816094413, 7185067.195565708912909 ], [ 698592.225860500941053, 7185080.189493446610868 ], [ 698534.68138124642428, 7185108.033616462722421 ], [ 698486.418271770118736, 7185139.590284770354629 ], [ 698441.867703458876349, 7185147.015391884371638 ], [ 698417.736146031296812, 7185152.584219788201153 ], [ 698391.74832021666225, 7185178.572060672566295 ], [ 698356.479128525592387, 7185215.697547163814306 ], [ 698326.77875567227602, 7185243.541662882082164 ], [ 698265.521730337874033, 7185276.95460844412446 ], [ 698219.114894600585103, 7185308.511276254430413 ], [ 698170.851785100298002, 7185340.067944552749395 ], [ 698143.00768306828104, 7185356.774416599422693 ], [ 698120.732402320718393, 7185373.48088719137013 ], [ 698094.744578440091573, 7185406.893823528662324 ], [ 698061.331660484196618, 7185444.019309533759952 ], [ 698035.343836111016572, 7185475.575972006656229 ], [ 698031.631295902538113, 7185503.420080933719873 ], [ 698031.631306144292466, 7185542.401832079514861 ], [ 698013.068579740473069, 7185585.096135798841715 ], [ 697955.52410383883398, 7185625.934175838716328 ], [ 697912.829816080629826, 7185659.347116539254785 ], [ 697781.034394054790027, 7185716.89164072740823 ], [ 697740.196376636973582, 7185737.31066388823092 ], [ 697703.07090625516139, 7185755.87341221421957 ], [ 697671.514256184920669, 7185770.723611358553171 ], [ 697649.238973955041729, 7185781.861260352656245 ], [ 697625.107418934581801, 7185796.711457560770214 ], [ 697606.544687147834338, 7185818.986748775467277 ], [ 697576.844312296481803, 7185839.405769027769566 ], [ 697552.7127533799503, 7185839.405775314196944 ], [ 697511.874723302898929, 7185811.561677983030677 ], [ 697485.886890137800947, 7185809.70541088655591 ], [ 697471.036700036376715, 7185809.705414755269885 ], [ 697430.198686493793502, 7185844.974628821015358 ], [ 697403.282726172241382, 7185880.243839260190725 ], [ 697397.713914119638503, 7185915.513044141232967 ], [ 697397.713926759315655, 7185963.776164634153247 ], [ 697386.576292444951832, 7185995.332823239266872 ], [ 697369.869839270832017, 7186036.170852620154619 ], [ 697342.025743027916178, 7186075.152611037716269 ], [ 697308.612822576542385, 7186102.996727714315057 ], [ 697252.924619388883002, 7186140.122219512239099 ], [ 697182.386228515999392, 7186186.529084499925375 ], [ 697121.12920596706681, 7186231.079673202708364 ], [ 697078.434925417532213, 7186292.336721871979535 ], [ 697046.878288901993074, 7186359.162589244544506 ], [ 697019.034191660000943, 7186394.431799936108291 ], [ 696983.764997416874394, 7186422.27591709420085 ], [ 696952.208351186942309, 7186451.976307149045169 ], [ 696924.364253451814875, 7186485.389243975281715 ], [ 696915.082893359358422, 7186518.802175980061293 ], [ 696905.801532296231017, 7186548.502560254186392 ], [ 696894.663898437982425, 7186581.915492743253708 ], [ 696877.957440858590417, 7186606.047057347372174 ], [ 696836.191293272306211, 7186652.453914855606854 ], [ 696810.203466381994076, 7186674.729208003729582 ], [ 696784.215642881579697, 7186709.998418220318854 ], [ 696771.221733795944601, 7186737.842529596760869 ], [ 696765.652927039423957, 7186793.53074705041945 ], [ 696754.515293654054403, 7186828.799953416921198 ], [ 696730.38374197401572, 7186856.64406768605113 ], [ 696678.408087202114984, 7186897.482106249779463 ], [ 696659.845355360070243, 7186919.757397472858429 ], [ 696626.432434361311607, 7186945.745240282267332 ], [ 696591.163240078487433, 7186973.589357439428568 ], [ 696554.037771543487906, 7186999.577201210893691 ], [ 696526.193671350367367, 7187023.708768706768751 ], [ 696498.349572124658152, 7187051.552883937954903 ], [ 696472.361744726309553, 7187071.971903217956424 ], [ 696420.386102502001449, 7187161.073062342591584 ], [ 696377.691819424508139, 7187213.048741703853011 ], [ 696329.428712624241598, 7187255.743053171783686 ], [ 696297.872067298274487, 7187289.155990969389677 ], [ 696265.387284604599699, 7187320.712655140087008 ], [ 696250.537096889922395, 7187329.994028326123953 ], [ 696222.692991359974258, 7187333.706583268940449 ], [ 696194.848875200259499, 7187296.58111310377717 ], [ 696176.286130290012807, 7187268.737009882926941 ], [ 696152.154568430152722, 7187257.599372915923595 ], [ 696092.753807428525761, 7187255.74311441089958 ], [ 696055.628332103369758, 7187255.743124013766646 ], [ 696016.646583494730294, 7187257.599407957866788 ], [ 695959.102093843976036, 7187246.461779620498419 ], [ 695916.407795290346257, 7187239.036695182323456 ], [ 695855.150758594390936, 7187229.755341665819287 ], [ 695793.893719489919022, 7187211.192618801258504 ], [ 695732.636681352043524, 7187196.342443673871458 ], [ 695658.385722997947596, 7187166.642080947756767 ], [ 695621.260247195605189, 7187164.78581665828824 ], [ 695604.55378715635743, 7187179.636011911556125 ], [ 695604.553796307649463, 7187214.905215404927731 ], [ 695604.553809314151295, 7187265.024609845131636 ], [ 695606.410098976339214, 7187326.281647020019591 ], [ 695608.266385747701861, 7187376.401040988042951 ], [ 695595.272481906111352, 7187424.664164924994111 ], [ 695565.572122348588891, 7187504.48394894041121 ], [ 695521.021564462920651, 7187552.74708101991564 ], [ 695463.477082500001416, 7187571.30983454361558 ], [ 695413.357691270997748, 7187573.166121331043541 ], [ 695366.950849020620808, 7187580.591228765435517 ], [ 695316.831463563372381, 7187604.722801973111928 ], [ 695270.424622753169388, 7187617.716731010004878 ], [ 695252.790022926172242, 7187621.429283288307488 ], [ 695234.227285255445167, 7187621.429288065060973 ], [ 695193.389261897653341, 7187619.573024710640311 ], [ 695176.682792224921286, 7187597.297742582857609 ], [ 695165.545143376104534, 7187573.16618515085429 ], [ 695158.120045424671844, 7187562.028543848544359 ], [ 695148.838675628765486, 7187558.315998498350382 ], [ 695126.563390423427336, 7187558.316004231572151 ], [ 695100.575557685690001, 7187558.316010918468237 ], [ 695082.012818095972762, 7187550.890920219011605 ], [ 695054.168704865965992, 7187524.903093216940761 ], [ 695002.193028829293326, 7187484.065081468783319 ], [ 694966.923817658098415, 7187446.93961316626519 ], [ 694929.798332723090425, 7187409.814145337790251 ], [ 694903.81049231137149, 7187380.113770119845867 ], [ 694848.122264440869913, 7187322.569294514134526 ], [ 694816.565601776354015, 7187289.156372990459204 ], [ 694788.721491444855928, 7187274.306189198046923 ], [ 694734.889552222681232, 7187274.306203025393188 ], [ 694682.913889643969014, 7187285.443859580904245 ], [ 694653.213514655828476, 7187305.862879755906761 ], [ 694619.800594050320797, 7187333.706996357068419 ], [ 694593.812766112736426, 7187352.269741711206734 ], [ 694552.046612116857432, 7187374.545038847252727 ], [ 694524.202509451773949, 7187389.395236939191818 ], [ 694475.939392958185636, 7187394.964070925489068 ], [ 694440.67019139311742, 7187394.964079971425235 ], [ 694405.400987914064899, 7187387.538993540219963 ], [ 694360.850411294260994, 7187363.407444669865072 ], [ 694310.731014336808585, 7187342.988444961607456 ], [ 694264.32416491326876, 7187322.569444299675524 ], [ 694215.132899105083197, 7187279.875157931819558 ], [ 694183.576238861773163, 7187255.743605726398528 ], [ 694129.744291035924107, 7187222.330689882859588 ], [ 694087.04998963617254, 7187203.767962129786611 ], [ 694046.211967259994708, 7187205.624246451072395 ], [ 694003.517677328665741, 7187231.612091528251767 ], [ 693955.254568962263875, 7187268.737581236287951 ], [ 693882.859901627292857, 7187305.863077115267515 ], [ 693806.752686753170565, 7187342.988573937676847 ], [ 693762.202124947798438, 7187376.401514954864979 ], [ 693699.088831673609093, 7187433.946021004579961 ], [ 693652.681997999316081, 7187474.784057966433465 ], [ 693613.70025652681943, 7187504.484449818730354 ], [ 693596.993794531794265, 7187511.909549560397863 ], [ 693565.437142402399331, 7187519.334653091616929 ], [ 693541.305583434295841, 7187519.334659250453115 ], [ 693522.742844812921248, 7187515.622116252779961 ], [ 693502.323830995126627, 7187506.340752119198442 ], [ 693465.198348511941731, 7187478.496653560549021 ], [ 693442.923059977823868, 7187465.502742163836956 ], [ 693416.935224861721508, 7187456.221379447728395 ], [ 693390.947386413463391, 7187433.946099653840065 ], [ 693377.953463380108587, 7187407.95826880633831 ], [ 693372.38463017588947, 7187361.551423517987132 ], [ 693353.821887748665176, 7187342.988689567893744 ], [ 693344.540517488727346, 7187337.41987032815814 ], [ 693298.133667141664773, 7187313.288321871310472 ], [ 693277.714649523841217, 7187289.156766789034009 ], [ 693246.15798645443283, 7187253.887571338564157 ], [ 693223.882686510682106, 7187196.34308710321784 ], [ 693223.882669855025597, 7187131.373501727357507 ], [ 693223.882657484267838, 7187083.110381165519357 ], [ 693201.607351360144094, 7187001.434336667880416 ], [ 693177.475774805760011, 7186932.75220972020179 ], [ 693166.338111757999286, 7186852.932436268776655 ], [ 693155.200447761802934, 7186769.40011508949101 ], [ 693116.218681576661766, 7186702.57426581159234 ], [ 693115.290527096018195, 7186633.892132980749011 ], [ 693117.146775655215606, 7186535.509617585688829 ], [ 693124.571857395581901, 7186483.533947438001633 ], [ 693120.859296550741419, 7186431.558280134573579 ], [ 693102.296548446174711, 7186390.720259809866548 ], [ 693070.739883520407602, 7186348.025968929752707 ], [ 693015.051661096746102, 7186310.900505791418254 ], [ 692940.800704839872196, 7186288.625238299369812 ], [ 692896.250128809013404, 7186266.349963246844709 ], [ 692844.274453925900161, 7186229.224499155767262 ], [ 692809.005246716435067, 7186206.949221739545465 ], [ 692760.742124116164632, 7186188.38649535458535 ], [ 692723.616641251835972, 7186158.686122945509851 ], [ 692692.059977305936627, 7186119.704379795119166 ], [ 692684.634868016699329, 7186064.016165724955499 ], [ 692660.503296757815406, 7186015.753051365725696 ], [ 692601.102530645322986, 7185993.47778007760644 ], [ 692523.139032122446224, 7185991.621526012197137 ], [ 692458.16944709722884, 7185978.62762545235455 ], [ 692393.199859706219286, 7185956.352355561219156 ], [ 692337.511637816205621, 7185921.083166258409619 ], [ 692254.907448265235871, 7185893.239079237915576 ], [ 692186.225316676660441, 7185883.957727326080203 ], [ 692143.531012085848488, 7185852.40108244959265 ], [ 692076.705142910126597, 7185798.569157307967544 ], [ 692047.004757506540045, 7185778.15015232283622 ], [ 692011.735551289631985, 7185759.587422613985837 ], [ 691987.603986704023555, 7185737.312142352573574 ], [ 691980.178878415026702, 7185685.336476031690836 ], [ 691974.61003679735586, 7185605.516701286658645 ], [ 691970.897485491121188, 7185590.666511317715049 ], [ 691961.616111953277141, 7185572.103775028139353 ], [ 691952.334741252707317, 7185564.678681922145188 ], [ 691924.490634821821004, 7185564.67868896946311 ], [ 691889.221438541891985, 7185585.097710399888456 ], [ 691852.095971806556918, 7185618.510649345815182 ], [ 691826.108142915181816, 7185633.3608468323946 ], [ 691785.270122510148212, 7185642.642226485535502 ], [ 691759.282289838884026, 7185642.642233058810234 ], [ 691724.013086468912661, 7185635.217146521434188 ], [ 691692.45643251191359, 7185635.217154500074685 ], [ 691651.618409744813107, 7185635.217164825648069 ], [ 691579.223727830452845, 7185614.798170617781579 ], [ 691523.5355107227806, 7185598.091719908639789 ], [ 691452.997104932786897, 7185586.954094540327787 ], [ 691436.2906377754407, 7185573.960181713104248 ], [ 691412.159077925258316, 7185570.247640077024698 ], [ 691386.171247143298388, 7185577.67274209484458 ], [ 691358.327142126159742, 7185583.241570712998509 ], [ 691337.908130745054223, 7185583.241575865074992 ], [ 691308.20774489780888, 7185560.966296995058656 ], [ 691276.651086704805493, 7185544.259840181097388 ], [ 691248.806977920117788, 7185534.978477887809277 ], [ 691181.981116842711344, 7185512.70320837572217 ], [ 691139.286819848930463, 7185510.846945276483893 ], [ 691073.389094714075327, 7185484.85912779532373 ], [ 691026.982249258202501, 7185479.29031789675355 ], [ 690965.725208065006882, 7185451.446225374937057 ], [ 690913.749542737612501, 7185451.446238465607166 ], [ 690898.899352643755265, 7185451.446242204867303 ], [ 690867.342695404426195, 7185438.452333103865385 ], [ 690856.205042492598295, 7185397.614310910925269 ], [ 690837.642296416684985, 7185364.201386043801904 ], [ 690824.648374917102046, 7185343.782376817427576 ], [ 690800.516810849774629, 7185323.36337039526552 ], [ 690785.666612300090492, 7185289.950444594025612 ], [ 690774.528966443496756, 7185276.956530354917049 ], [ 690735.547209470532835, 7185245.39988449215889 ], [ 690707.703103991923854, 7185249.112439222633839 ], [ 690681.715273214038461, 7185256.537541209720075 ], [ 690603.751783692860045, 7185289.950490349903703 ], [ 690555.488666368764825, 7185291.806776344776154 ], [ 690494.23163130809553, 7185288.094244012609124 ], [ 690418.124409908778034, 7185299.231906307861209 ], [ 690355.011108587263152, 7185325.219756241887808 ], [ 690237.137735985568725, 7185369.770358545705676 ], [ 690168.455606810748577, 7185369.770375775173306 ], [ 690073.785645443247631, 7185371.626673378050327 ], [ 689977.259405166842043, 7185353.063958938233554 ], [ 689826.901219270890579, 7185308.513423880562186 ], [ 689758.219087296864018, 7185297.375797895714641 ], [ 689672.83048353344202, 7185254.681520411744714 ], [ 689617.142257153638639, 7185200.849592314101756 ], [ 689502.053260631859303, 7185108.035927951335907 ], [ 689463.071497656404972, 7185052.347721816971898 ], [ 689443.580613370286301, 7185013.365975573658943 ], [ 689448.134229216258973, 7184995.910429248586297 ], [ 689399.030039850622416, 7185000.372069668024778 ], [ 689322.922817067359574, 7185005.94091026391834 ], [ 689267.23460331663955, 7185002.228376442566514 ], [ 689228.25285248097498, 7184994.803290722891688 ], [ 689170.70836543943733, 7184992.94703122228384 ], [ 689129.8703459672397, 7185005.940958447754383 ], [ 689092.744876810815185, 7185030.072527918964624 ], [ 689063.044513871544041, 7185098.754668239504099 ], [ 689057.475703297997825, 7185141.448968470096588 ], [ 689046.338077493943274, 7185208.274830309674144 ], [ 689027.775348729453981, 7185243.54403833206743 ], [ 688994.362426614039578, 7185265.819333017803729 ], [ 688953.524409451289102, 7185288.094629555940628 ], [ 688916.398939344217069, 7185308.513651300221682 ], [ 688890.41111319931224, 7185334.50149186141789 ], [ 688877.417201987700537, 7185354.920507593080401 ], [ 688871.848388144979253, 7185384.620890792459249 ], [ 688875.560943576158024, 7185416.177545543760061 ], [ 688897.836240345030092, 7185462.584386581555009 ], [ 688934.961724885972217, 7185499.709854602813721 ], [ 688953.524468554765917, 7185523.841410202905536 ], [ 688972.087215945590287, 7185562.823156714439392 ], [ 688973.943504601716995, 7185622.223919896408916 ], [ 688979.512337988475338, 7185670.487038971856236 ], [ 688970.2309826745186, 7185724.318983346223831 ], [ 688940.530624813283794, 7185813.420136231929064 ], [ 688927.536719176801853, 7185856.114438351243734 ], [ 688923.824179095914587, 7185885.814821109175682 ], [ 688905.261448447592556, 7185913.658933704718947 ], [ 688882.986169341835193, 7185937.790499494411051 ], [ 688845.860701525816694, 7185967.490890579298139 ], [ 688825.441698969574645, 7186002.760099094361067 ], [ 688814.304064297117293, 7186034.316757572814822 ], [ 688825.441716640722007, 7186073.298505963757634 ], [ 688834.723096617264673, 7186117.849076414480805 ], [ 688834.723106383695267, 7186156.830827583558857 ], [ 688812.447842613211833, 7186242.219430938363075 ], [ 688764.184738706564531, 7186297.907658919692039 ], [ 688706.640265043010004, 7186349.883341481909156 ], [ 688673.227347051375546, 7186388.865100977942348 ], [ 688658.377167161437683, 7186429.703129722736776 ], [ 688652.808355159941129, 7186466.828608429059386 ], [ 688666.730424654320814, 7186531.798190277069807 ], [ 688690.861992419697344, 7186567.067387729883194 ], [ 688718.706107714911923, 7186602.336584262549877 ], [ 688733.556302943266928, 7186622.755593094974756 ], [ 688763.256687824847177, 7186641.31832436658442 ], [ 688807.807264684699476, 7186667.306147404015064 ], [ 688835.651379990857095, 7186702.575343934819102 ], [ 688856.070398844196461, 7186732.275720715522766 ], [ 688857.926684235688299, 7186778.682566924020648 ], [ 688859.782968234270811, 7186819.520591530017555 ], [ 688856.070430470863357, 7186858.502343662083149 ], [ 688856.070443027885631, 7186908.621738072484732 ], [ 688867.208097245311365, 7186955.028581978753209 ], [ 688879.273891605902463, 7187014.429342726245522 ], [ 688908.974298836197704, 7187122.093219642527401 ], [ 688921.96822868892923, 7187175.925158571451902 ], [ 688921.968238923582248, 7187216.763183662667871 ], [ 688910.830609353375621, 7187268.738854739814997 ], [ 688873.70514519396238, 7187313.289436823688447 ], [ 688821.729484854498878, 7187333.708462316542864 ], [ 688762.328726191539317, 7187341.133572578430176 ], [ 688734.484621092560701, 7187346.702401114627719 ], [ 688717.778160447604023, 7187359.696322350762784 ], [ 688701.071702591143548, 7187383.827886795625091 ], [ 688689.934068822069094, 7187419.097093065269291 ], [ 688688.07780341967009, 7187452.510023159906268 ], [ 688671.371347417589277, 7187484.066683081910014 ], [ 688645.383521651965566, 7187511.910797575488687 ], [ 688623.108239704044536, 7187524.904720196500421 ], [ 688580.413944926229306, 7187532.329826289787889 ], [ 688547.001015730667859, 7187526.761012993752956 ], [ 688511.731810448574834, 7187511.910830813460052 ], [ 688476.462607024004683, 7187504.485744104720652 ], [ 688457.899869357119314, 7187504.485748719424009 ], [ 688439.33713122527115, 7187502.629479464143515 ], [ 688418.918126288568601, 7187528.617318699136376 ], [ 688407.780489720287733, 7187552.748881759122014 ], [ 688398.499132019118406, 7187597.299456916749477 ], [ 688389.217770143644884, 7187625.143567254766822 ], [ 688392.930329739698209, 7187673.406686924397945 ], [ 688402.211706461734138, 7187704.963340394198895 ], [ 688398.49916820670478, 7187742.08881869725883 ], [ 688391.074082415085286, 7187779.214297926984727 ], [ 688389.217817461816594, 7187814.48350190743804 ], [ 688398.499194650445133, 7187847.896429250948131 ], [ 688409.636843287269585, 7187872.027986785396934 ], [ 688440.265366021310911, 7187894.303265608847141 ], [ 688440.265372517053038, 7187920.291099783964455 ], [ 688438.409109422471374, 7187962.985399247147143 ], [ 688423.55892670317553, 7187992.685784854926169 ], [ 688399.427383958129212, 7188057.655376296490431 ], [ 688392.00229630805552, 7188087.355760060250759 ], [ 688384.577211904688738, 7188130.050060918554664 ], [ 688377.152124253218062, 7188159.750444686040282 ], [ 688371.583311297697946, 7188193.163375733420253 ], [ 688375.295868575805798, 7188232.145126089453697 ], [ 688386.433517217985354, 7188256.276683639734983 ], [ 688395.714889771072194, 7188271.126872296445072 ], [ 688410.565083630383015, 7188285.977059569209814 ], [ 688427.271553117199801, 7188308.25234186463058 ], [ 688438.409204545780085, 7188343.521542641334236 ], [ 688447.690581741626374, 7188376.934470009058714 ], [ 688469.965878570335917, 7188423.341311242431402 ], [ 688471.822161156916991, 7188458.61051432788372 ], [ 688464.397078146226704, 7188506.873636820353568 ], [ 688440.265529354917817, 7188547.711667981930077 ], [ 688419.846527172252536, 7188584.837150480598211 ], [ 688395.714980230899528, 7188633.100277133285999 ], [ 688390.146165417390876, 7188659.088112713769078 ], [ 688383.649217893718742, 7188701.782413372769952 ], [ 688374.367854147800244, 7188722.201428267173469 ], [ 688361.373941470170394, 7188737.051622468046844 ], [ 688342.811206091661006, 7188746.332996437326074 ], [ 688301.973185938550159, 7188757.470649808645248 ], [ 688264.84771517792251, 7188776.033397743478417 ], [ 688244.428712053457275, 7188809.446332504041493 ], [ 688233.29107916704379, 7188848.428086578845978 ], [ 688214.72835351631511, 7188896.691211858764291 ], [ 688198.02189792599529, 7188930.104145701043308 ], [ 688181.315442334627733, 7188963.517079547047615 ], [ 688173.890359300537966, 7189011.780202069319785 ], [ 688157.1839106567204, 7189073.037244003266096 ], [ 688149.758835030486807, 7189151.000748494639993 ], [ 688147.90257237944752, 7189195.551321901381016 ], [ 688146.04630879976321, 7189236.389347564429045 ], [ 688140.477494898019359, 7189266.08973091468215 ], [ 688129.339861073996872, 7189301.35893726348877 ], [ 688095.926941529847682, 7189334.77187526691705 ], [ 688075.507932825479656, 7189345.909523569978774 ], [ 688047.663826256990433, 7189345.909530475735664 ], [ 688027.244811994256452, 7189334.771892298944294 ], [ 688004.969525815802626, 7189331.0593500752002 ], [ 687975.269145012716763, 7189329.203083564527333 ], [ 687932.574851051205769, 7189340.340737383812666 ], [ 687897.305653100134805, 7189355.190937109291553 ], [ 687869.461549305939116, 7189366.328587247058749 ], [ 687822.126566289225593, 7189358.903503477573395 ], [ 687803.563828577520326, 7189358.903508074581623 ], [ 687751.588166217552498, 7189371.897438056766987 ], [ 687695.899956775829196, 7189386.747642826288939 ], [ 687666.199578744824976, 7189396.029019542038441 ], [ 687642.06802064133808, 7189399.741573260165751 ], [ 687614.223916381131858, 7189409.022949515841901 ], [ 687586.379811195656657, 7189414.591778023168445 ], [ 687552.966883310349658, 7189414.591786287724972 ], [ 687495.422393165761605, 7189401.597883405163884 ], [ 687456.440643044421449, 7189397.885345292277634 ], [ 687421.171440003905445, 7189392.316532390192151 ], [ 687385.90223834826611, 7189392.316541107371449 ], [ 687371.052049561403692, 7189397.885366395115852 ], [ 687369.195780404377729, 7189416.448105586692691 ], [ 687382.189704647404142, 7189448.004758222959936 ], [ 687410.03381537203677, 7189464.711216203868389 ], [ 687441.59047410369385, 7189483.273947140201926 ], [ 687458.296945432783104, 7189512.974324986338615 ], [ 687462.009504052810371, 7189557.524897036142647 ], [ 687462.009514668723568, 7189600.219196132384241 ], [ 687424.884062306256965, 7189693.032899003475904 ], [ 687395.183693487080745, 7189739.439753195270896 ], [ 687352.489409182686359, 7189789.559158345684409 ], [ 687302.37002978194505, 7189839.678565331734717 ], [ 687281.951021973975003, 7189854.528761370107532 ], [ 687252.250642996979877, 7189860.097590325400233 ], [ 687211.412620002171025, 7189860.097600407898426 ], [ 687181.712239642394707, 7189860.097607738338411 ], [ 687140.874216186464764, 7189858.241343944333494 ], [ 687062.910720045911148, 7189867.522732550278306 ], [ 687018.36014628293924, 7189854.528826415538788 ], [ 686984.947217457694933, 7189850.816286904737353 ], [ 686960.815659335814416, 7189854.528840602375567 ], [ 686945.965473299380392, 7189871.235309134237468 ], [ 686944.109206890221685, 7189900.935691583901644 ], [ 686953.390585881075822, 7189941.773714535869658 ], [ 686970.097069168463349, 7190019.737213155254722 ], [ 686986.803541412344202, 7190053.150138783268631 ], [ 687001.653740802896209, 7190090.275612621568143 ], [ 686997.941200623521581, 7190119.975995537824929 ], [ 686983.091017345082946, 7190147.820107325911522 ], [ 686956.175051775411703, 7190164.526578838005662 ], [ 686924.618401773506775, 7190181.233051492832601 ], [ 686880.067839497001842, 7190214.645992225967348 ], [ 686831.804731509764679, 7190255.484029373154044 ], [ 686800.248085638741031, 7190288.896966906264424 ], [ 686774.260258327471092, 7190311.172259813174605 ], [ 686763.122618445078842, 7190322.309905807487667 ], [ 686753.046168881119229, 7190345.657710463739932 ], [ 686759.545114054926671, 7190371.653465228155255 ], [ 686762.794592678081244, 7190409.022364204749465 ], [ 686766.044074522098526, 7190459.38914136774838 ], [ 686766.044086193665862, 7190506.506449786946177 ], [ 686774.167767663137056, 7190539.001143250614405 ], [ 686787.165649160509929, 7190555.248487779870629 ], [ 686819.660346060991287, 7190568.246357964351773 ], [ 686881.400268887984566, 7190587.743160031735897 ], [ 687019.502731947228312, 7190647.858312606811523 ], [ 687077.993189850472845, 7190685.227197974920273 ], [ 687107.23842465179041, 7190727.470294876024127 ], [ 687115.362108959117904, 7190771.338131759315729 ], [ 687120.236324705765583, 7190818.455438995733857 ], [ 687133.23421186208725, 7190857.449070362374187 ], [ 687140.545524394139647, 7190883.444824939593673 ], [ 687140.545530445408076, 7190907.815846551209688 ], [ 687145.41973812750075, 7190922.438458316028118 ], [ 687164.916557572316378, 7190935.436331696808338 ], [ 687189.28758268407546, 7190954.93314297311008 ], [ 687220.157550977077335, 7190992.30203516036272 ], [ 687254.276990658952855, 7191037.794600415043533 ], [ 687270.524342352291569, 7191057.291413696482778 ], [ 687286.771694853669032, 7191080.037696527317166 ], [ 687309.517984885489568, 7191097.909773427061737 ], [ 687312.767458695103414, 7191115.78185514267534 ], [ 687309.517992553417571, 7191128.779734143987298 ], [ 687280.272776694269851, 7191162.899171629920602 ], [ 687270.524373021442443, 7191180.771256557665765 ], [ 687264.025446383981034, 7191229.513301405124366 ], [ 687265.650190755957738, 7191268.506935594603419 ], [ 687262.400730664841831, 7191305.875836221501231 ], [ 687247.778123336727731, 7191325.372657129541039 ], [ 687220.15763892326504, 7191346.494216023012996 ], [ 687192.537153300712816, 7191362.74157059006393 ], [ 687166.541401150985621, 7191374.114720432087779 ], [ 687140.5456465811003, 7191375.739461621269584 ], [ 687112.925156923127361, 7191375.739468435756862 ], [ 687080.430463610915467, 7191377.364211225882173 ], [ 687046.311036015395075, 7191380.613689190708101 ], [ 687021.940015728585422, 7191380.613695200532675 ], [ 687007.317403555614874, 7191380.613698804751039 ], [ 686986.195851028198376, 7191374.114764912053943 ], [ 686963.449567039613612, 7191380.613709618337452 ], [ 686943.952752017998137, 7191385.48791875038296 ], [ 686929.330140249338001, 7191387.112657127901912 ], [ 686919.58173173153773, 7191385.487924757413566 ], [ 686901.709650187985972, 7191385.487929160706699 ], [ 686872.464426648453809, 7191388.737405916675925 ], [ 686844.843940210295841, 7191401.735290922224522 ], [ 686818.848191275843419, 7191426.106318952515721 ], [ 686799.351381081622094, 7191450.477345384657383 ], [ 686781.479306377703324, 7191478.097840962931514 ], [ 686773.355643010232598, 7191518.716212345287204 ], [ 686758.733042505336925, 7191565.833524433895946 ], [ 686750.609377928427421, 7191601.577691493555903 ], [ 686727.863101573428139, 7191638.946596933528781 ], [ 686724.613640248542652, 7191671.441293246112764 ], [ 686724.613645075703971, 7191690.938110554590821 ], [ 686731.924952774657868, 7191697.437047857791185 ], [ 686748.172300847363658, 7191702.311248183250427 ], [ 686762.794917451683432, 7191720.183327117934823 ], [ 686788.790675656171516, 7191733.181198923848569 ], [ 686805.03802815603558, 7191755.927481781691313 ], [ 686809.912239060853608, 7191783.547971772029996 ], [ 686816.411190285230987, 7191833.914748227223754 ], [ 686816.411198335699737, 7191866.409443750977516 ], [ 686832.658552048262209, 7191894.029930943623185 ], [ 686870.027461524121463, 7191941.147230247035623 ], [ 686886.274815239477903, 7191968.767717441543937 ], [ 686909.021109315683134, 7192002.887142140418291 ], [ 686917.144786779419519, 7192019.134487902745605 ], [ 686917.144790807273239, 7192035.381835668347776 ], [ 686912.270594397094101, 7192066.251797623932362 ], [ 686912.270600840914994, 7192092.247554048895836 ], [ 686912.27060688205529, 7192116.618575699627399 ], [ 686909.021140728611499, 7192129.616454712115228 ], [ 686897.648002749541774, 7192149.113274836912751 ], [ 686896.023274102481082, 7192173.484296886250377 ], [ 686886.274874837137759, 7192209.228464379906654 ], [ 686887.899615967413411, 7192235.224220409989357 ], [ 686878.151214685873128, 7192262.844714019447565 ], [ 686863.528608938446268, 7192288.840474054217339 ], [ 686853.780205644317903, 7192308.3372937804088 ], [ 686842.407069270731881, 7192334.333053014241159 ], [ 686844.031806776998565, 7192345.706196054816246 ], [ 686857.029686293331906, 7192353.829866738058627 ], [ 686873.277032366255298, 7192350.580393182113767 ], [ 686902.522257151198573, 7192352.205120753496885 ], [ 686933.392217832035385, 7192358.704052256420255 ], [ 686971.573490651906468, 7192389.574003610759974 ], [ 686997.569248480373062, 7192400.947140646167099 ], [ 687021.940268800361082, 7192400.947134638205171 ], [ 687062.558636000496335, 7192400.947124622762203 ], [ 687096.678065658430569, 7192405.821320537477732 ], [ 687106.426476204185747, 7192415.569726798683405 ], [ 687116.174889170797542, 7192435.066541722044349 ], [ 687117.799629099317826, 7192456.188093425706029 ], [ 687124.298573497333564, 7192478.934378707781434 ], [ 687124.298575916676782, 7192488.682787372730672 ], [ 687164.916946750250645, 7192503.305390346795321 ], [ 687199.036376412259415, 7192508.179586261510849 ], [ 687254.277355813188478, 7192508.179572627879679 ], [ 687290.021518953260966, 7192508.179563802666962 ], [ 687327.390413957531564, 7192496.806411131285131 ], [ 687343.637760032899678, 7192493.556937563233078 ], [ 687358.260369804687798, 7192483.808525286614895 ], [ 687366.384035172173753, 7192451.31382773257792 ], [ 687389.130315959220752, 7192431.817004784941673 ], [ 687402.128193060751073, 7192430.192266795784235 ], [ 687432.998156171990559, 7192446.439606942236423 ], [ 687460.618653140147217, 7192475.684826111420989 ], [ 687497.987559048342519, 7192508.179512425325811 ], [ 687543.480137188220397, 7192535.799992398358881 ], [ 687577.599569683545269, 7192552.047331736423075 ], [ 687621.467415162362158, 7192587.791485995985568 ], [ 687647.463176241610199, 7192612.162501230835915 ], [ 687662.085791267454624, 7192623.535641059279442 ], [ 687679.957876481232233, 7192638.158249637112021 ], [ 687686.456818064907566, 7192649.531391475349665 ], [ 687686.456821705098264, 7192664.154004476964474 ], [ 687678.333153924089856, 7192686.900293376296759 ], [ 687653.962141276220791, 7192717.770260185934603 ], [ 687637.714800857356749, 7192743.766020653769374 ], [ 687623.09219472319819, 7192768.137045942246914 ], [ 687608.469586161430925, 7192782.759662562981248 ], [ 687598.721183688146994, 7192805.505951867438853 ], [ 687576.787269428721629, 7192821.753305072896183 ], [ 687545.917315593222156, 7192842.87486482411623 ], [ 687518.296830325387418, 7192860.746954211965203 ], [ 687500.424751169746742, 7192870.495367299765348 ], [ 687485.802142604603432, 7192885.117983920499682 ], [ 687459.806392022874206, 7192902.990072907879949 ], [ 687430.561172464746051, 7192922.486897476017475 ], [ 687398.066481509595178, 7192933.860048950649798 ], [ 687380.194399524480104, 7192932.235318587161601 ], [ 687350.949176331982017, 7192937.109530148096383 ], [ 687328.202890278538689, 7192935.484800984151661 ], [ 687302.207140094949864, 7192954.981624744832516 ], [ 687287.584533138200641, 7192976.103180478326976 ], [ 687264.838257977855392, 7193018.346290336921811 ], [ 687240.46724086580798, 7193031.344174581579864 ], [ 687216.096222542924806, 7193039.467854490503669 ], [ 687181.976796888862737, 7193050.841006360948086 ], [ 687155.981043068110012, 7193055.71521711256355 ], [ 687129.985288844094612, 7193058.964693082496524 ], [ 687108.863739897031337, 7193067.088372185826302 ], [ 687094.241129707545042, 7193075.212049687281251 ], [ 687086.117460291832685, 7193091.459399478510022 ], [ 687077.993792083812878, 7193112.580953605473042 ], [ 687063.371184714953415, 7193132.077774558216333 ], [ 687051.998044708860107, 7193143.450920816510916 ], [ 687022.752821504604071, 7193148.325132360681891 ], [ 686978.884988914127462, 7193164.572490965016186 ], [ 686962.637646851362661, 7193184.069312319159508 ], [ 686956.138715746463276, 7193214.939274720847607 ], [ 686954.513986695557833, 7193237.685562028549612 ], [ 686961.012931094039232, 7193260.431847335770726 ], [ 686974.010813446715474, 7193279.928661482408643 ], [ 686972.386083188233897, 7193297.800744453445077 ], [ 686964.262413364485838, 7193312.42335946764797 ], [ 686950.452170110307634, 7193318.922301989980042 ], [ 686927.70588767202571, 7193331.920185828581452 ], [ 686906.584342339308932, 7193354.66647794470191 ], [ 686885.462797408690676, 7193379.037504838779569 ], [ 686843.219709957716987, 7193437.527967305853963 ], [ 686830.221836863784119, 7193455.400053082033992 ], [ 686809.100292732939124, 7193483.020549537613988 ], [ 686783.104545333655551, 7193513.890516753308475 ], [ 686753.859328148188069, 7193543.135749989189208 ], [ 686739.236719153006561, 7193556.133631827309728 ], [ 686718.115171395707875, 7193569.131515264511108 ], [ 686696.993622430134565, 7193577.255194360390306 ], [ 686669.373133898014203, 7193582.129405500367284 ], [ 686651.501053910935298, 7193588.628349013626575 ], [ 686628.754774273955263, 7193612.999376310035586 ], [ 686622.255839532241225, 7193629.246725708246231 ], [ 686615.756907202885486, 7193655.242483787238598 ], [ 686612.507445460185409, 7193686.112445406615734 ], [ 686612.507448676275089, 7193699.110323647037148 ], [ 686612.507454707752913, 7193723.481345349922776 ], [ 686612.507460737950169, 7193747.852367052808404 ], [ 686622.255872903508134, 7193764.099712456576526 ], [ 686654.750573157100007, 7193790.095460945740342 ], [ 686680.746331831789576, 7193804.718067571520805 ], [ 686692.119475474813953, 7193807.967534335330129 ], [ 686718.115232138661668, 7193814.466467057354748 ], [ 686745.735728324158117, 7193840.46221674606204 ], [ 686760.358348591602407, 7193872.956908753141761 ], [ 686774.980966847739182, 7193897.327926862984896 ], [ 686774.980974090402015, 7193926.573152912780643 ], [ 686781.479920501238666, 7193957.443112146109343 ], [ 686789.603597178356722, 7193970.440988389775157 ], [ 686802.601476721116342, 7193978.564659092575312 ], [ 686841.595116157550365, 7194006.185140762478113 ], [ 686865.966142165358178, 7194028.931421691551805 ], [ 686891.961902463342994, 7194050.052967440336943 ], [ 686909.833993332227692, 7194087.421862996183336 ], [ 686916.332940555876121, 7194121.541291795670986 ], [ 686923.644257138483226, 7194163.784394301474094 ], [ 686938.266881445772015, 7194212.526434135623276 ], [ 686951.264771870570257, 7194264.517943935468793 ], [ 686965.887394168763421, 7194305.136309865862131 ], [ 686978.885279761510901, 7194337.631002290174365 ], [ 686988.633698388235644, 7194379.874104208312929 ], [ 686993.507909717038274, 7194409.119329076260328 ], [ 687013.004733276669867, 7194438.364550342783332 ], [ 687029.25208261818625, 7194448.112955026328564 ], [ 687043.874700491782278, 7194470.859238365665078 ], [ 687050.37364570889622, 7194496.854993274435401 ], [ 687063.371525264810771, 7194504.978663977235556 ], [ 687094.241488855215721, 7194522.850738966837525 ], [ 687128.360921833897009, 7194540.722813151776791 ], [ 687162.480351991951466, 7194547.221743864938617 ], [ 687186.851372380740941, 7194547.22173785045743 ], [ 687219.346067040460184, 7194550.471199395135045 ], [ 687245.341824542614631, 7194560.219601674005389 ], [ 687266.463377968058921, 7194569.968005150556564 ], [ 687289.209666087292135, 7194579.716408229433 ], [ 687303.832278320100158, 7194579.716404618695378 ], [ 687321.704361150739715, 7194584.590604553930461 ], [ 687342.825912961736321, 7194587.840068900957704 ], [ 687362.322727257967927, 7194579.716390175744891 ], [ 687368.821665221359581, 7194576.46691900677979 ], [ 687383.444278666051105, 7194581.341119742952287 ], [ 687412.689509999239817, 7194608.961603812873363 ], [ 687424.875027461792342, 7194638.206826880574226 ], [ 687432.998710213112645, 7194675.575724863447249 ], [ 687441.122391754877754, 7194708.070418503135443 ], [ 687441.122397811850533, 7194732.441440237686038 ], [ 687458.994483474292792, 7194748.688783647492528 ], [ 687478.491305848117918, 7194773.05980056617409 ], [ 687478.491311502526514, 7194795.806087521836162 ], [ 687476.866582867922261, 7194820.177109661512077 ], [ 687465.493447687942535, 7194851.047073340043426 ], [ 687478.491335735889152, 7194893.290174478664994 ], [ 687484.990283394581638, 7194929.034338093362749 ], [ 687491.489225399447605, 7194942.032214751467109 ], [ 687504.487105775508098, 7194953.405355017632246 ], [ 687523.983924924628809, 7194964.778493678197265 ], [ 687535.357070608180948, 7194976.151634347625077 ], [ 687533.73233874165453, 7194987.524778229184449 ], [ 687517.484995442675427, 7195002.147395293228328 ], [ 687506.111853799317032, 7195007.0216024518013 ], [ 687493.113976249704137, 7195007.021605664864182 ], [ 687471.992427251068875, 7195015.145284798927605 ], [ 687463.868757014395669, 7195028.143165070563555 ], [ 687463.868763072299771, 7195052.514186816290021 ], [ 687468.742974826600403, 7195083.384146491065621 ], [ 687470.367717596585862, 7195115.878841752186418 ], [ 687478.49139591306448, 7195135.375657144933939 ], [ 687493.114010581746697, 7195145.1240622298792 ], [ 687522.359239515732042, 7195162.996137618087232 ], [ 687545.105532907880843, 7195193.866092880256474 ], [ 687549.97974305099342, 7195218.237113427370787 ], [ 687543.480813162634149, 7195253.981280270963907 ], [ 687536.981882465537637, 7195286.475977546535432 ], [ 687532.920048153959215, 7195296.224387252703309 ], [ 687528.045848515583202, 7195314.096471078693867 ], [ 687511.798506419407204, 7195333.593292498029768 ], [ 687492.301693722838536, 7195348.21591036953032 ], [ 687471.180147946113721, 7195369.33746777754277 ], [ 687453.308073172695003, 7195396.957963518798351 ], [ 687433.811263299779966, 7195422.953724876046181 ], [ 687414.314451810205355, 7195442.450547099113464 ], [ 687389.943437445443124, 7195466.821574878878891 ], [ 687376.945567155606113, 7195496.066804202273488 ], [ 687360.698225858504884, 7195518.813095190562308 ], [ 687344.450882947072387, 7195535.060447044670582 ], [ 687337.951947799418122, 7195549.683061704039574 ], [ 687329.828279974986799, 7195572.429350690916181 ], [ 687334.702488095965236, 7195588.676697330549359 ], [ 687359.073512554634362, 7195604.924039155244827 ], [ 687380.195069643901661, 7195629.295055702328682 ], [ 687383.444542666780762, 7195643.917667957022786 ], [ 687380.195076505537145, 7195656.915547037497163 ], [ 687362.32299526350107, 7195658.540286235511303 ], [ 687334.702504641492851, 7195655.290823483839631 ], [ 687308.70674629334826, 7195642.292951629497111 ], [ 687292.459396923193708, 7195632.544546933844686 ], [ 687255.090492888120934, 7195608.173534393310547 ], [ 687217.721593695110641, 7195603.299339264631271 ], [ 687191.725835350574926, 7195590.301467403769493 ], [ 687180.352690471336246, 7195582.177796287462115 ], [ 687164.105340297101066, 7195569.179922021925449 ], [ 687144.608522346243262, 7195562.680987695232034 ], [ 687123.486971717095003, 7195564.305727688595653 ], [ 687100.740687601966783, 7195570.804672434926033 ], [ 687086.118078572209924, 7195583.802554315887392 ], [ 687079.619143016985618, 7195596.800434188917279 ], [ 687066.621272711316124, 7195626.045663513243198 ], [ 687055.24813669687137, 7195653.666157651692629 ], [ 687032.501857815659605, 7195681.286654595285654 ], [ 687017.879252005834132, 7195707.282414749264717 ], [ 687014.629788658581674, 7195731.653437318280339 ], [ 687016.254527383600362, 7195747.900784764438868 ], [ 687016.25452979921829, 7195757.649193471297622 ], [ 687006.506130087655038, 7195791.768626350909472 ], [ 686993.508257358567789, 7195811.265446970239282 ], [ 686972.386713568703271, 7195840.510678304359317 ], [ 686954.514637960703112, 7195864.881704479455948 ], [ 686941.516762008075602, 7195871.380646821111441 ], [ 686938.267294227844104, 7195877.879586759954691 ], [ 686944.766235022689216, 7195886.003259084187448 ], [ 686964.263053383328952, 7195894.126928203739226 ], [ 686978.885667254100554, 7195900.625863740220666 ], [ 686987.009343551937491, 7195911.999005233868957 ], [ 687008.130901441909373, 7195939.619491370394826 ], [ 687022.753522565821186, 7195975.363653036765754 ], [ 687029.25246618327219, 7195994.860468858852983 ], [ 687036.563787220278755, 7196054.975654106587172 ], [ 687064.18428551312536, 7196089.095077788457274 ], [ 687104.8026589571964, 7196113.466089552268386 ], [ 687168.167327421950176, 7196175.20599577203393 ], [ 687186.039419158827513, 7196215.824361003004014 ], [ 687202.286778621841222, 7196266.191135350614786 ], [ 687218.534140911302529, 7196327.931053200736642 ], [ 687218.534149380167946, 7196362.050483703613281 ], [ 687218.534157445654273, 7196394.545179424807429 ], [ 687212.035238014534116, 7196472.532450758852065 ], [ 687207.161041990155354, 7196505.027147685177624 ], [ 687199.037376167601906, 7196535.897110629826784 ], [ 687186.039506252971478, 7196566.76707477774471 ], [ 687177.915838009561412, 7196587.888629004359245 ], [ 687177.915844056173228, 7196612.259650800377131 ], [ 687184.414786474779248, 7196626.882262276485562 ], [ 687200.66213626798708, 7196638.25540177244693 ], [ 687222.596059921663254, 7196659.376948586665094 ], [ 687245.34234649001155, 7196662.62641254812479 ], [ 687328.203820080612786, 7196678.873739959672093 ], [ 687359.073779327096418, 7196678.873732337728143 ], [ 687389.943738574162126, 7196678.873724713921547 ], [ 687417.564229235402308, 7196682.123187465593219 ], [ 687425.687903124140576, 7196683.74792024679482 ], [ 687433.811580242938362, 7196698.370531320571899 ], [ 687433.811586703755893, 7196724.366287904791534 ], [ 687433.811594373779371, 7196755.236248854547739 ], [ 687438.68580452457536, 7196779.607269451022148 ], [ 687463.056830234709196, 7196800.728815659880638 ], [ 687495.551529029966332, 7196820.225625076331198 ], [ 687567.039857338415459, 7196826.724546555429697 ], [ 687607.658228009706363, 7196839.722414808347821 ], [ 687628.779782716184855, 7196854.345022669062018 ], [ 687635.278726355405524, 7196873.841838506050408 ], [ 687635.278732822043821, 7196899.837595098651946 ], [ 687627.155068629072048, 7196937.206497211009264 ], [ 687628.779812621651217, 7196974.57539691682905 ], [ 687636.90349459880963, 7197008.694825440645218 ], [ 687671.022935383371077, 7197057.43686062656343 ], [ 687721.389725173939951, 7197114.302565729245543 ], [ 687771.75651294994168, 7197163.044596895575523 ], [ 687803.438847657409497, 7197195.539284810423851 ], [ 687818.061465201666579, 7197216.660833430476487 ], [ 687876.55192769842688, 7197270.277066951617599 ], [ 687948.040263337083161, 7197306.02121458388865 ], [ 687990.283372789272107, 7197335.266430301591754 ], [ 688048.773834091611207, 7197384.008459454402328 ], [ 688071.520126356859691, 7197410.00421042740345 ], [ 688076.394353543873876, 7197502.61409215349704 ], [ 688102.39012209768407, 7197556.230333731509745 ], [ 688126.76114987838082, 7197585.475553884170949 ], [ 688159.255847914027981, 7197601.72289371304214 ], [ 688206.373158650705591, 7197619.594964703544974 ], [ 688229.11945011629723, 7197642.341246104799211 ], [ 688227.494719472131692, 7197658.588594393804669 ], [ 688214.49684592965059, 7197674.835945505648851 ], [ 688188.501094793318771, 7197691.083299842663109 ], [ 688147.882731360616162, 7197707.330657803453505 ], [ 688120.262245927355252, 7197725.202747330069542 ], [ 688074.769680013065226, 7197747.949045652523637 ], [ 688039.025517433532514, 7197751.198524086736143 ], [ 688001.656621367903426, 7197759.322207292541862 ], [ 687964.287726112175733, 7197770.695360071957111 ], [ 687943.1661782565061, 7197783.693243617191911 ], [ 687935.04250921017956, 7197801.56532830838114 ], [ 687923.669373194104992, 7197829.185822539031506 ], [ 687910.671502477256581, 7197856.806317174807191 ], [ 687900.923098731320351, 7197874.67840227112174 ], [ 687840.807922119740397, 7197903.923643359914422 ], [ 687814.812169348355383, 7197913.672058531083167 ], [ 687757.946463345550001, 7197947.791503179818392 ], [ 687709.204423154471442, 7197951.040984818711877 ], [ 687660.462382155354135, 7197951.040996871888638 ], [ 687613.345076261088252, 7197952.665743311867118 ], [ 687585.724589997669682, 7197967.28836324531585 ], [ 687535.357828838867135, 7198025.778828117065132 ], [ 687515.86102213000413, 7198064.772467885166407 ], [ 687486.615806005778722, 7198098.891905697062612 ], [ 687437.873769841389731, 7198118.388735215179622 ], [ 687408.628545640851371, 7198120.013477225787938 ], [ 687371.259641883196309, 7198097.26719939801842 ], [ 687346.88861451880075, 7198069.646713991649449 ], [ 687306.270246610161848, 7198068.021989228203893 ], [ 687275.400285289506428, 7198059.898322898894548 ], [ 687239.656125918263569, 7198076.14567961730063 ], [ 687216.909848986426368, 7198111.889850601553917 ], [ 687197.413045483641326, 7198163.881368686445057 ], [ 687176.291509294649586, 7198223.9965611230582 ], [ 687173.042047553812154, 7198254.866522934287786 ], [ 687176.291520582977682, 7198269.489135243929923 ], [ 687194.163604708155617, 7198279.237539576366544 ], [ 687221.784094620379619, 7198279.237532762810588 ], [ 687246.155115533270873, 7198280.862261539325118 ], [ 687265.651934361434542, 7198290.610665468499064 ], [ 687298.146638460457325, 7198331.229027204215527 ], [ 687325.76714088045992, 7198381.595798883587122 ], [ 687340.120388639508747, 7198426.650675961747766 ] ] ] ] } }
]
}
