{
"type": "FeatureCollection",
"name": "rio_cotia",
"crs": { "type": "name", "properties": { "name": "urn:ogc:def:crs:EPSG::31982" } },
"features": [
{ "type": "Feature", "properties": { "AREA": 80083600.652909994, "PERIMETER": 55591.10951, "BACIAS1_": 27, "BACIAS1_ID": 0, "NOME_BACIA": "RIO COTIA", "SUB_AREA": 80.08, "SUBCODIGO": 26, "BACCODIGO": 2, "SUBNOME": "RIO COTIA", "SUBBAC_DAT": "2002-01-03", "SUBBAC_POP": 2701, "SUBBAC_P_1": 2312, "SUBBAC_DEN": 28.86, "SUBBAC_D_1": 33.73 }, "geometry": { "type": "MultiPolygon", "coordinates": [ [ [ [ 673728.824821052956395, 7165217.103789126500487 ], [ 673710.428482126211748, 7165232.592011482454836 ], [ 673702.259597931522876, 7165262.000022485852242 ], [ 673700.625829540309496, 7165304.478258271701634 ], [ 673700.625840473221615, 7165351.857828540727496 ], [ 673692.456968343467452, 7165433.546744680963457 ], [ 673677.752973622293212, 7165472.757426904514432 ], [ 673656.513866115128621, 7165511.968110628426075 ], [ 673638.542313113342971, 7165543.009902177378535 ], [ 673625.472096962388605, 7165583.854362315498292 ], [ 673632.007218416081741, 7165621.431261388584971 ], [ 673636.908559792209417, 7165650.839269410818815 ], [ 673632.007234623422846, 7165691.683727682568133 ], [ 673609.134351924411021, 7165743.964638080447912 ], [ 673596.064135767519474, 7165784.809098228812218 ], [ 673592.796591430203989, 7165837.09000413864851 ], [ 673610.768164035747759, 7165891.004683468490839 ], [ 673641.809959586942568, 7165933.482911793515086 ], [ 673658.147748345974833, 7165962.890917208045721 ], [ 673677.753095387481153, 7166000.467813299968839 ], [ 673700.625998449628241, 7166036.41093036159873 ], [ 673720.231351904454641, 7166101.762057336047292 ], [ 673716.963806443149224, 7166149.141628406010568 ], [ 673702.259811333147809, 7166186.71853238157928 ], [ 673697.358485033735633, 7166222.66165581997484 ], [ 673698.992268886882812, 7166247.168329752981663 ], [ 673741.470511467079632, 7166288.01277718693018 ], [ 673764.343409637804143, 7166302.716776521876454 ], [ 673805.187869876623154, 7166325.589663174003363 ], [ 673850.933677165419795, 7166402.377232180908322 ], [ 673875.440359956584871, 7166444.855462031438947 ], [ 673903.214597260113806, 7166479.164799693971872 ], [ 673947.326618818100542, 7166523.276803329586983 ], [ 673989.804858784424141, 7166552.684802748262882 ], [ 674055.155989006627351, 7166562.48745745792985 ], [ 674127.042231268715113, 7166569.022554080933332 ], [ 674210.364917900995351, 7166562.487421764992177 ], [ 674282.251155625097454, 7166549.417178921401501 ], [ 674341.06716586498078, 7166528.178047637455165 ], [ 674381.91162234894, 7166534.713151384145021 ], [ 674409.685855514951982, 7166551.050927863456309 ], [ 674437.460088303778321, 7166565.75492605753243 ], [ 674465.234325257129967, 7166598.430485418066382 ], [ 674486.473447145428509, 7166621.30337655544281 ], [ 674517.515240124543197, 7166652.345156876370311 ], [ 674553.458371870918199, 7166701.358497234992683 ], [ 674582.866386655485258, 7166732.400277931243181 ], [ 674615.541953672538511, 7166745.470496703870595 ], [ 674641.682402208214626, 7166734.034042656421661 ], [ 674667.82284467772115, 7166696.457135998643935 ], [ 674679.259280696744099, 7166647.443784715607762 ], [ 674692.329497948638164, 7166611.500659364275634 ], [ 674692.32949415629264, 7166595.162876483052969 ], [ 674707.033494534669444, 7166580.458868497982621 ], [ 674736.441500219283625, 7166572.289970273151994 ], [ 674785.454845807049423, 7166570.656180674210191 ], [ 674819.764186847023666, 7166565.754837887361646 ], [ 674854.073522192775272, 7166536.346820784732699 ], [ 674890.016633077175356, 7166495.50235528871417 ], [ 674929.227301873732358, 7166461.193002188578248 ], [ 674974.973085359786637, 7166435.052539016120136 ], [ 675037.056643611867912, 7166377.870284603908658 ], [ 675084.4362007266609, 7166332.12448160070926 ], [ 675108.942868381505832, 7166309.251579908654094 ], [ 675153.05487289535813, 7166279.843560535460711 ], [ 675188.997990595642477, 7166268.407104209065437 ], [ 675249.447777844732627, 7166242.266637627035379 ], [ 675288.65844965679571, 7166221.027510815300047 ], [ 675322.967791057191789, 7166217.759946297854185 ], [ 675362.178468574071303, 7166221.027493791654706 ], [ 675412.008709708461538, 7166247.167934842407703 ], [ 675428.346495499252342, 7166263.505713932216167 ], [ 675464.289621192612685, 7166286.378601625561714 ], [ 675498.598969452083111, 7166312.519046272151172 ], [ 675516.570534205646254, 7166332.124381554313004 ], [ 675519.838094030390494, 7166346.828385383822024 ], [ 675511.669206466991454, 7166361.532391864806414 ], [ 675493.697650091955438, 7166377.870178904384375 ], [ 675472.458539606072009, 7166404.010636428371072 ], [ 675459.388318968238309, 7166425.249757194891572 ], [ 675457.75454572099261, 7166446.488875314593315 ], [ 675465.92344204580877, 7166469.361769448965788 ], [ 675482.261229364783503, 7166492.234661689959466 ], [ 675511.669243037002161, 7166518.375107479281723 ], [ 675539.443477370194159, 7166539.614218783564866 ], [ 675577.020375943975523, 7166539.61421007104218 ], [ 675622.766162463813089, 7166526.543973159044981 ], [ 675653.807943284744397, 7166505.304848216474056 ], [ 675668.511941355420277, 7166480.798170488327742 ], [ 675684.849715715507045, 7166448.122600945644081 ], [ 675715.891490429639816, 7166400.743023400194943 ], [ 675737.130600144970231, 7166371.335009296424687 ], [ 675769.806158010615036, 7166345.194549111649394 ], [ 675809.016831721644849, 7166332.124313710257411 ], [ 675843.326174268615432, 7166333.758084028959274 ], [ 675879.269297688500956, 7166346.828301979228854 ], [ 675915.212421109317802, 7166359.898519929498434 ], [ 675949.521762131713331, 7166354.99717709608376 ], [ 675983.831099715200253, 7166335.391829674132168 ], [ 676026.309325233451091, 7166302.71625405177474 ], [ 676052.449772967142053, 7166288.01224338915199 ], [ 676073.688887635013089, 7166279.843347012996674 ], [ 676096.56178202922456, 7166278.209563406184316 ], [ 676135.772459551808424, 7166281.477110860869288 ], [ 676166.814250673283823, 7166304.349999664351344 ], [ 676197.856038354570046, 7166312.518883876502514 ], [ 676225.630267727305181, 7166312.518877412192523 ], [ 676259.939610275556333, 7166314.152647715061903 ], [ 676281.178728768136352, 7166322.321534207090735 ], [ 676300.784070592839271, 7166337.025534227490425 ], [ 676340.811647552647628, 7166384.405095246620476 ], [ 676378.388554924633354, 7166421.981987107545137 ], [ 676409.430348356952891, 7166454.65754562895745 ], [ 676440.472141790669411, 7166487.333104152232409 ], [ 676461.711265269317664, 7166516.741108383983374 ], [ 676474.781497370684519, 7166544.515336231328547 ], [ 676491.119285871973261, 7166572.289563316851854 ], [ 676509.090851806569844, 7166596.796233450993896 ], [ 676538.498863986111246, 7166616.401566050946712 ], [ 676569.540652067633346, 7166626.204228540882468 ], [ 676597.314880302641541, 7166621.302887199446559 ], [ 676633.257994546904229, 7166595.162426208145916 ], [ 676659.398438827833161, 7166565.754410922527313 ], [ 676685.538879657513462, 7166521.642391050234437 ], [ 676706.777987037901767, 7166482.431707188487053 ], [ 676728.017098635318689, 7166461.19258448947221 ], [ 676765.5939929849701, 7166443.221014553681016 ], [ 676795.001995189348236, 7166420.348111661151052 ], [ 676812.973550768103451, 7166400.742768012918532 ], [ 676835.846445549279451, 7166400.742762671783566 ], [ 676857.085564049659297, 7166408.911649148911238 ], [ 676883.226015226915479, 7166408.911643043160439 ], [ 676915.901578815188259, 7166407.27785712108016 ], [ 676951.844701105263084, 7166415.446740159764886 ], [ 676984.520268918946385, 7166431.784515399485826 ], [ 677035.167398455319926, 7166454.657399589195848 ], [ 677061.307856550905854, 7166484.065402654930949 ], [ 677085.814531455514953, 7166492.234288362786174 ], [ 677120.123873630072922, 7166492.234280338510871 ], [ 677146.264323656680062, 7166487.332939360290766 ], [ 677171.587885738350451, 7166487.332933435216546 ], [ 677207.531006879871711, 7166490.600481597706676 ], [ 677230.403901663026772, 7166490.600476246327162 ], [ 677272.8821363709867, 7166497.135579453781247 ], [ 677300.656366903916933, 7166502.036907814443111 ], [ 677321.895483488216996, 7166502.03690284024924 ], [ 677336.599487278377637, 7166502.036899397149682 ], [ 677357.838600014103577, 7166485.699111545458436 ], [ 677362.739928450668231, 7166459.558657792396843 ], [ 677369.27503161993809, 7166418.714199068024755 ], [ 677372.542576853418723, 7166371.334627961739898 ], [ 677387.246552533237264, 7166252.068809537217021 ], [ 677385.612761245458387, 7166196.520348154008389 ], [ 677383.978973806253634, 7166157.309669645503163 ], [ 677383.97896610700991, 7166124.634103904478252 ], [ 677393.781625668052584, 7166083.789644433185458 ], [ 677424.823401415604167, 7166041.311401702463627 ], [ 677444.428734396817163, 7166018.438501093536615 ], [ 677467.301624928368255, 7166000.466934578493237 ], [ 677499.977186570176855, 7165990.664257198572159 ], [ 677539.187860618112609, 7165979.227799997664988 ], [ 677558.793193980120122, 7165957.988677673041821 ], [ 677583.299858464277349, 7165922.045549619942904 ], [ 677601.271410927874967, 7165889.369979675859213 ], [ 677622.510522482916713, 7165868.130856970325112 ], [ 677637.214520090492442, 7165841.99040093831718 ], [ 677640.482067617238499, 7165804.413499584421515 ], [ 677653.552283169818111, 7165761.935261075384915 ], [ 677678.87583635689225, 7165724.358354549854994 ], [ 677691.946052676532418, 7165685.147672617807984 ], [ 677691.946046119323, 7165657.373441754840314 ], [ 677683.777147035114467, 7165623.064099667593837 ], [ 677672.34069194435142, 7165590.388536632992327 ], [ 677659.270458657294512, 7165557.712973985821009 ], [ 677657.636676989495754, 7165543.008969795890152 ], [ 677659.270447859307751, 7165511.967181984335184 ], [ 677673.974447001819499, 7165492.361839108169079 ], [ 677698.481114550726488, 7165469.488937357440591 ], [ 677739.325564448954538, 7165448.249810056760907 ], [ 677767.099789931438863, 7165431.912020681425929 ], [ 677775.268677440239117, 7165417.208014193922281 ], [ 677775.268670108518563, 7165386.166226770728827 ], [ 677775.268655831227079, 7165325.716430212371051 ], [ 677778.536203733179718, 7165289.773307170718908 ], [ 677811.211756465490907, 7165242.393729229457676 ], [ 677845.521088546607643, 7165199.915485760197043 ], [ 677870.027758011477999, 7165185.211475438438356 ], [ 677889.633093659533188, 7165173.775022838264704 ], [ 677925.576211652718484, 7165163.972344683483243 ], [ 677937.012657092534937, 7165155.803450570441782 ], [ 677953.3504344165558, 7165136.198107312433422 ], [ 677958.251763596083038, 7165113.325210171751678 ], [ 677957.434867158182897, 7165082.283422952517867 ], [ 677954.167305745184422, 7165061.044306019321084 ], [ 677959.068634151481092, 7165034.903852313756943 ], [ 677985.209078327869065, 7165005.495837045833468 ], [ 678024.419748064945452, 7164976.087818706408143 ], [ 678058.729082441073842, 7164943.412244947627187 ], [ 678068.531746587716043, 7164922.173124947585166 ], [ 678075.066853957949206, 7164899.300227425992489 ], [ 678084.869512691278942, 7164855.188211446627975 ], [ 678102.841063562314957, 7164815.977528398856521 ], [ 678115.911277137463912, 7164765.330398516729474 ], [ 678115.911269791307859, 7164734.288611121475697 ], [ 678117.545042960089631, 7164713.049493043683469 ], [ 678127.347706715576351, 7164690.176594763994217 ], [ 678151.854373065056279, 7164662.40235817246139 ], [ 678171.459704827517271, 7164634.628122733905911 ], [ 678176.361033996450715, 7164611.755225608125329 ], [ 678174.727250387892127, 7164588.882330021820962 ], [ 678147.769902054104023, 7164554.572992409579456 ], [ 678126.530780111439526, 7164531.700101438909769 ], [ 678111.826774428016506, 7164523.531213478185236 ], [ 678108.559214172768407, 7164507.193431413732469 ], [ 678113.460545276524499, 7164492.489425708539784 ], [ 678119.995658054132946, 7164492.489424173720181 ], [ 678141.23477612901479, 7164499.024532308802009 ], [ 678160.840119102504104, 7164518.629867097362876 ], [ 678180.445461304392666, 7164534.967645317316055 ], [ 678203.318357188720256, 7164539.868974784389138 ], [ 678222.923695523990318, 7164539.868970171548426 ], [ 678271.937035168870352, 7164513.728506093844771 ], [ 678304.612590544158593, 7164477.785376163199544 ], [ 678314.415260485024191, 7164481.052930423989892 ], [ 678330.753043590113521, 7164485.954261424019933 ], [ 678368.329941675066948, 7164484.320474287495017 ], [ 678399.371728144353256, 7164487.588023540563881 ], [ 678420.610848932643421, 7164505.559579653665423 ], [ 678435.314855782082304, 7164518.629802457988262 ], [ 678459.821532186237164, 7164533.333801232278347 ], [ 678495.764651691075414, 7164530.066236191429198 ], [ 678544.777994814678095, 7164518.62977665103972 ], [ 678600.326454591122456, 7164523.531098397448659 ], [ 678624.833128672093153, 7164528.43242746591568 ], [ 678654.24113539676182, 7164525.164863960817456 ], [ 678701.620698384358548, 7164505.559513378888369 ], [ 678737.563816335285082, 7164495.756835190579295 ], [ 678781.675823705387302, 7164479.419041940942407 ], [ 678815.985160742071457, 7164458.179916155524552 ], [ 678850.294494283851236, 7164422.236785816028714 ], [ 678881.336272985325195, 7164392.828769385814667 ], [ 678917.279387044953182, 7164366.688308360055089 ], [ 678948.321170014329255, 7164355.251853041350842 ], [ 678982.630508595728315, 7164340.547840382903814 ], [ 679044.714073365554214, 7164312.773594888858497 ], [ 679087.192302913055755, 7164298.069580294191837 ], [ 679111.698972713318653, 7164284.999348232522607 ], [ 679137.839419540483505, 7164267.027780935168266 ], [ 679154.177196035161614, 7164244.154881108552217 ], [ 679165.613636390888132, 7164214.746869308874011 ], [ 679173.78252113761846, 7164188.606414850801229 ], [ 679173.78251258097589, 7164152.663292630575597 ], [ 679173.782506357762031, 7164126.522840106859803 ], [ 679186.852722960757092, 7164088.945936514995992 ], [ 679211.359388082986698, 7164056.270365061238408 ], [ 679263.640281325438991, 7164018.693452186882496 ], [ 679301.217176271835342, 7164003.989438747987151 ], [ 679330.625178692629561, 7163982.750314111821353 ], [ 679361.666954243090004, 7163940.272071417421103 ], [ 679373.103389135445468, 7163887.991163678467274 ], [ 679391.074937188066542, 7163837.344032675027847 ], [ 679409.046483290847391, 7163778.52801026403904 ], [ 679441.722039747633971, 7163747.486215163953602 ], [ 679472.763814892503433, 7163703.374194198288023 ], [ 679510.340703583438881, 7163662.529728246852756 ], [ 679552.818928406573832, 7163628.22037425916642 ], [ 679592.029601910267957, 7163615.150138705968857 ], [ 679639.409168713842519, 7163611.882570901885629 ], [ 679691.690073217730969, 7163621.685228183865547 ], [ 679725.999423064989969, 7163654.36078567057848 ], [ 679765.210106323473155, 7163682.135007149539888 ], [ 679806.054569339379668, 7163716.444341365247965 ], [ 679824.026138829183765, 7163755.655015861615539 ], [ 679837.09637374128215, 7163794.865691523067653 ], [ 679843.631494712317362, 7163829.175033893436193 ], [ 679850.166614903137088, 7163860.216819697991014 ], [ 679859.969292260939255, 7163894.526161296293139 ], [ 679864.870634649530984, 7163927.201725773513317 ], [ 679882.842204537591897, 7163968.046178562566638 ], [ 679902.447548325522803, 7163990.919069854542613 ], [ 679930.221782689797692, 7164012.158180925995111 ], [ 679992.305354041513056, 7164012.158166168257594 ], [ 680065.825370400212705, 7164002.35547899082303 ], [ 680154.049386588390917, 7163976.21500548440963 ], [ 680237.372070145560429, 7163958.243424546904862 ], [ 680315.793418337590992, 7163937.004288202151656 ], [ 680363.172984376084059, 7163930.469163787551224 ], [ 680402.383661014959216, 7163930.469154445454478 ], [ 680437.509892561938614, 7163932.102924356237054 ], [ 680462.016570162028074, 7163951.708257902413607 ], [ 680489.790808068704791, 7163987.65137349255383 ], [ 680522.466378990095109, 7164017.05937478877604 ], [ 680564.944617507047951, 7164039.932260610163212 ], [ 680615.591742290300317, 7164043.199805093929172 ], [ 680674.40775764931459, 7164044.833569342270494 ], [ 680692.379317777347751, 7164044.833565052598715 ], [ 680726.688657488324679, 7164035.030887169763446 ], [ 680769.166886595427059, 7164018.693094201385975 ], [ 680780.603326885495335, 7163989.285082388669252 ], [ 680788.772207648260519, 7163946.806845096871257 ], [ 680800.208648329135031, 7163919.032611565664411 ], [ 680842.686872716760263, 7163883.089479213580489 ], [ 680865.559761532233097, 7163858.582799515686929 ], [ 680876.996201816014946, 7163829.174787706695497 ], [ 680876.996193176833913, 7163793.231665501371026 ], [ 680873.728626973810606, 7163752.387209232896566 ], [ 680850.855721673346125, 7163708.27520108781755 ], [ 680836.151703805895522, 7163649.459186458960176 ], [ 680782.236999509390444, 7163549.798724161460996 ], [ 680770.800544704543427, 7163518.756939545273781 ], [ 680769.166760233812965, 7163492.616487432271242 ], [ 680769.166755523416214, 7163473.011148057878017 ], [ 680772.434304060880095, 7163440.335581653751433 ], [ 680782.236968895886093, 7163422.364018219523132 ], [ 680810.011193060316145, 7163401.124893931671977 ], [ 680834.517862015869468, 7163384.787105267867446 ], [ 680845.954304649028927, 7163365.18176316190511 ], [ 680845.95430033095181, 7163347.210202071815729 ], [ 680817.363175298436545, 7163319.435978125780821 ], [ 680797.75783071340993, 7163293.295530313625932 ], [ 680796.124045457574539, 7163263.887521648779511 ], [ 680786.321365709532984, 7163219.775510407984257 ], [ 680773.25113075633999, 7163180.564834794029593 ], [ 680779.7862293953076, 7163121.748815132305026 ], [ 680787.955112895113416, 7163090.70702585298568 ], [ 680787.955107400659472, 7163067.834129925817251 ], [ 680755.279534546541981, 7163030.257237282581627 ], [ 680727.505291954148561, 7162974.708782385103405 ], [ 680699.731053288560361, 7162935.498110292479396 ], [ 680644.182582632405683, 7162884.850996867753565 ], [ 680622.943459483678453, 7162857.076771177351475 ], [ 680613.140785240218975, 7162835.837655876763165 ], [ 680589.450988926226273, 7162783.55675657466054 ], [ 680576.38075673498679, 7162755.782528938725591 ], [ 680564.944301559589803, 7162723.106966074556112 ], [ 680551.874070547288284, 7162700.234073275700212 ], [ 680540.437617725692689, 7162677.361180091276765 ], [ 680538.803834047983401, 7162654.488284567371011 ], [ 680546.972717551980168, 7162623.446495309472084 ], [ 680569.84560555475764, 7162595.672259105369449 ], [ 680609.056272712303326, 7162556.461571048945189 ], [ 680636.830499986885116, 7162548.292673025280237 ], [ 680684.2100627978798, 7162528.687322365120053 ], [ 680738.124743074760772, 7162528.687309496104717 ], [ 680792.039423353387974, 7162528.687296621501446 ], [ 680873.728326580487192, 7162502.5468246396631 ], [ 680930.91055930883158, 7162486.20902818441391 ], [ 680979.923898334032856, 7162458.434785723686218 ], [ 681042.007463268237188, 7162432.294318413361907 ], [ 681086.936358775710687, 7162412.688968319445848 ], [ 681140.851036292617209, 7162401.252507468685508 ], [ 681199.667050345451571, 7162397.984936834312975 ], [ 681248.680394470109604, 7162391.449811984784901 ], [ 681284.623510712292045, 7162375.112020589411259 ], [ 681305.862622457556427, 7162355.506676156073809 ], [ 681364.678631386021152, 7162330.999987883493304 ], [ 681413.691975898575038, 7162326.09864130243659 ], [ 681448.001317885005847, 7162326.098633079789579 ], [ 681475.775546323275194, 7162322.831069866195321 ], [ 681521.521331696887501, 7162306.493276108056307 ], [ 681550.929333199281245, 7162281.986594875343144 ], [ 681565.63332665793132, 7162239.508356103673577 ], [ 681577.069764524349011, 7162200.297674676403403 ], [ 681585.238646010635421, 7162161.086994033306837 ], [ 681599.942642618203536, 7162131.678981496021152 ], [ 681629.350645294645801, 7162112.073635101318359 ], [ 681676.730203714687377, 7162074.496723329648376 ], [ 681727.377316533820704, 7162028.750919383019209 ], [ 681769.855542347300798, 7161999.342900179326534 ], [ 681794.362210448249243, 7161979.737554957158864 ], [ 681823.770216666278429, 7161974.836213057860732 ], [ 681858.079556662356481, 7161966.667313428595662 ], [ 681900.557784838252701, 7161947.06196388695389 ], [ 681967.542686635977589, 7161930.724165008403361 ], [ 682037.79514678393025, 7161922.55525672622025 ], [ 682060.668037871597335, 7161907.851246724836528 ], [ 682077.005810668226331, 7161870.274342405609787 ], [ 682080.273359140148386, 7161837.598776062950492 ], [ 682083.540892588673159, 7161742.839635176584125 ], [ 682083.540877170744352, 7161679.122282357886434 ], [ 682090.892863204120658, 7161613.7711494974792 ], [ 682090.892854900448583, 7161579.461805677041411 ], [ 682099.06173833005596, 7161548.420016447082162 ], [ 682118.667065515182912, 7161502.674219973385334 ], [ 682133.37106169515755, 7161471.632429173216224 ], [ 682146.441278498386964, 7161435.689303936436772 ], [ 682151.342606733436696, 7161409.548850327730179 ], [ 682152.976378989638761, 7161385.042175780981779 ], [ 682146.441261887433939, 7161367.070616312325001 ], [ 682125.202141887624748, 7161352.366616932675242 ], [ 682097.42791230219882, 7161350.732845338061452 ], [ 682051.682123045669869, 7161350.732856342568994 ], [ 681987.964782419148833, 7161386.675993750803173 ], [ 681937.317665313603356, 7161414.450236630626023 ], [ 681896.473217331571504, 7161442.224477153271437 ], [ 681852.361212180927396, 7161466.731161905452609 ], [ 681824.586985750356689, 7161478.167616514489055 ], [ 681772.306086498079821, 7161489.604077011346817 ], [ 681728.194075816427357, 7161491.237865878269076 ], [ 681690.617174732498825, 7161479.801426962949336 ], [ 681664.476717808283865, 7161455.294759081676602 ], [ 681641.603812923422083, 7161412.816529374569654 ], [ 681626.899797796388157, 7161365.436962878331542 ], [ 681626.899783599772491, 7161306.620944919995964 ], [ 681633.434878602158278, 7161233.10092091280967 ], [ 681625.265971891349182, 7161167.749791819602251 ], [ 681617.097068730508909, 7161117.102667218074203 ], [ 681571.351274364744313, 7161095.863560603931546 ], [ 681523.971703783608973, 7161082.793345759622753 ], [ 681491.296138072153553, 7161074.624462215229869 ], [ 681440.649013879243284, 7161072.990696081891656 ], [ 681399.804558806936257, 7161071.356927594169974 ], [ 681386.734331734711304, 7161064.821817623451352 ], [ 681383.466770635219291, 7161045.216479094699025 ], [ 681404.705883914604783, 7161032.146247798576951 ], [ 681440.648999695433304, 7161014.174678146839142 ], [ 681515.802787625230849, 7160978.231538061052561 ], [ 681576.252570288372226, 7160935.753288391977549 ], [ 681636.702352946740575, 7160893.275038719177246 ], [ 681675.91301917086821, 7160850.796794144436717 ], [ 681708.588573827059008, 7160813.219885963946581 ], [ 681759.235683401930146, 7160754.403855889104307 ], [ 681800.080132140312344, 7160729.897171951830387 ], [ 681844.192138433689252, 7160710.291822052560747 ], [ 681886.670370487961918, 7160707.024255293421447 ], [ 681934.049939471296966, 7160713.559357009828091 ], [ 681981.429506083251908, 7160710.291789068840444 ], [ 682030.442845743964426, 7160685.785103154368699 ], [ 682076.188624284928665, 7160641.673078721389174 ], [ 682126.835740541690029, 7160610.631279310211539 ], [ 682174.215303981793113, 7160594.293485160917044 ], [ 682215.059754677582532, 7160577.955692578107119 ], [ 682259.171756597934291, 7160540.378781633451581 ], [ 682286.945977446390316, 7160506.069431172683835 ], [ 682303.283749408903532, 7160465.224970370531082 ], [ 682321.255295200739056, 7160406.408948154188693 ], [ 682340.860614423756488, 7160327.987586257979274 ], [ 682357.19836737238802, 7160208.721768297255039 ], [ 682353.930786055512726, 7160105.793737821280956 ], [ 682365.367204444366507, 7159986.527921079657972 ], [ 682373.53607437829487, 7159899.937670612707734 ], [ 682378.437394278473221, 7159839.48787331674248 ], [ 682408.662275638896972, 7159777.404291648417711 ], [ 682426.633822594420053, 7159723.489604303613305 ], [ 682482.182259458233602, 7159635.265564171597362 ], [ 682513.224033064092509, 7159586.252208499237895 ], [ 682544.26581063028425, 7159553.576635560020804 ], [ 682570.406254434608854, 7159524.168620346114039 ], [ 682588.377804147079587, 7159481.690380921587348 ], [ 682599.814244294422679, 7159452.282369256950915 ], [ 682621.053347594221123, 7159398.36768114566803 ], [ 682635.757338157854974, 7159344.452994609251618 ], [ 682642.292436613235623, 7159285.636975234374404 ], [ 682652.095091037452221, 7159225.187176803126931 ], [ 682647.193749745725654, 7159197.412947360426188 ], [ 682640.658635030151345, 7159189.244057578966022 ], [ 682619.41951389121823, 7159169.638723441399634 ], [ 682606.349284859490581, 7159154.934722147881985 ], [ 682606.349278911715373, 7159130.428048072382808 ], [ 682629.222163953119889, 7159091.217364029958844 ], [ 682642.292385845794342, 7159076.513356431387365 ], [ 682655.36260853195563, 7159065.076905374415219 ], [ 682679.869274132535793, 7159035.668890571221709 ], [ 682699.474607165786438, 7159014.429768308997154 ], [ 682717.446158049162477, 7158976.852863725274801 ], [ 682758.29060070659034, 7158927.839505720883608 ], [ 682800.768821540754288, 7158878.826147323474288 ], [ 682848.148380489903502, 7158844.516792183741927 ], [ 682890.626610449515283, 7158833.080334022641182 ], [ 682913.499504207167774, 7158829.812771951779723 ], [ 682944.541285298764706, 7158811.841203466057777 ], [ 682970.681731842923909, 7158793.869636164046824 ], [ 683021.328847143799067, 7158759.560280227102339 ], [ 683055.638181016198359, 7158726.884706511162221 ], [ 683088.313736307318322, 7158692.57535491976887 ], [ 683124.256848754244857, 7158661.533559076488018 ], [ 683152.031072675832547, 7158640.294434836134315 ], [ 683178.171520402655005, 7158627.224202344194055 ], [ 683230.452418240834959, 7158610.886406982317567 ], [ 683258.226643748348579, 7158596.18239582143724 ], [ 683276.198200165876187, 7158581.478387031704187 ], [ 683297.437311751302332, 7158561.873042641207576 ], [ 683313.775087994756177, 7158539.000142896547914 ], [ 683325.211524915299378, 7158496.521905094385147 ], [ 683343.183076948160306, 7158463.846335334703326 ], [ 683369.323509533074684, 7158388.692528570070863 ], [ 683382.393717062077485, 7158315.172503245994449 ], [ 683388.928820228436962, 7158275.961823184043169 ], [ 683395.463925783988088, 7158246.553812744095922 ], [ 683426.505701661342755, 7158207.343126743100584 ], [ 683451.012367999181151, 7158181.202668488025665 ], [ 683472.251477179117501, 7158151.794654484838247 ], [ 683478.786583925713785, 7158127.287978856824338 ], [ 683478.786578346858732, 7158104.415083082392812 ], [ 683472.251456858240999, 7158068.471962738782167 ], [ 683433.857656866894104, 7158016.191067423671484 ], [ 683396.280753140104935, 7157993.318180760368705 ], [ 683353.802514476003125, 7157968.811517015099525 ], [ 683329.295836196979508, 7157945.938627183437347 ], [ 683326.028274660347961, 7157924.699510473757982 ], [ 683330.929603228578344, 7157900.192835250869393 ], [ 683352.168707228032872, 7157849.545703765936196 ], [ 683375.041591394226998, 7157807.067463230341673 ], [ 683386.478029096149839, 7157767.856782007031143 ], [ 683433.857585956458934, 7157725.378535537049174 ], [ 683443.660245473962277, 7157686.167854713276029 ], [ 683443.660236710100435, 7157650.224732801318169 ], [ 683456.730448998743668, 7157596.310046773403883 ], [ 683463.265550959156826, 7157552.198031944222748 ], [ 683504.109991496545263, 7157495.015782650560141 ], [ 683523.715320482151583, 7157457.438877725973725 ], [ 683544.954426845884882, 7157416.594415875151753 ], [ 683564.55974306887947, 7157326.736606381833553 ], [ 683575.996178760309704, 7157279.357033843174577 ], [ 683577.629950958071277, 7157254.850359429605305 ], [ 683564.559716756688431, 7157218.907240711152554 ], [ 683554.757040109718218, 7157187.865456005558372 ], [ 683538.419251546263695, 7157160.091229422017932 ], [ 683525.34902133513242, 7157140.485893381759524 ], [ 683515.546345487702638, 7157112.711665213108063 ], [ 683515.546340306522325, 7157091.472547738812864 ], [ 683515.546333928825334, 7157065.332095460966229 ], [ 683513.912546982639469, 7157029.388973978348076 ], [ 683499.208533812779933, 7156990.178299132734537 ], [ 683489.405856773024425, 7156957.502736169844866 ], [ 683456.730279662646353, 7156901.954283013939857 ], [ 683435.491155379801057, 7156869.278722825460136 ], [ 683425.688482725876383, 7156854.574720799922943 ], [ 683424.054700166219845, 7156836.603160262107849 ], [ 683430.589808893972076, 7156820.265376011840999 ], [ 683458.364035128615797, 7156808.828921410255134 ], [ 683476.335595084470697, 7156808.828917052596807 ], [ 683504.109824107494205, 7156808.82891031820327 ], [ 683523.715159054263495, 7156795.758679430931807 ], [ 683535.151600319542922, 7156771.252002656459808 ], [ 683549.85559873690363, 7156750.012881623581052 ], [ 683559.65826501219999, 7156738.576431381516159 ], [ 683595.601381731685251, 7156725.506196528673172 ], [ 683631.544497253373265, 7156707.534626875072718 ], [ 683662.586277044494636, 7156684.661723612807691 ], [ 683693.628053242107853, 7156647.084815949201584 ], [ 683765.51427708636038, 7156581.733667843043804 ], [ 683812.893839839613065, 7156563.762095406651497 ], [ 683848.836955747334287, 7156547.4243040131405 ], [ 683870.076067657675594, 7156529.452737927436829 ], [ 683879.878730332711712, 7156503.312283287756145 ], [ 683879.878725939313881, 7156485.340722359716892 ], [ 683883.146273905411363, 7156451.031377980485559 ], [ 683888.047594458679669, 7156393.849137483164668 ], [ 683889.681363050127402, 7156354.638458710163832 ], [ 683894.582691188901663, 7156328.498005267232656 ], [ 683912.5542455422692, 7156305.625105181708932 ], [ 683945.229805481503718, 7156290.921092849224806 ], [ 683982.806701948167756, 7156284.385970650240779 ], [ 684017.116038464009762, 7156263.146844855509698 ], [ 684048.157820222317241, 7156248.442832916975021 ], [ 684069.396933720563538, 7156237.006379891186953 ], [ 684082.467155935242772, 7156223.936150587163866 ], [ 684084.100928513798863, 7156201.063254475593567 ], [ 684080.833364565391093, 7156170.021468229591846 ], [ 684069.39690893352963, 7156135.712127439677715 ], [ 684056.326672328286804, 7156089.966339195147157 ], [ 684051.425327805336565, 7156049.121883759275079 ], [ 684039.171989885973744, 7156042.586773678660393 ], [ 684039.171985088498332, 7156022.981434499844909 ], [ 684042.439537443220615, 7156006.643651055172086 ], [ 684042.439532645861618, 7155987.038311876356602 ], [ 684042.439528248971328, 7155969.066750962287188 ], [ 684042.439524251269177, 7155952.728968314826488 ], [ 684029.369294047588482, 7155933.123632315546274 ], [ 684008.130174162564799, 7155918.419633096083999 ], [ 683968.919495541835204, 7155908.616973044350743 ], [ 683926.441262168809772, 7155905.349426840431988 ], [ 683888.864362126914784, 7155897.180544649250805 ], [ 683848.019906531786546, 7155892.279219780117273 ], [ 683821.879454919137061, 7155889.011669603176415 ], [ 683802.274115211796016, 7155882.476561307907104 ], [ 683779.401217157603242, 7155867.772562480531633 ], [ 683772.86609966494143, 7155848.167224891483784 ], [ 683777.767428603488952, 7155825.2943279966712 ], [ 683803.907871830277145, 7155794.252534622326493 ], [ 683828.414532485650852, 7155745.239180736243725 ], [ 683841.484751901123673, 7155720.732503594830632 ], [ 683903.568306191358715, 7155653.747579673305154 ], [ 683932.976298566791229, 7155593.297776754945517 ], [ 683981.989640626125038, 7155580.227538726292551 ], [ 683996.693643403006718, 7155576.959978622384369 ], [ 684022.834089009556919, 7155555.720854832790792 ], [ 684053.875864343368448, 7155514.876390684396029 ], [ 684060.410970247001387, 7155487.102158609777689 ], [ 684073.481182452989742, 7155433.187472727149725 ], [ 684104.522953378851525, 7155374.371447682380676 ], [ 684127.395824628416449, 7155279.612302836030722 ], [ 684140.466030425741337, 7155199.557164754718542 ], [ 684137.19846327661071, 7155155.445152444764972 ], [ 684143.733565174858086, 7155111.333137752488256 ], [ 684158.4375615415629, 7155081.925125442445278 ], [ 684169.873989558429457, 7155003.503766043111682 ], [ 684179.676643000100739, 7154939.786411412060261 ], [ 684192.746853586519137, 7154879.336612515151501 ], [ 684197.64817890455015, 7154841.759711285121739 ], [ 684218.887281155446544, 7154784.57746693212539 ], [ 684245.027717122575268, 7154724.127664866857231 ], [ 684287.505936019355431, 7154668.579193610697985 ], [ 684315.280158557812683, 7154642.438734652474523 ], [ 684349.589493787381798, 7154616.298274103552103 ], [ 684372.462384606711566, 7154601.594264172017574 ], [ 684390.43393850105349, 7154577.087585864588618 ], [ 684392.067709465045482, 7154547.679576753638685 ], [ 684392.067700653220527, 7154511.736454997211695 ], [ 684382.265018798992969, 7154459.455553011968732 ], [ 684378.997454443131573, 7154426.77998858038336 ], [ 684365.927215845324099, 7154372.865309135988355 ], [ 684365.927200225181878, 7154309.147956947796047 ], [ 684365.927184606087394, 7154245.430604763329029 ], [ 684364.29339682252612, 7154206.219926895573735 ], [ 684367.560939150396734, 7154149.037686966359615 ], [ 684375.729818395804614, 7154101.658115411177278 ], [ 684396.968924616230652, 7154060.813653714954853 ], [ 684419.841804200434126, 7154000.363852497190237 ], [ 684444.348463153815828, 7153944.815385667607188 ], [ 684486.826685596490279, 7153903.970918800681829 ], [ 684512.967129528522491, 7153876.196682000532746 ], [ 684543.192019286216237, 7153850.056222463026643 ], [ 684575.867578304954804, 7153832.084653630852699 ], [ 684615.078248402918689, 7153807.577970162034035 ], [ 684662.457801331183873, 7153750.39571949467063 ], [ 684696.767129285610281, 7153694.847250281833112 ], [ 684713.104906181339175, 7153675.241907173767686 ], [ 684749.048019523150288, 7153649.101446241140366 ], [ 684791.526242737192661, 7153611.524535892531276 ], [ 684837.272021082462743, 7153569.046289965510368 ], [ 684879.750244688475505, 7153533.103157876990736 ], [ 684914.059578642132692, 7153502.061362558975816 ], [ 684923.862244853866287, 7153490.624912347644567 ], [ 684933.664908655220643, 7153469.385792579501867 ], [ 684936.932459371164441, 7153446.512896150350571 ], [ 684936.932454952504486, 7153428.541335295885801 ], [ 684900.005704960320145, 7153383.041060969233513 ], [ 684892.670692941290326, 7153391.371814988553524 ], [ 684842.790686283376999, 7153408.001831661909819 ], [ 684826.160673710284755, 7153371.421825857833028 ], [ 684829.480662983492948, 7153324.861812490969896 ], [ 684829.480640098103322, 7153231.741787387058139 ], [ 684832.810619564959779, 7153145.281763274222612 ], [ 684819.510608530254103, 7153112.02175756264478 ], [ 684746.340585443889722, 7153082.091767374426126 ], [ 684683.150559606263414, 7153032.201769368723035 ], [ 684536.83050775853917, 7152949.061782691627741 ], [ 684476.960486740921624, 7152915.811788348481059 ], [ 684420.430472153006122, 7152905.831799445673823 ], [ 684343.94044838892296, 7152875.90181003510952 ], [ 684280.472043909598142, 7152866.178051890805364 ], [ 684217.675946322386153, 7152895.030333053320646 ], [ 684157.700416546547785, 7152909.161864342167974 ], [ 684028.000382180907764, 7152882.55188874527812 ], [ 683961.490367899765261, 7152882.551904921419919 ], [ 683851.740343519835733, 7152879.221930705942214 ], [ 683785.230325989774428, 7152865.921943288296461 ], [ 683712.070294034550898, 7152799.411943171173334 ], [ 683685.46027207840234, 7152732.901931749656796 ], [ 683645.722165464423597, 7152604.810621369630098 ], [ 683512.530166001291946, 7152450.221897775307298 ], [ 683414.904001879040152, 7152402.844816390424967 ], [ 683347.016316248802468, 7152382.478527542203665 ], [ 683289.311781893949956, 7152358.717852001078427 ], [ 683223.200070011080243, 7152310.541930424049497 ], [ 683150.030049495049752, 7152290.581942789256573 ], [ 683013.680009806528687, 7152247.351964194327593 ], [ 682913.909972292021848, 7152180.841970493085682 ], [ 682844.069951701210812, 7152157.561981135979295 ], [ 682810.81994540093001, 7152160.881990061141551 ], [ 682784.209951031953096, 7152207.442008974030614 ], [ 682767.579958791960962, 7152254.002025477588177 ], [ 682717.699952973052859, 7152273.962042881175876 ], [ 682637.879943975131027, 7152307.212071075104177 ], [ 682551.419927899958566, 7152317.192094622179866 ], [ 682488.229903890518472, 7152273.962098272517323 ], [ 682391.779867934528738, 7152210.77210458740592 ], [ 682305.319842192460783, 7152180.842117405496538 ], [ 682258.75981692399364, 7152117.652111688628793 ], [ 682198.899793658405542, 7152074.42211452499032 ], [ 682092.47975562280044, 7152011.23212322127074 ], [ 681912.889704400207847, 7151958.022152179852128 ], [ 681819.769666835083626, 7151884.862154982052743 ], [ 681749.929622192052193, 7151761.8121388386935 ], [ 681733.309594537131488, 7151662.042116150259972 ], [ 681706.699574402417056, 7151602.182106541469693 ], [ 681713.349565368844196, 7151558.942093385383487 ], [ 681736.629561485373415, 7151522.362078019417822 ], [ 681763.239553484134376, 7151465.822056522592902 ], [ 681756.589538405882195, 7151409.292043024674058 ], [ 681713.349520366638899, 7151372.712043645791709 ], [ 681656.819510751985945, 7151382.68205988407135 ], [ 681596.949501231778413, 7151395.992077814415097 ], [ 681550.399498554994352, 7151425.922096982598305 ], [ 681414.039467939641327, 7151419.272127917967737 ], [ 681380.789455250371248, 7151395.992129676043987 ], [ 681214.509393432061188, 7151286.242140235379338 ], [ 681098.109361480572261, 7151256.31216012686491 ], [ 681008.319340797839686, 7151249.662179843522608 ], [ 680865.309312802972272, 7151259.632216712459922 ], [ 680725.639293510350399, 7151302.872261634096503 ], [ 680632.519276109640487, 7151312.842286536470056 ], [ 680486.18923542345874, 7151272.942310819402337 ], [ 680363.13920607813634, 7151259.632336619310081 ], [ 680296.629189551575109, 7151249.662349814549088 ], [ 680206.829167278949171, 7151236.352367661893368 ], [ 680090.439132990897633, 7151196.452384738251567 ], [ 679950.759086604346521, 7151126.612399359233677 ], [ 679880.919060635729693, 7151080.052403558045626 ], [ 679797.779025492724031, 7151006.892403827048838 ], [ 679701.338985954993404, 7150927.07240548171103 ], [ 679631.498954459792003, 7150857.232403472065926 ], [ 679521.748918490600772, 7150804.022415362298489 ], [ 679451.908894961234182, 7150767.44242219813168 ], [ 679406.13605575368274, 7150714.139631478115916 ], [ 679328.858845887123607, 7150670.992425721138716 ], [ 679252.368808288825676, 7150581.202419973909855 ], [ 679246.646683704224415, 7150576.22688926383853 ], [ 679222.400519631104544, 7150586.618109807372093 ], [ 679196.260074063320644, 7150607.857233289629221 ], [ 679161.95073884120211, 7150633.997693464159966 ], [ 679130.908956831553951, 7150647.067926840856671 ], [ 679091.698286334285513, 7150669.940831668674946 ], [ 679068.825397868873551, 7150694.44751088321209 ], [ 679052.48762167012319, 7150717.320410293526947 ], [ 679001.840515682124533, 7150789.206665426492691 ], [ 678980.601408097310923, 7150825.149792026728392 ], [ 678946.292077912483364, 7150872.529369493946433 ], [ 678898.912518126540817, 7150901.937389266677201 ], [ 678871.13829476328101, 7150924.810291385278106 ], [ 678862.969410545192659, 7150952.584523629397154 ], [ 678869.504530590493232, 7150983.626308904960752 ], [ 678879.307205021614209, 7151006.499202139675617 ], [ 678902.18010516546201, 7151031.005870538763702 ], [ 678915.25033709523268, 7151058.780097763054073 ], [ 678923.419233364053071, 7151081.652991387993097 ], [ 678921.785464917076752, 7151122.497448122128844 ], [ 678903.813916370389052, 7151169.877021744847298 ], [ 678866.237034496269189, 7151236.861939056776464 ], [ 678830.29393233533483, 7151310.381969003006816 ], [ 678800.885940502164885, 7151374.099327883683145 ], [ 678778.013053557602689, 7151405.141120128333569 ], [ 678776.379282383131795, 7151434.549129100516438 ], [ 678776.379290928132832, 7151470.492250705137849 ], [ 678776.379297921201214, 7151499.900259295478463 ], [ 678773.111748579773121, 7151529.308268655091524 ], [ 678760.041529074311256, 7151553.814945569261909 ], [ 678732.267305683344603, 7151576.687847703695297 ], [ 678719.197084623505361, 7151594.65941159799695 ], [ 678706.126869774190709, 7151638.771427575498819 ], [ 678693.05665104277432, 7151666.545661002397537 ], [ 678671.817539924755692, 7151687.784783337265253 ], [ 678650.578428025357425, 7151705.756349163129926 ], [ 678637.508208903716877, 7151731.896804336458445 ], [ 678640.775770669104531, 7151754.769699141383171 ], [ 678645.677112157456577, 7151784.177706582471728 ], [ 678660.38112497376278, 7151823.388381242752075 ], [ 678662.014909352525137, 7151849.528832947835326 ], [ 678655.479799400782213, 7151860.965282282792032 ], [ 678629.339349891874008, 7151865.866623222827911 ], [ 678604.832679327228107, 7151874.035520289093256 ], [ 678565.62200681027025, 7151888.739533845335245 ], [ 678528.045110518345609, 7151895.274655738845468 ], [ 678497.00332534359768, 7151895.274663063697517 ], [ 678464.327758512226865, 7151880.570666471496224 ], [ 678430.018417003797367, 7151880.570674564689398 ], [ 678394.075301590608433, 7151898.542243855074048 ], [ 678345.061964327120222, 7151931.217820528894663 ], [ 678330.357966633979231, 7151955.724497832357883 ], [ 678338.526867931592278, 7151999.836508819833398 ], [ 678340.160653459257446, 7152030.878295296803117 ], [ 678340.160660435096361, 7152060.286303907632828 ], [ 678340.160666247247718, 7152084.792977750301361 ], [ 678320.55533520958852, 7152114.200990984216332 ], [ 678315.654010005411692, 7152153.411670289933681 ], [ 678315.65401775308419, 7152186.087235418148339 ], [ 678310.752694097114727, 7152231.833027753978968 ], [ 678309.118926389026456, 7152275.945041066035628 ], [ 678327.090494372649118, 7152310.254380218684673 ], [ 678343.428281476488337, 7152333.12727196328342 ], [ 678345.062066231621429, 7152360.901501942425966 ], [ 678335.259406521334313, 7152400.112182416021824 ], [ 678314.020300794043578, 7152444.224200360476971 ], [ 678302.583870660862885, 7152516.110446367412806 ], [ 678304.217658512992784, 7152556.954902410507202 ], [ 678304.217668584780768, 7152599.433137101121247 ], [ 678322.189246647758409, 7152676.220710961148143 ], [ 678322.189257495105267, 7152721.966502174735069 ], [ 678331.991933094104752, 7152749.740730242803693 ], [ 678353.231055877869949, 7152777.514955615624785 ], [ 678387.540404403232969, 7152806.922956164926291 ], [ 678423.483534976257943, 7152852.668738908134401 ], [ 678462.694223831640556, 7152906.583412170410156 ], [ 678495.369803504203446, 7152975.202091300860047 ], [ 678520.693374826223589, 7153016.046541780233383 ], [ 678537.031162727740593, 7153042.18699005804956 ], [ 678543.566279285121709, 7153058.524771097116172 ], [ 678535.397395417094231, 7153087.932781677693129 ], [ 678519.059620702057146, 7153117.340794184245169 ], [ 678494.552952421014197, 7153135.312360809184611 ], [ 678491.285401897504926, 7153159.819035459309816 ], [ 678491.285406938521191, 7153181.058152819052339 ], [ 678497.820524271577597, 7153200.663490381091833 ], [ 678527.228539085830562, 7153233.339048616588116 ], [ 678543.566327768843621, 7153262.747053418308496 ], [ 678556.636558947502635, 7153287.253724213689566 ], [ 678559.904121882980689, 7153315.027953843586147 ], [ 678556.636571359820664, 7153339.534628497436643 ], [ 678540.298795863986015, 7153365.675084499642253 ], [ 678517.425907296943478, 7153390.181763781234622 ], [ 678488.01790216891095, 7153398.350662015378475 ], [ 678465.145009722560644, 7153406.519558706320822 ], [ 678437.370782765094191, 7153414.68845655489713 ], [ 678414.497891479171813, 7153427.758688022382557 ], [ 678389.991220861207694, 7153435.927585097029805 ], [ 678362.216995836817659, 7153452.265374236740172 ], [ 678326.273879572399892, 7153466.969387043267488 ], [ 678308.302324346383102, 7153486.574730392545462 ], [ 678288.696992496028543, 7153512.715187160298228 ], [ 678288.697002953384072, 7153556.827200163155794 ], [ 678288.697011087322608, 7153591.136543611064553 ], [ 678290.330794680630788, 7153614.00943886116147 ], [ 678285.429465977591462, 7153638.516113908961415 ], [ 678275.626802373444661, 7153661.389011854305863 ], [ 678233.965462499647401, 7153676.0930260065943 ], [ 678220.895239067263901, 7153684.261920383200049 ], [ 678209.458793807192706, 7153692.430814377963543 ], [ 678202.923682670574635, 7153698.965928955003619 ], [ 678199.656129813054577, 7153713.669934063218534 ], [ 678199.656133296783082, 7153728.373938400298357 ], [ 678201.28991572605446, 7153746.345498872920871 ], [ 678214.360148063511588, 7153775.753504472784698 ], [ 678235.599271644838154, 7153806.795286405831575 ], [ 678235.599276678403839, 7153828.034403787925839 ], [ 678214.36016355000902, 7153841.104634870775044 ], [ 678184.952157626859844, 7153846.00597657635808 ], [ 678162.07926322799176, 7153846.005981963127851 ], [ 678137.572586400900036, 7153828.034426876343787 ], [ 678083.657901332131587, 7153805.161543928086758 ], [ 678059.151222961721942, 7153780.654875796288252 ], [ 678011.771648263209499, 7153747.97932174988091 ], [ 677959.490743695409037, 7153734.909107971936464 ], [ 677928.448959216708317, 7153738.176671791821718 ], [ 677881.069395346217789, 7153751.246909011155367 ], [ 677856.562727801967412, 7153772.486032152548432 ], [ 677830.422285947715864, 7153810.062938275747001 ], [ 677783.042729410575703, 7153854.174962431192398 ], [ 677761.803619746235199, 7153881.94919784553349 ], [ 677719.325392309343442, 7153903.188325204886496 ], [ 677662.143161711050197, 7153926.061234278604388 ], [ 677616.397377539426088, 7153945.666584140621126 ], [ 677588.62315325147938, 7153965.271929785609245 ], [ 677542.877367148641497, 7153976.70838834438473 ], [ 677504.483577801845968, 7153966.905727790668607 ], [ 677463.639123897184618, 7153968.539515633136034 ], [ 677424.428447778802365, 7153968.539524830877781 ], [ 677393.386658280040137, 7153950.567971247248352 ], [ 677365.612427822197787, 7153944.03286471683532 ], [ 677347.640867935144342, 7153944.032868929207325 ], [ 677326.401754787308164, 7153957.10309999063611 ], [ 677290.45863886422012, 7153973.440891016274691 ], [ 677288.824862232431769, 7153979.976004442200065 ], [ 677310.063981544692069, 7153993.046225547790527 ], [ 677337.838211619178765, 7153997.947553817182779 ], [ 677391.752893210272305, 7154006.11643248051405 ], [ 677478.343140935525298, 7154025.721751298755407 ], [ 677488.145813821349293, 7154042.059531601145864 ], [ 677504.483605950605124, 7154086.171540804207325 ], [ 677520.821394609287381, 7154115.579545659944415 ], [ 677533.891630011727102, 7154158.057777371257544 ], [ 677525.722741851583123, 7154169.494227113202214 ], [ 677509.384965529781766, 7154192.367126598022878 ], [ 677509.384970927610993, 7154215.240022249519825 ], [ 677530.624094107770361, 7154244.648025961592793 ], [ 677569.834786826046184, 7154314.900481980293989 ], [ 677571.468574255821295, 7154354.111159864813089 ], [ 677569.834802641300485, 7154381.885390689596534 ], [ 677553.497034029103816, 7154437.433855406939983 ], [ 677527.356591751449741, 7154473.376983292400837 ], [ 677484.878366586752236, 7154504.418780224397779 ], [ 677421.1610274851555, 7154545.263251706957817 ], [ 677383.584138756501488, 7154584.473938796669245 ], [ 677354.176145513076335, 7154643.289963115006685 ], [ 677344.37348340859171, 7154672.697974123992026 ], [ 677328.035706684575416, 7154693.937095358967781 ], [ 677306.79659466969315, 7154711.908661216497421 ], [ 677303.529042559908703, 7154729.880222864449024 ], [ 677300.261491605895571, 7154752.753119298256934 ], [ 677298.627721905941144, 7154788.696241445839405 ], [ 677298.627730377367698, 7154824.639363212510943 ], [ 677318.233081554761156, 7154880.187819534912705 ], [ 677318.233090798486955, 7154919.398497831076384 ], [ 677324.768220826052129, 7154992.918518110178411 ], [ 677324.768228530767374, 7155025.594083363190293 ], [ 677314.965566804283299, 7155056.635872650891542 ], [ 677288.825122952694073, 7155086.043887505307794 ], [ 677270.853566889418289, 7155102.381674342788756 ], [ 677257.783347657765262, 7155128.5221296120435 ], [ 677252.882020450779237, 7155159.563917756080627 ], [ 677264.318474215455353, 7155187.338145545683801 ], [ 677282.290041448315606, 7155218.379928330890834 ], [ 677293.726495215669274, 7155246.154156124219298 ], [ 677288.82516877958551, 7155280.463500798679888 ], [ 677277.388731184531935, 7155321.30796005949378 ], [ 677257.783400021144189, 7155350.715973393060267 ], [ 677234.910514817340299, 7155389.926657072268426 ], [ 677233.276746652205475, 7155432.40489230491221 ], [ 677228.375426754704677, 7155494.48846746981144 ], [ 677228.375432144617662, 7155517.361363161355257 ], [ 677233.27677128824871, 7155536.966701177880168 ], [ 677231.643000813317485, 7155569.64226683601737 ], [ 677231.643007357371971, 7155597.41649732273072 ], [ 677238.178126216749661, 7155623.556948013603687 ], [ 677254.515912974951789, 7155644.796061615459621 ], [ 677282.290147729218006, 7155669.302729070186615 ], [ 677306.796826905221678, 7155697.076953815296292 ], [ 677347.641294000204653, 7155750.991626963019371 ], [ 677401.555998066090979, 7155853.91964497603476 ], [ 677440.766692011267878, 7155929.073435949161649 ], [ 677453.836929752258584, 7155981.35433735512197 ], [ 677462.822719356860034, 7156022.198791865259409 ], [ 677464.456503699882887, 7156048.339243721216917 ], [ 677433.414727217168547, 7156085.916151092387736 ], [ 677428.513396927970462, 7156103.887713157571852 ], [ 677428.513403864577413, 7156133.295721927657723 ], [ 677435.048524663434364, 7156167.605063961818814 ], [ 677453.020091540063731, 7156197.013068519532681 ], [ 677456.287655217223801, 7156228.054854794405401 ], [ 677456.287668706499971, 7156285.237094081938267 ], [ 677459.555231612175703, 7156313.01132382825017 ], [ 677459.555244716699235, 7156368.559784855693579 ], [ 677461.1890344574349, 7156417.573132440447807 ], [ 677466.090384790906683, 7156484.558040185831487 ], [ 677490.597067855298519, 7156528.670047618448734 ], [ 677508.568638600292616, 7156574.415834849700332 ], [ 677555.948214995441958, 7156613.626502119004726 ], [ 677588.623790112091228, 7156662.639842436648905 ], [ 677596.792684086132795, 7156675.710066651925445 ], [ 677623.750040217651986, 7156744.328747506253421 ], [ 677643.35538297961466, 7156763.934082103893161 ], [ 677651.524284284794703, 7156808.046093381941319 ], [ 677659.693189835990779, 7156870.12966559547931 ], [ 677666.228311036480591, 7156906.072785928845406 ], [ 677677.664766000118107, 7156938.748348577879369 ], [ 677703.80522109568119, 7156956.719903377816081 ], [ 677720.143005191581324, 7156966.522569140419364 ], [ 677733.213232547626831, 7156974.691457405686378 ], [ 677733.213234863127582, 7156984.494127007201314 ], [ 677729.945679664844647, 7156989.395462575368583 ], [ 677711.974119704565965, 7156989.395466796122491 ], [ 677690.735003388836049, 7156989.395471783354878 ], [ 677674.397221606574021, 7156989.395475621335208 ], [ 677664.594554852927104, 7156999.198147523216903 ], [ 677646.6229999094503, 7157020.437269216403365 ], [ 677627.017667942913249, 7157046.577726089395583 ], [ 677607.412337518413551, 7157079.253296033479273 ], [ 677604.144790419377387, 7157118.463975213468075 ], [ 677610.679912776686251, 7157159.308430360630155 ], [ 677623.750144762219861, 7157187.082657837308943 ], [ 677625.383929884876125, 7157216.490666268393397 ], [ 677610.679933606996201, 7157247.532456800341606 ], [ 677584.539490075083449, 7157278.574250020086765 ], [ 677553.497711233678274, 7157306.348487852141261 ], [ 677537.159939855104312, 7157350.46050491463393 ], [ 677511.836387334857136, 7157389.671189281158149 ], [ 677474.25949384260457, 7157409.276537309400737 ], [ 677459.55549254314974, 7157419.079210365191102 ], [ 677449.752826166106388, 7157430.515660539269447 ], [ 677448.1190549232997, 7157459.923669744282961 ], [ 677446.48528252588585, 7157484.430344147607684 ], [ 677446.485290233278647, 7157517.105909509584308 ], [ 677457.92174481053371, 7157548.147693922743201 ], [ 677467.724417740479112, 7157564.485474305227399 ], [ 677508.568878394318745, 7157590.625917017459869 ], [ 677544.512003740295768, 7157613.498804342932999 ], [ 677559.216014683712274, 7157644.540587989613414 ], [ 677560.849803660064936, 7157690.286379123106599 ], [ 677552.680925871944055, 7157745.83484216965735 ], [ 677552.680937054101378, 7157793.214411964640021 ], [ 677552.680952865164727, 7157860.199320985004306 ], [ 677557.582299743546173, 7157912.480224437080324 ], [ 677549.413418868556619, 7157954.958461348898709 ], [ 677528.174312548479065, 7157997.436701329424977 ], [ 677513.47031663544476, 7158030.112270160578191 ], [ 677470.175209115375765, 7158090.562076279893517 ], [ 677421.161874873214401, 7158137.941657586023211 ], [ 677404.824102312442847, 7158177.152339884079993 ], [ 677372.148549483739771, 7158222.898139091208577 ], [ 677334.571673276019283, 7158316.02350927516818 ], [ 677305.163679493707605, 7158373.205755611881614 ], [ 677303.529910938814282, 7158414.050212746486068 ], [ 677308.431254724040627, 7158453.260890079662204 ], [ 677313.332602360518649, 7158508.809350118041039 ], [ 677321.501503279199824, 7158551.28758323378861 ], [ 677332.937955941073596, 7158574.160476338118315 ], [ 677334.57173913018778, 7158595.399593473412097 ], [ 677329.67041190143209, 7158626.441381761804223 ], [ 677319.867751667159609, 7158664.018284281715751 ], [ 677319.867762449430302, 7158709.764075859449804 ], [ 677331.304220889811404, 7158757.14364302996546 ], [ 677331.304225896252319, 7158778.382760553620756 ], [ 677332.938007929478772, 7158794.720542879775167 ], [ 677324.7691235645907, 7158822.494775398634374 ], [ 677306.797567027970217, 7158837.198784049600363 ], [ 677265.953117862110958, 7158860.071689411066473 ], [ 677234.911333171417937, 7158863.339253224432468 ], [ 677198.968213161919266, 7158863.339261640794575 ], [ 677149.954870388144627, 7158874.77572101354599 ], [ 677128.715754788601771, 7158878.043282524682581 ], [ 677107.476640342501923, 7158886.212178852409124 ], [ 677096.040194605127908, 7158892.74729461222887 ], [ 677087.871305616339669, 7158900.916187879629433 ], [ 677086.237530508777127, 7158913.98641443066299 ], [ 677096.040203449199907, 7158930.32419485040009 ], [ 677122.180661291000433, 7158959.732197615318 ], [ 677161.391344594070688, 7158989.14019731990993 ], [ 677171.19401907583233, 7159012.013090822845697 ], [ 677174.461582750431262, 7159043.054877215996385 ], [ 677174.461593138286844, 7159087.166890546679497 ], [ 677171.194047545781359, 7159132.912682915106416 ], [ 677148.32116221904289, 7159172.123366791754961 ], [ 677087.871379065793008, 7159212.967837732285261 ], [ 677051.928263269830495, 7159230.93940713070333 ], [ 677027.421592831262387, 7159240.74208249617368 ], [ 676980.042027827817947, 7159250.544763209298253 ], [ 676952.267802175367251, 7159265.248774150386453 ], [ 676932.662469357484952, 7159288.121674541383982 ], [ 676909.789585549151525, 7159333.867471504956484 ], [ 676921.226042051799595, 7159373.078147361055017 ], [ 676944.098950067069381, 7159430.260381544008851 ], [ 676968.60563588514924, 7159485.808837072923779 ], [ 676986.577202822430991, 7159515.216841774061322 ], [ 676989.844769565854222, 7159559.328854369930923 ], [ 676984.943444238975644, 7159598.539534056559205 ], [ 676983.309674894204363, 7159636.116434713825583 ], [ 677006.18257600243669, 7159663.890660002827644 ], [ 677017.619027134263888, 7159680.228440053761005 ], [ 677027.421702389605343, 7159706.368890127167106 ], [ 677025.78793073981069, 7159734.143121149390936 ], [ 677007.816379170399159, 7159770.086247358471155 ], [ 676953.901709467871115, 7159814.198273339308798 ], [ 676929.395048612030223, 7159864.845405537635088 ], [ 676896.71949606470298, 7159912.224983101710677 ], [ 676891.818174571264535, 7159967.773445542901754 ], [ 676888.550627035787329, 7160005.35034659691155 ], [ 676882.015521210152656, 7160034.758357049897313 ], [ 676874.663529750076123, 7160078.870372155681252 ], [ 676882.832426434149966, 7160103.377044353634119 ], [ 676887.733764061238617, 7160116.44726939778775 ], [ 676900.803992614615709, 7160129.517492532730103 ], [ 676917.141776384785771, 7160137.686380084604025 ], [ 676956.352457434637472, 7160157.291710205376148 ], [ 676993.929361071554013, 7160180.164597254246473 ], [ 677024.971149278455414, 7160191.601037911139429 ], [ 677051.11160639161244, 7160217.741484181955457 ], [ 677073.984506367938593, 7160240.614374665543437 ], [ 677096.857407882111147, 7160270.02237824909389 ], [ 677116.462751873303205, 7160294.529047774150968 ], [ 677139.335649930173531, 7160309.233046889305115 ], [ 677168.743658421095461, 7160314.134374829009175 ], [ 677193.250333124538884, 7160322.303260463289917 ], [ 677214.489451844012365, 7160332.105925135314465 ], [ 677224.292127113323659, 7160358.246375230140984 ], [ 677232.461027277051471, 7160397.45705190114677 ], [ 677232.461031509679742, 7160415.428612921386957 ], [ 677227.559702341677621, 7160438.301509910263121 ], [ 677211.221930103958584, 7160479.145970599725842 ], [ 677186.715265012346208, 7160511.821541830897331 ], [ 677113.195258958265185, 7160564.102463828399777 ], [ 677039.675253662513569, 7160619.650942374020815 ], [ 676966.155249891337007, 7160681.73453401774168 ], [ 676940.014808517764322, 7160722.578997006639838 ], [ 676949.817488009925, 7160766.69100814498961 ], [ 676962.887724258820526, 7160812.436796797439456 ], [ 676993.929527094122022, 7160885.956811931915581 ], [ 677026.605103511596099, 7160939.871487384662032 ], [ 677059.280679933028296, 7160993.786162840202451 ], [ 677085.421140920603648, 7161036.264391893520951 ], [ 677106.660268502542749, 7161083.643956923857331 ], [ 677106.660277730436064, 7161122.854635547846556 ], [ 677101.758957397891209, 7161183.304432909935713 ], [ 677098.491413327399641, 7161235.585338513366878 ], [ 677087.054973321268335, 7161266.627128438092768 ], [ 677073.98475281894207, 7161287.866249089129269 ], [ 677054.379416107665747, 7161294.401366779580712 ], [ 677020.070075323805213, 7161299.302709633484483 ], [ 676977.591840142617002, 7161289.500049909576774 ], [ 676925.310930844512768, 7161258.458274880424142 ], [ 676840.354453579988331, 7161209.444946447387338 ], [ 676779.904643761576153, 7161137.558716418221593 ], [ 676763.566858435515314, 7161122.854715749621391 ], [ 676737.426407441147603, 7161122.8547218516469 ], [ 676717.821072649443522, 7161137.558730915188789 ], [ 676688.413072952884249, 7161170.234303302131593 ], [ 676667.173970712232403, 7161230.684104477055371 ], [ 676642.667315926868469, 7161307.471689184196293 ], [ 676587.118879405432381, 7161400.597063906490803 ], [ 676572.414886834798381, 7161447.976637359708548 ], [ 676543.006889036507346, 7161488.821101137436926 ], [ 676510.33133064256981, 7161511.694004635326564 ], [ 676448.247766014188528, 7161539.468249815516174 ], [ 676405.769536189036444, 7161552.538485932163894 ], [ 676377.995308524812572, 7161559.073605512268841 ], [ 676348.587305350461975, 7161577.045173410326242 ], [ 676345.319755100412294, 7161603.185626605525613 ], [ 676351.854877043166198, 7161642.396303733810782 ], [ 676355.122451415518299, 7161719.183882 ], [ 676342.869120363611728, 7161742.056780737824738 ], [ 676297.123337209923193, 7161768.197243832983077 ], [ 676243.208662729593925, 7161792.703930548392236 ], [ 676210.533102018176578, 7161805.774164376780391 ], [ 676186.026431484846398, 7161815.576839745976031 ], [ 676153.350871919305064, 7161833.548408402130008 ], [ 676099.436197429196909, 7161858.055095111951232 ], [ 676040.620191807392985, 7161897.265787456184626 ], [ 676003.043302636826411, 7161936.476474860683084 ], [ 675994.874417806277052, 7161962.616929203271866 ], [ 675998.141980297397822, 7161988.757380889728665 ], [ 676035.718883230234496, 7162008.362711488269269 ], [ 676097.802456707926467, 7162018.165366715751588 ], [ 676125.57668974599801, 7162034.503143032081425 ], [ 676164.787370108882897, 7162050.840916687622666 ], [ 676195.829162971233018, 7162081.882696745917201 ], [ 676213.800744859385304, 7162175.008054420351982 ], [ 676213.800754806026816, 7162217.486289657652378 ], [ 676215.434546768548898, 7162276.302307303063571 ], [ 676236.673672797973268, 7162317.146759323775768 ], [ 676266.081687485100701, 7162348.188539769500494 ], [ 676306.926148735918105, 7162375.96276099793613 ], [ 676367.375948652625084, 7162405.37075593136251 ], [ 676409.854188865516335, 7162436.412533331662416 ], [ 676435.994648332358338, 7162472.355649376288056 ], [ 676432.727099996991456, 7162506.664993995800614 ], [ 676395.150207752827555, 7162532.805455218069255 ], [ 676367.375979283708148, 7162536.073018250986934 ], [ 676328.165304635302164, 7162544.241918778046966 ], [ 676284.053298474638723, 7162565.481046682223678 ], [ 676261.180409549968317, 7162589.987726197578013 ], [ 676246.476416169898584, 7162634.099743159487844 ], [ 676246.476422292646021, 7162660.240195629186928 ], [ 676246.476424969732761, 7162671.676643583923578 ], [ 676293.039118707296439, 7162737.027763921767473 ], [ 676325.714698215946555, 7162804.012665775604546 ], [ 676335.517383055295795, 7162870.997572962194681 ], [ 676355.122733598458581, 7162923.278473351150751 ], [ 676346.953852980048396, 7162967.390488815493882 ], [ 676325.714743769029155, 7162998.432281085290015 ], [ 676279.968966278596781, 7163049.079418422654271 ], [ 676221.152963635046035, 7163101.360337086953223 ], [ 676172.139629749231972, 7163152.007475185208023 ], [ 676126.393854151014239, 7163210.82350393012166 ], [ 676110.056090204045177, 7163287.6110869217664 ], [ 676110.056104349787347, 7163348.06088331155479 ], [ 676108.422328833956271, 7163359.497331658378243 ], [ 676111.689892864320427, 7163392.172896517440677 ], [ 676108.422343744663522, 7163423.214684616774321 ], [ 676093.718350337585434, 7163467.326701626181602 ], [ 676079.014352723839693, 7163493.467157544568181 ], [ 676051.240133009967394, 7163534.311621036380529 ], [ 676013.663240317371674, 7163558.818303991109133 ], [ 675956.481016188743524, 7163612.733000571839511 ], [ 675915.636568632209674, 7163643.774797412566841 ], [ 675900.932566807372496, 7163651.943692237138748 ], [ 675851.919221792952158, 7163655.211260186508298 ], [ 675806.173434308730066, 7163663.380162220448256 ], [ 675762.061426922795363, 7163679.717955278232694 ], [ 675740.822313852375373, 7163694.42196474224329 ], [ 675722.850759456050582, 7163718.928643139079213 ], [ 675703.245428770780563, 7163751.604213323444128 ], [ 675691.808989812270738, 7163787.547338177450001 ], [ 675673.837439607130364, 7163830.025577677413821 ], [ 675636.260549936210737, 7163867.602486882358789 ], [ 675580.71209823328536, 7163897.010508842766285 ], [ 675534.966309968731366, 7163901.911854297854006 ], [ 675497.389409241150133, 7163892.109193315729499 ], [ 675454.911172030260786, 7163874.137642061337829 ], [ 675432.038275422761217, 7163865.968755950219929 ], [ 675409.165375770186074, 7163844.729643584229052 ], [ 675381.391146108158864, 7163843.095871737226844 ], [ 675355.250694638350978, 7163841.462099511176348 ], [ 675324.208910495275632, 7163847.997219827026129 ], [ 675294.800907586934045, 7163867.60256602242589 ], [ 675289.899578715325333, 7163892.109241388738155 ], [ 675301.336038243956864, 7163944.390143767930567 ], [ 675304.603606428718194, 7163995.037269758991897 ], [ 675298.068506213254295, 7164048.951954588294029 ], [ 675268.660512427799404, 7164107.767979566007853 ], [ 675242.520079210400581, 7164184.55556490086019 ], [ 675226.182301457738504, 7164202.527129793539643 ], [ 675213.11208009137772, 7164220.49869392812252 ], [ 675203.309415491647087, 7164240.104035589843988 ], [ 675201.675643383758143, 7164266.244488494470716 ], [ 675201.675651370547712, 7164300.553832435049117 ], [ 675214.745883768890053, 7164329.961838504299521 ], [ 675218.013450806494802, 7164375.707629674114287 ], [ 675219.647236986784264, 7164410.016973242163658 ], [ 675206.577019801246934, 7164445.960098497569561 ], [ 675185.337908979970962, 7164470.466777660883963 ], [ 675170.633908653748222, 7164485.170785613358021 ], [ 675151.028576023643836, 7164509.677464401349425 ], [ 675142.859690754674375, 7164534.184140542522073 ], [ 675142.859698738204315, 7164568.493484495207667 ], [ 675119.986812377814204, 7164604.436612024903297 ], [ 675094.663259101565927, 7164642.013518407940865 ], [ 675084.860595634789206, 7164666.520194929093122 ], [ 675079.959266750141978, 7164691.026870318688452 ], [ 675079.959271311992779, 7164710.632209725677967 ], [ 675078.325500337639824, 7164741.673997497186065 ], [ 675065.255281997495331, 7164772.715787915512919 ], [ 675047.283729452174157, 7164805.391357749700546 ], [ 675022.777064504101872, 7164839.700707383453846 ], [ 675001.537952145095915, 7164857.67227341607213 ], [ 674952.52460894791875, 7164869.108732732012868 ], [ 674923.116603711852804, 7164878.911409235559404 ], [ 674895.342381227295846, 7164908.319424767047167 ], [ 674874.103275314671919, 7164954.065221631899476 ], [ 674854.497943804133683, 7164983.473235281184316 ], [ 674838.160166022717021, 7165001.444800183176994 ], [ 674834.892615703400224, 7165027.585253490135074 ], [ 674834.892623672843911, 7165061.894597466103733 ], [ 674834.892639234196395, 7165128.879507137462497 ], [ 674831.625094227492809, 7165177.892856437712908 ], [ 674807.118432291434146, 7165225.272432358004153 ], [ 674771.17532260203734, 7165271.018232636153698 ], [ 674753.203763962723315, 7165277.553349924273789 ], [ 674728.69709936552681, 7165313.496477853506804 ], [ 674717.260657680453733, 7165338.003154771402478 ], [ 674674.782434815075248, 7165382.11517827399075 ], [ 674638.839319424354471, 7165403.35430427454412 ], [ 674607.797533692093566, 7165403.354311434552073 ], [ 674560.417965240078047, 7165400.086765788495541 ], [ 674519.573505027918145, 7165377.213879209943116 ], [ 674465.658815080299973, 7165336.369434504769742 ], [ 674390.505015026312321, 7165323.299225536175072 ], [ 674339.857894348562695, 7165338.003241768106818 ], [ 674305.548552229069173, 7165338.003249667584896 ], [ 674266.337874762015417, 7165334.735702123492956 ], [ 674228.760976626886986, 7165336.369489055126905 ], [ 674189.550298027344979, 7165328.200606652535498 ], [ 674155.240950992330909, 7165306.961496837437153 ], [ 674116.030270505696535, 7165290.6237230040133 ], [ 674094.791152821388096, 7165285.722393032163382 ], [ 674070.284478368586861, 7165279.187285527586937 ], [ 674026.172468584729359, 7165285.722408808767796 ], [ 673996.764463698025793, 7165297.15886356215924 ], [ 673965.722681369865313, 7165311.862875262275338 ], [ 673933.047124241711572, 7165341.270891902968287 ], [ 673915.075565216131508, 7165346.172230886295438 ], [ 673885.6675569282379, 7165342.904681069776416 ], [ 673854.625765916658565, 7165320.031792206689715 ], [ 673810.513749715639278, 7165298.792684628628194 ], [ 673782.7395135902334, 7165269.38468187302351 ], [ 673746.796387241454795, 7165243.244237560778856 ], [ 673728.824821052956395, 7165217.103789126500487 ] ] ] ] } }
]
}
