{
"type": "FeatureCollection",
"name": "rio_belem",
"crs": { "type": "name", "properties": { "name": "urn:ogc:def:crs:EPSG::31982" } },
"features": [
{ "type": "Feature", "properties": { "AREA": 89533629.172419995, "PERIMETER": 57227.18198, "BACIAS1_": 13, "BACIAS1_ID": 0, "NOME_BACIA": "RIO BELEM", "SUB_AREA": 89.53, "SUBCODIGO": 12, "BACCODIGO": 2, "SUBNOME": "RIO BELEM", "SUBBAC_DAT": "2002-01-03", "SUBBAC_POP": 457176, "SUBBAC_P_1": 515436, "SUBBAC_DEN": 5756.88, "SUBBAC_D_1": 5106.17 }, "geometry": { "type": "MultiPolygon", "coordinates": [ [ [ [ 679952.677040851325728, 7176821.931095372885466 ], [ 679858.133333888836205, 7176884.960266029462218 ], [ 679516.031321395421401, 7177037.814454721286893 ], [ 679224.880653585074469, 7177088.765892960131168 ], [ 678904.614926357287914, 7177176.111173072829843 ], [ 678649.858093447983265, 7177227.062602482736111 ], [ 678402.380006880848669, 7177190.668825870379806 ], [ 678162.180682184058242, 7177132.43874641507864 ], [ 677987.490277654025704, 7177146.996321622282267 ], [ 677871.0300159616163, 7177190.668951153755188 ], [ 677689.060840991092846, 7177190.668993974104524 ], [ 677456.140288480208255, 7177154.27521363273263 ], [ 677223.219720625784248, 7177052.372530072927475 ], [ 677004.856676593306474, 7176906.797240955755115 ], [ 676895.675163130741566, 7176870.403431456536055 ], [ 676720.984741613385268, 7176812.173336225561798 ], [ 676640.918284248095006, 7176724.828150792047381 ], [ 676551.127788385143504, 7176646.261503770016134 ], [ 676544.294905483955517, 7176648.280420321971178 ], [ 676509.888462249888107, 7176661.435834333300591 ], [ 676502.774977531051263, 7176664.155698052607477 ], [ 676469.803273366764188, 7176691.021543953567743 ], [ 676430.725700321956538, 7176732.541484856046736 ], [ 676378.21520991192665, 7176781.388475675135851 ], [ 676377.026002557715401, 7176783.080810059793293 ], [ 676346.464684477541596, 7176826.571938255801797 ], [ 676287.848320040269755, 7176868.091883713379502 ], [ 676260.982487883418798, 7176893.73655373044312 ], [ 676230.453132907161489, 7176921.823573525995016 ], [ 676219.750331663875841, 7176928.245257684960961 ], [ 676193.817904202151112, 7176943.804722426459193 ], [ 676170.615594565402716, 7176965.785868193954229 ], [ 676139.19469041400589, 7176998.130931760184467 ], [ 676129.095672850962728, 7177008.526984125375748 ], [ 676092.460448124213144, 7177047.604575524106622 ], [ 676046.409847717150114, 7177096.123132281005383 ], [ 676025.295869539724663, 7177119.653884581290185 ], [ 675987.439462375012226, 7177124.538591258227825 ], [ 675943.477181479916908, 7177123.317427032627165 ], [ 675928.063971115625463, 7177118.626453875564039 ], [ 675915.390166875673458, 7177114.769212321378291 ], [ 675883.639628605684265, 7177104.999823996797204 ], [ 675838.456173251150176, 7177103.778660051524639 ], [ 675804.263292312272824, 7177120.875110510736704 ], [ 675793.409227944910526, 7177129.641859002411366 ], [ 675772.512762281461619, 7177146.519781655631959 ], [ 675743.204583445680328, 7177181.933847947046161 ], [ 675709.011706477031112, 7177216.126740908250213 ], [ 675680.924694995395839, 7177221.011445298790932 ], [ 675656.501204062020406, 7177213.684404188767076 ], [ 675624.750661249388941, 7177184.376224420964718 ], [ 675590.557771784835495, 7177164.837440934032202 ], [ 675562.470756899332628, 7177155.068051743321121 ], [ 675545.918402631767094, 7177156.669896366074681 ], [ 675524.614349448820576, 7177158.731583932414651 ], [ 675493.3454899196513, 7177165.947482263669372 ], [ 675492.863815151154995, 7177166.058638095855713 ], [ 675469.661502367816865, 7177174.606864738278091 ], [ 675455.293869588058442, 7177188.12934897840023 ], [ 675448.901541060768068, 7177194.14566099178046 ], [ 675436.029019325855188, 7177222.806100340560079 ], [ 675414.708665497251786, 7177234.444426266476512 ], [ 675389.064002653351054, 7177238.107955615967512 ], [ 675359.755813875235617, 7177230.780915630981326 ], [ 675326.621128343627788, 7177217.047815365716815 ], [ 675269.038029874442145, 7177222.80613898485899 ], [ 675211.454938099370338, 7177257.356014079414308 ], [ 675130.838602376636118, 7177274.63096360117197 ], [ 675032.947332692448981, 7177274.630986219272017 ], [ 674992.639162821695209, 7177274.630995530635118 ], [ 674946.572681634686887, 7177268.872695870697498 ], [ 674899.411422438803129, 7177284.681155962869525 ], [ 674864.040714218281209, 7177276.192194160073996 ], [ 674851.307257011067122, 7177263.458742152899504 ], [ 674841.403455648338422, 7177247.895632837899029 ], [ 674828.669997459510341, 7177230.917695850133896 ], [ 674815.936541567323729, 7177223.843557149171829 ], [ 674800.373431147541851, 7177225.258389068767428 ], [ 674787.639980181818828, 7177239.406675277277827 ], [ 674776.321363701135851, 7177280.436699382029474 ], [ 674765.002749516977929, 7177331.370521776378155 ], [ 674749.43964893987868, 7177375.23020351678133 ], [ 674721.143092468846589, 7177412.015746559016407 ], [ 674658.183241891674697, 7177440.3123276270926 ], [ 674634.131162947625853, 7177445.97164648026228 ], [ 674607.249427174800076, 7177450.216137657873333 ], [ 674564.804583927383646, 7177468.608915694989264 ], [ 674539.337680339696817, 7177489.831346478313208 ], [ 674496.89284495159518, 7177542.180004380643368 ], [ 674479.914917743531987, 7177593.113828094676137 ], [ 674455.862846983363852, 7177634.143855145201087 ], [ 674438.884920755284838, 7177689.322163847275078 ], [ 674437.470102004474029, 7177730.352185687050223 ], [ 674454.448052154504694, 7177778.456344940699637 ], [ 674470.011170450598001, 7177810.997392907738686 ], [ 674475.670498529681936, 7177876.079494711942971 ], [ 674475.670510324882343, 7177927.013314537703991 ], [ 674471.426035076263361, 7177968.043337043374777 ], [ 674434.640516592771746, 7178037.369933621957898 ], [ 674385.82896288158372, 7178127.918957902118564 ], [ 674373.095523353433236, 7178191.586235634982586 ], [ 674370.265880604623817, 7178251.009026110172272 ], [ 674370.265890428912826, 7178293.453875986859202 ], [ 674358.947269979515113, 7178317.505960188806057 ], [ 674320.746918962104246, 7178368.439788832329214 ], [ 674281.13173608481884, 7178403.810506182722747 ], [ 674217.464476519729942, 7178454.744340681470931 ], [ 674189.167922596912831, 7178502.848510395735502 ], [ 674173.604821635526605, 7178545.293363862670958 ], [ 674158.041723287315108, 7178599.056843969970942 ], [ 674149.552765546599403, 7178649.990665797144175 ], [ 674143.893478373065591, 7178761.762105168774724 ], [ 674141.063833642285317, 7178812.695925704203546 ], [ 674138.23419152374845, 7178874.948372887447476 ], [ 674114.182125282590277, 7178935.785996624268591 ], [ 674090.130049885250628, 7178957.008427105844021 ], [ 674071.737285859882832, 7178971.156714635901153 ], [ 674042.025898428051732, 7178996.623631410300732 ], [ 674009.484854811918922, 7179023.505377165041864 ], [ 673986.847608641837724, 7179048.972292315214872 ], [ 673971.280878758872859, 7179088.187599675729871 ], [ 673957.847963303560391, 7179104.062870846129954 ], [ 673930.982127612456679, 7179115.053447240963578 ], [ 673883.356324899243191, 7179121.159330541267991 ], [ 673844.278740347246639, 7179113.832292725332081 ], [ 673818.483056941069663, 7179094.24683753401041 ], [ 673795.845798030379228, 7179064.535447780042887 ], [ 673785.941993403015658, 7179034.824055107310414 ], [ 673777.453012462239712, 7178985.305065480992198 ], [ 673770.37886271183379, 7178948.519530508667231 ], [ 673744.911943712970242, 7178903.245029777288437 ], [ 673722.274686771328561, 7178882.022610008716583 ], [ 673675.585351810790598, 7178870.703994069248438 ], [ 673637.384988001780584, 7178866.459517830982804 ], [ 673599.184626800823025, 7178873.533668233081698 ], [ 673569.473233487107791, 7178873.533675039187074 ], [ 673541.17666940507479, 7178877.778166512027383 ], [ 673507.220794591819867, 7178891.926457589492202 ], [ 673478.92423311364837, 7178907.489575702697039 ], [ 673444.968362533138134, 7178940.030635074712336 ], [ 673433.649744975962676, 7178976.816174258477986 ], [ 673427.990437825210392, 7179002.283085502684116 ], [ 673422.331130350590684, 7179026.335168417543173 ], [ 673418.086652427911758, 7179056.046564335934818 ], [ 673409.597688771551475, 7179081.513476230204105 ], [ 673402.523551413556561, 7179098.491417816840112 ], [ 673392.619754616171122, 7179102.735905073583126 ], [ 673382.715955863241106, 7179098.491422347724438 ], [ 673361.493526853970252, 7179075.85417390987277 ], [ 673336.026610805885866, 7179043.313128131441772 ], [ 673326.122812382178381, 7179040.483473734930158 ], [ 673283.67796282924246, 7179031.994513454847038 ], [ 673272.359337127301842, 7179033.40934437699616 ], [ 673232.744148314232007, 7179043.313151746988297 ], [ 673195.958618605160154, 7179064.535585114732385 ], [ 673166.24722918914631, 7179081.513531874865294 ], [ 673122.387560809962451, 7179114.054593501612544 ], [ 673085.602034020586871, 7179148.010481841862202 ], [ 673051.646163738565519, 7179181.966369539499283 ], [ 673012.030979137402028, 7179210.262945204041898 ], [ 672989.393730324343778, 7179224.411233679391444 ], [ 672958.267510045086965, 7179230.070554109290242 ], [ 672922.896804029354826, 7179231.48539051041007 ], [ 672834.470035901060328, 7179221.581612365320325 ], [ 672775.047247949289158, 7179215.922312591224909 ], [ 672715.624456106452271, 7179193.285072842612863 ], [ 672660.446146435569972, 7179159.329205472953618 ], [ 672606.682665670756251, 7179128.202994441613555 ], [ 672543.01538713555783, 7179097.0767856631428 ], [ 672510.474336983636022, 7179095.661964742466807 ], [ 672459.54052018315997, 7179097.076804665848613 ], [ 672412.851188144180924, 7179098.491643618792295 ], [ 672378.895310062798671, 7179098.491651343181729 ], [ 672347.769088166998699, 7179097.076830091886222 ], [ 672325.131833846797235, 7179087.173036925494671 ], [ 672305.324237001361325, 7179081.513728107325733 ], [ 672285.516639515990391, 7179073.024762624874711 ], [ 672269.95352549420204, 7179058.876482855528593 ], [ 672260.049720601527952, 7179027.750261833891273 ], [ 672247.316261470783502, 7179006.52783976867795 ], [ 672240.242116644512862, 7178990.964729741215706 ], [ 672230.33831628668122, 7178979.646105347201228 ], [ 672219.019690259010531, 7178979.646107919514179 ], [ 672203.456579475430772, 7178979.646111455745995 ], [ 672177.989672210998833, 7178985.305430563166738 ], [ 672158.18207763787359, 7178989.549920056015253 ], [ 672127.055859622429125, 7179005.113038763403893 ], [ 672081.781359074171633, 7179020.676160678267479 ], [ 672043.581004636827856, 7179057.461705951020122 ], [ 672005.380651811603457, 7179101.321392874233425 ], [ 671971.424781478475779, 7179135.277280515991151 ], [ 671948.787532330141403, 7179148.0107406321913 ], [ 671930.394766649114899, 7179155.084886457771063 ], [ 671896.43888985668309, 7179160.744207482784986 ], [ 671861.068184486473911, 7179164.988700497895479 ], [ 671815.793683276395313, 7179177.722165743820369 ], [ 671784.667462988290936, 7179183.381486121565104 ], [ 671764.859869052190334, 7179190.455632265657187 ], [ 671750.711588773177937, 7179200.359433789737523 ], [ 671742.222624090500176, 7179221.581860677339137 ], [ 671721.000206090160646, 7179247.048775443807244 ], [ 671698.362959513673559, 7179271.100862201303244 ], [ 671684.21468471258413, 7179305.056745352223516 ], [ 671688.459172053495422, 7179316.375371042639017 ], [ 671695.655290191294625, 7179325.232128197327256 ], [ 671706.851944513502531, 7179339.01262017339468 ], [ 671726.659545550006442, 7179363.064697314053774 ], [ 671743.63749362679664, 7179402.679886741563678 ], [ 671736.563367191003636, 7179467.761991586536169 ], [ 671723.829931931337342, 7179551.236866031773388 ], [ 671696.948205740889534, 7179597.926207067444921 ], [ 671660.870097505394369, 7179651.689691845327616 ], [ 671638.232850591302849, 7179674.326950280927122 ], [ 671617.010432574898005, 7179699.7938650585711 ], [ 671605.691809761337936, 7179713.942150941118598 ], [ 671591.543531405040994, 7179732.334922460839152 ], [ 671583.054566709557548, 7179753.557349361479282 ], [ 671580.224917934508994, 7179787.513229969888926 ], [ 671580.224923089146614, 7179810.150483284145594 ], [ 671581.639759075711481, 7179844.106362933292985 ], [ 671573.150796313537285, 7179873.817759828642011 ], [ 671553.343207189580426, 7179902.114330959506333 ], [ 671516.557681580889039, 7179941.729532588273287 ], [ 671486.84629402088467, 7179967.196449293754995 ], [ 671451.47559665911831, 7180006.811650604009628 ], [ 671450.339343490195461, 7180008.231967804022133 ], [ 671428.795863003586419, 7180055.358359769918025 ], [ 671428.795876300893724, 7180113.974734295159578 ], [ 671442.228810391156003, 7180179.918152590282261 ], [ 671486.191103093093261, 7180232.428644800558686 ], [ 671498.402852747240104, 7180254.40978248231113 ], [ 671528.932228543329984, 7180316.689673500135541 ], [ 671533.816938607022166, 7180370.421349059790373 ], [ 671554.050738256541081, 7180415.69701558444649 ], [ 671590.836276777088642, 7180432.674947254359722 ], [ 671604.984563200967386, 7180449.652884051203728 ], [ 671627.621826253365725, 7180497.757042257115245 ], [ 671636.110812549246475, 7180571.328113675117493 ], [ 671620.547716877539642, 7180637.825048875063658 ], [ 671593.665993543574587, 7180697.247844979166985 ], [ 671593.666006107581779, 7180752.426149997860193 ], [ 671593.666021251585335, 7180818.923081692308187 ], [ 671616.303284634836018, 7180868.442068256437778 ], [ 671660.870386651018634, 7180920.790706528350711 ], [ 671676.43350231111981, 7180942.013128016144037 ], [ 671679.263163660187274, 7180963.235552391037345 ], [ 671679.26316495006904, 7180968.894865727052093 ], [ 671707.559740403317846, 7181014.169366015121341 ], [ 671733.026658704038709, 7181056.614210277795792 ], [ 671766.982546873157844, 7181100.473880951292813 ], [ 671786.790147312218323, 7181121.696301481686532 ], [ 671812.257061426294968, 7181145.748377397656441 ], [ 671840.553629474947229, 7181158.481825994327664 ], [ 671864.605714045697823, 7181176.874588891863823 ], [ 671873.094687783624977, 7181195.267355318181217 ], [ 671860.361236693919636, 7181209.415641551837325 ], [ 671830.649843934341334, 7181212.245304958894849 ], [ 671791.034652730450034, 7181212.245313937775791 ], [ 671738.686005593277514, 7181205.171184126287699 ], [ 671707.559783607721329, 7181203.756362845189869 ], [ 671672.189078463474289, 7181209.415684197098017 ], [ 671631.159064157749526, 7181232.052946843206882 ], [ 671564.662151845055632, 7181301.37955030426383 ], [ 671503.824550617719069, 7181362.217182477936149 ], [ 671479.065061258501373, 7181384.854441441595554 ], [ 671462.087126029538922, 7181401.832385301589966 ], [ 671443.694363509770483, 7181423.054814488627017 ], [ 671419.642286990769207, 7181440.032759951427579 ], [ 671397.005038725677878, 7181457.010705092921853 ], [ 671377.197447621729225, 7181476.81830626539886 ], [ 671368.708485152572393, 7181507.944531559944153 ], [ 671358.80469700274989, 7181550.389383858069777 ], [ 671370.123338831821457, 7181619.715969735756516 ], [ 671368.708531488082372, 7181711.679811872541904 ], [ 671385.68648603418842, 7181779.591568146832287 ], [ 671408.323756192345172, 7181858.821949837729335 ], [ 671418.227566231391393, 7181912.585424369201064 ], [ 671446.52414492610842, 7181972.008208086714149 ], [ 671449.353810780448839, 7182013.03822919446975 ], [ 671452.18347116059158, 7182030.016168588772416 ], [ 671476.942970843520015, 7182052.653416370041668 ], [ 671492.506083622341976, 7182061.142382866702974 ], [ 671508.069200268248096, 7182086.609289398416877 ], [ 671523.632320458767936, 7182127.639307634904981 ], [ 671537.780605622916482, 7182138.957931127399206 ], [ 671570.321658803964965, 7182153.106207128614187 ], [ 671612.766514633316547, 7182188.476905930787325 ], [ 671641.063085942296311, 7182215.358637919649482 ], [ 671665.115168281830847, 7182223.847602492198348 ], [ 671693.411737660760991, 7182242.240364462137222 ], [ 671711.804517603479326, 7182297.418665427714586 ], [ 671706.145225519896485, 7182389.38250860851258 ], [ 671703.315579960821196, 7182437.486672706902027 ], [ 671706.145246476400644, 7182481.346350517123938 ], [ 671708.97491718060337, 7182543.598796715959907 ], [ 671721.708383127348498, 7182594.532613974064589 ], [ 671725.952874354203232, 7182622.829179760068655 ], [ 671733.734440747764893, 7182670.933341469615698 ], [ 671733.734443005523644, 7182680.837139829993248 ], [ 671745.053072633687407, 7182696.400248980149627 ], [ 671783.253440495813265, 7182717.622665388509631 ], [ 671804.475869235000573, 7182738.845085641369224 ], [ 671818.62415248574689, 7182741.674739111214876 ], [ 671842.676231940975413, 7182737.430248644202948 ], [ 671875.217278698459268, 7182723.28195789270103 ], [ 671893.610044790664688, 7182717.622640371322632 ], [ 671910.587985527468845, 7182724.696778208017349 ], [ 671938.884555574273691, 7182745.919196855276823 ], [ 671947.37353675684426, 7182796.853015085682273 ], [ 671977.084946043672971, 7182866.179596902802587 ], [ 672009.62601121282205, 7182932.676521399989724 ], [ 672023.774310291744769, 7183004.832763433456421 ], [ 672025.189154700608924, 7183075.574180023744702 ], [ 672025.189166328636929, 7183126.508000204339623 ], [ 672036.507803720072843, 7183176.026989480480552 ], [ 672049.24127034470439, 7183229.790463453158736 ], [ 672065.511807947186753, 7183284.968764968216419 ], [ 672072.585961852688342, 7183340.14706857316196 ], [ 672066.926667542313226, 7183422.207113511860371 ], [ 672045.704269137349911, 7183533.978557113558054 ], [ 672010.333577772369608, 7183600.475497083738446 ], [ 671970.718411945039406, 7183712.246944885700941 ], [ 671953.033070291159675, 7183763.180769119411707 ], [ 671924.736512470874004, 7183795.721827349625528 ], [ 671887.95098636567127, 7183833.922200862318277 ], [ 671866.72856694762595, 7183853.729802428744733 ], [ 671846.920972564723343, 7183859.389120279811323 ], [ 671803.061295142280869, 7183853.729816861450672 ], [ 671777.594385454314761, 7183849.485337612219155 ], [ 671743.638505223672837, 7183840.996375270187855 ], [ 671715.341939655132592, 7183839.581553338095546 ], [ 671688.460203317226842, 7183842.411216108128428 ], [ 671675.726749920868315, 7183846.655704011209309 ], [ 671654.504328564973548, 7183857.97433553263545 ], [ 671650.259846677770838, 7183870.707791551947594 ], [ 671654.504333399119787, 7183879.196760631166399 ], [ 671667.237793237436563, 7183903.24883952178061 ], [ 671688.460222655092366, 7183927.300916494801641 ], [ 671706.852995868655853, 7183952.767822448164225 ], [ 671706.853000058792531, 7183971.160590867511928 ], [ 671706.85300843953155, 7184007.946127709001303 ], [ 671698.364049501717091, 7184054.635464853607118 ], [ 671694.119578572688624, 7184115.473084444180131 ], [ 671679.971305292332545, 7184156.503109516575933 ], [ 671665.823038130649365, 7184224.41487305983901 ], [ 671644.600628043408506, 7184285.252496505156159 ], [ 671626.207873509963974, 7184341.845634298399091 ], [ 671614.889261257601902, 7184402.683255510404706 ], [ 671603.570640949183144, 7184428.150168207474053 ], [ 671584.470465511432849, 7184455.031911006197333 ], [ 671568.9073588012252, 7184473.424682961776853 ], [ 671543.440457466407679, 7184505.965740567073226 ], [ 671526.462525708018802, 7184538.50679625198245 ], [ 671505.240111089078709, 7184579.536822946742177 ], [ 671407.616982133011334, 7184672.91551554389298 ], [ 671355.268351810984313, 7184740.827287763357162 ], [ 671300.090064949006774, 7184808.739060626365244 ], [ 671240.667294895858504, 7184883.724976155906916 ], [ 671215.200391922728159, 7184909.191892059519887 ], [ 671189.733488306053914, 7184931.829151279293001 ], [ 671153.655373994843103, 7184960.125726260244846 ], [ 671125.358813202590682, 7184979.933329435065389 ], [ 671094.23259363300167, 7184989.837134852074087 ], [ 671068.765684872400016, 7184989.83714060112834 ], [ 671039.054291319102049, 7184989.837147302925587 ], [ 670993.779787498293445, 7184992.666814199648798 ], [ 670976.801849930314347, 7184999.740959737449884 ], [ 670961.23874158738181, 7185011.059589983895421 ], [ 670956.994259683415294, 7185023.793046017177403 ], [ 670965.483231836929917, 7185035.111670839600265 ], [ 670986.705659014987759, 7185049.259949471801519 ], [ 671033.395002661156468, 7185097.364102573134005 ], [ 671054.617435622145422, 7185136.979291363619268 ], [ 671067.350900280871429, 7185182.253795443102717 ], [ 671071.595392461167648, 7185214.794846356846392 ], [ 671088.573338386719115, 7185244.506237715482712 ], [ 671101.306794697069563, 7185252.995204897597432 ], [ 671143.751652604085393, 7185296.854873931035399 ], [ 671169.218572298879735, 7185344.959031828679144 ], [ 671180.537208702298813, 7185390.233536237850785 ], [ 671190.441011058515869, 7185410.041130799800158 ], [ 671201.759639108553529, 7185418.530098298564553 ], [ 671213.078268765704706, 7185434.093207513913512 ], [ 671217.322760952287354, 7185466.634258438833058 ], [ 671227.226564918761142, 7185493.515994716435671 ], [ 671247.034166099736467, 7185517.568072071298957 ], [ 671293.016100479755551, 7185586.894650491885841 ], [ 671305.74956226896029, 7185619.435699503868818 ], [ 671315.653365914477035, 7185644.902607443742454 ], [ 671335.460967745399103, 7185671.784341486170888 ], [ 671356.683400094974786, 7185708.569873614236712 ], [ 671376.491007074713707, 7185758.088861152529716 ], [ 671394.883779037743807, 7185777.896453803405166 ], [ 671437.328633452532813, 7185806.19301107339561 ], [ 671455.721406380296685, 7185830.245088756084442 ], [ 671459.9658969710581, 7185855.711997980251908 ], [ 671455.721418287954293, 7185882.593737467192113 ], [ 671455.721423437586054, 7185905.230990964919329 ], [ 671462.795567987253889, 7185919.379272803664207 ], [ 671495.336622616276145, 7185939.18686225451529 ], [ 671546.270446641603485, 7185967.483417607843876 ], [ 671618.426699176779948, 7186015.587564967572689 ], [ 671663.701216589892283, 7186072.180688476189971 ], [ 671718.879533164901659, 7186134.433123117312789 ], [ 671735.857482033432461, 7186176.877969595603645 ], [ 671730.905591161805205, 7186212.248679323121905 ], [ 671708.268345016054809, 7186239.130422990769148 ], [ 671677.142128945444711, 7186264.597340237349272 ], [ 671644.601087184622884, 7186301.382884558290243 ], [ 671621.963841678574681, 7186331.094284917227924 ], [ 671592.25245934468694, 7186380.613283695653081 ], [ 671565.370738052297384, 7186449.939878669567406 ], [ 671538.489011278143153, 7186495.214391781017184 ], [ 671527.170391579391435, 7186523.510961236432195 ], [ 671527.170395442168228, 7186540.488901374861598 ], [ 671521.51108881062828, 7186568.785469554364681 ], [ 671513.022122747497633, 7186584.348583269864321 ], [ 671504.533156361198053, 7186598.496868636459112 ], [ 671504.533159903134219, 7186614.059980433434248 ], [ 671513.02213240636047, 7186626.793433615937829 ], [ 671569.615276311524212, 7186684.801382962614298 ], [ 671592.252534068888053, 7186708.85345970466733 ], [ 671644.60118255042471, 7186720.172074621543288 ], [ 671687.046035094070248, 7186739.979661842808127 ], [ 671713.927776692900807, 7186759.787252590060234 ], [ 671751.420743518625386, 7186837.602803090587258 ], [ 671769.813515193178318, 7186855.995567417703569 ], [ 671785.376631945837289, 7186881.462474110536277 ], [ 671808.013893908355385, 7186923.907319348305464 ], [ 671846.214275853475556, 7187005.967354740947485 ], [ 671854.703255785396323, 7187051.241859881207347 ], [ 671856.118092764285393, 7187089.442224898375571 ], [ 671839.140169347985648, 7187158.768817702308297 ], [ 671793.865676040528342, 7187208.287820071913302 ], [ 671755.665333095006645, 7187297.422014537267387 ], [ 671707.561184202786535, 7187351.185502592474222 ], [ 671671.483074944117106, 7187402.119331235066056 ], [ 671640.356865591835231, 7187457.297643795609474 ], [ 671648.845841004513204, 7187482.764552113600075 ], [ 671658.749648555181921, 7187525.209400273859501 ], [ 671658.749659507884644, 7187573.31356406211853 ], [ 671655.920012956601568, 7187617.173243457451463 ], [ 671629.03828969062306, 7187678.010868460871279 ], [ 671604.986218127654865, 7187717.626067623496056 ], [ 671580.934145593782887, 7187752.996781742200255 ], [ 671572.445182738825679, 7187782.708178954198956 ], [ 671549.807940403581597, 7187826.567862842231989 ], [ 671542.733804207295179, 7187849.205117999576032 ], [ 671524.341045070323162, 7187885.990659194067121 ], [ 671514.437252330593765, 7187908.627914991229773 ], [ 671511.607599331182428, 7187924.191027452237904 ], [ 671514.437258767778985, 7187936.924481941387057 ], [ 671528.585543077322654, 7187943.998620478436351 ], [ 671542.026414220570587, 7187955.317244218662381 ], [ 671581.641607710625976, 7187963.806205339729786 ], [ 671618.427150785923004, 7187999.176905704662204 ], [ 671653.797873323666863, 7188068.503486735746264 ], [ 671659.457199936499819, 7188127.926276062615216 ], [ 671658.042380688712001, 7188167.541470125317574 ], [ 671663.701701824786142, 7188202.912177544087172 ], [ 671663.70170858874917, 7188232.623572854325175 ], [ 671663.701719544827938, 7188280.727736691012979 ], [ 671653.797933889436536, 7188334.491216161288321 ], [ 671649.553461319766939, 7188388.254694361239672 ], [ 671652.38312559213955, 7188422.210574083030224 ], [ 671683.509358509094454, 7188470.314730882644653 ], [ 671706.854030456859618, 7188494.366807524114847 ], [ 671715.34300459723454, 7188514.174402482807636 ], [ 671716.757839959580451, 7188545.300625831820071 ], [ 671715.343016842380166, 7188567.937879730015993 ], [ 671704.024396148277447, 7188591.989964222535491 ], [ 671694.120603407500312, 7188614.627220045775175 ], [ 671687.046468817279674, 7188644.338616970926523 ], [ 671687.046470750123262, 7188652.827587066218257 ], [ 671695.535440379520878, 7188652.827585142105818 ], [ 671726.661660092766397, 7188642.923779653385282 ], [ 671745.054427943425253, 7188644.338603836484253 ], [ 671759.202707755379379, 7188631.605145493522286 ], [ 671781.839959771488793, 7188630.19031201582402 ], [ 671801.647557183168828, 7188637.264449274167418 ], [ 671812.966186256380752, 7188649.997901849448681 ], [ 671825.699646181892604, 7188674.049980895593762 ], [ 671834.188621934968978, 7188700.931717600673437 ], [ 671831.358971197274514, 7188726.398628525435925 ], [ 671810.136555186938494, 7188761.769342055544257 ], [ 671797.403107512043789, 7188791.480740277096629 ], [ 671797.403115250170231, 7188825.436620656400919 ], [ 671798.817951261531562, 7188859.392500714398921 ], [ 671808.721755934413522, 7188889.103893809020519 ], [ 671822.87004574527964, 7188920.230114286765456 ], [ 671837.018336203414947, 7188954.185991467908025 ], [ 671858.240766734350473, 7188982.482553645968437 ], [ 671893.611480950494297, 7189015.023597670719028 ], [ 671913.419087407412007, 7189061.712928718887269 ], [ 671924.737722619669512, 7189101.328119945712388 ], [ 671938.886011148104444, 7189126.795027032494545 ], [ 671965.060345157631673, 7189174.899184992536902 ], [ 671974.964146613725461, 7189190.462294593453407 ], [ 671991.942089753458276, 7189207.440230945125222 ], [ 672011.749689764343202, 7189225.832995001226664 ], [ 672041.461089618620463, 7189252.714726909995079 ], [ 672062.683516611810774, 7189265.448177246376872 ], [ 672085.320778339286335, 7189306.478194260969758 ], [ 672092.394925515982322, 7189331.945102958008647 ], [ 672107.958041033823974, 7189351.752696331590414 ], [ 672134.839781769085675, 7189367.31580208055675 ], [ 672157.477038655430079, 7189387.123393846675754 ], [ 672178.699468562379479, 7189412.59029933437705 ], [ 672187.188444660976529, 7189440.886864414438605 ], [ 672214.070197357796133, 7189508.798619128763676 ], [ 672228.218485905206762, 7189534.265526227653027 ], [ 672248.026089486666024, 7189568.221402144059539 ], [ 672267.833690157509409, 7189589.443822903558612 ], [ 672274.907834756188095, 7189603.592104804702103 ], [ 672267.83369953231886, 7189630.473845073021948 ], [ 672249.440936505212449, 7189650.281446162611246 ], [ 672214.070237432140857, 7189684.237334614619613 ], [ 672205.581272963201627, 7189706.874590156599879 ], [ 672205.581277488265187, 7189726.68218706920743 ], [ 672176.577302729245275, 7189747.904618917964399 ], [ 672158.184537760098465, 7189759.223249902948737 ], [ 672138.376943871495314, 7189767.712224502116442 ], [ 672127.058321882039309, 7189786.10499563626945 ], [ 672121.399013309390284, 7189805.912593835964799 ], [ 672121.399017831776291, 7189825.72019074857235 ], [ 672134.132477139239199, 7189846.942613124847412 ], [ 672173.747678491636179, 7189889.38745466992259 ], [ 672192.140452837222256, 7189919.098845871165395 ], [ 672211.948058040463366, 7189960.12886356189847 ], [ 672267.126374294864945, 7190019.551641792058945 ], [ 672279.859833934693597, 7190042.188892520964146 ], [ 672302.497091491357423, 7190064.826141003519297 ], [ 672300.374852635432035, 7190080.389253349974751 ], [ 672289.056230324786156, 7190097.36719614546746 ], [ 672287.641405283473432, 7190111.515479981899261 ], [ 672297.545205787406303, 7190122.834104545414448 ], [ 672318.767629898153245, 7190122.834099723026156 ], [ 672344.234535275842063, 7190107.270982067100704 ], [ 672366.871784426271915, 7190093.122693408280611 ], [ 672402.242489336291328, 7190084.633715258911252 ], [ 672429.12422622134909, 7190083.218880796805024 ], [ 672460.250448572216555, 7190084.633702070452273 ], [ 672489.961847829865292, 7190108.685777289792895 ], [ 672504.110134779359214, 7190127.078542646020651 ], [ 672525.332564395619556, 7190151.13061979599297 ], [ 672540.895683181472123, 7190185.086496696807444 ], [ 672553.629145744722337, 7190220.457202598452568 ], [ 672549.384664806420915, 7190237.435143783688545 ], [ 672547.969839770114049, 7190251.583427625708282 ], [ 672545.140186459058896, 7190265.731711786240339 ], [ 672549.384675491019152, 7190284.124479398131371 ], [ 672564.947791368234903, 7190305.346901137381792 ], [ 672583.340564764919691, 7190330.813807290047407 ], [ 672604.562999570625834, 7190377.503138080239296 ], [ 672610.222316882805899, 7190395.895905369892716 ], [ 672624.370603189920075, 7190411.459014024585485 ], [ 672641.348544429289177, 7190419.947980275377631 ], [ 672663.985797472530976, 7190422.777631824836135 ], [ 672680.963734825490974, 7190414.288657845929265 ], [ 672707.84546783042606, 7190395.895883146673441 ], [ 672723.40857885137666, 7190395.895879602059722 ], [ 672737.556864514248446, 7190408.629331549629569 ], [ 672741.801357118180022, 7190442.585211036726832 ], [ 672741.801364249316975, 7190473.711434789001942 ], [ 672743.21620224788785, 7190516.156285036355257 ], [ 672751.705177085008472, 7190538.793536743149161 ], [ 672748.87552993465215, 7190579.823559612035751 ], [ 672737.556908275117166, 7190599.63115912489593 ], [ 672724.823458985774778, 7190622.268415668979287 ], [ 672719.164153987308964, 7190657.639125774614513 ], [ 672710.675190818263218, 7190685.935694759711623 ], [ 672707.845542046707124, 7190719.891575871035457 ], [ 672712.090034649707377, 7190753.847455374896526 ], [ 672747.460752553190105, 7190801.951611317694187 ], [ 672794.857505614170805, 7190827.418510874733329 ], [ 672809.0057912877528, 7190840.151962827891111 ], [ 672823.154079231549986, 7190862.789213254116476 ], [ 672831.64305309811607, 7190881.18197991233319 ], [ 672833.057892404147424, 7190929.286143597215414 ], [ 672834.472724894294515, 7190947.678911866620183 ], [ 672851.45066906651482, 7190968.90133329667151 ], [ 672872.673097419086844, 7190987.294097053818405 ], [ 672893.895529992529191, 7191024.079629401676357 ], [ 672895.31036572821904, 7191056.620681208558381 ], [ 672881.162089781486429, 7191086.332079855725169 ], [ 672837.302418093197048, 7191107.554515157826245 ], [ 672827.398621132713743, 7191111.799002475105226 ], [ 672799.102057884912938, 7191121.702807395718992 ], [ 672783.53894911846146, 7191131.606609417125583 ], [ 672758.072044038563035, 7191148.584555462002754 ], [ 672758.072045659297146, 7191155.658697227947414 ], [ 672760.90170578029938, 7191171.221808474510908 ], [ 672765.146192227373831, 7191178.295949278399348 ], [ 672772.22033458284568, 7191182.540432726964355 ], [ 672790.61310346738901, 7191188.199741952121258 ], [ 672801.931731296353973, 7191195.273881140165031 ], [ 672837.302438199869357, 7191195.273873081430793 ], [ 672847.206234511453658, 7191188.199729057960212 ], [ 672871.258313582511619, 7191181.125581807456911 ], [ 672893.895566974766552, 7191185.370061707682908 ], [ 672910.873508883873001, 7191196.68868466746062 ], [ 672923.606966613791883, 7191210.83696530200541 ], [ 672951.90353570622392, 7191226.400070739910007 ], [ 672970.2963058949681, 7191237.718693379312754 ], [ 672994.348391783656552, 7191260.35594155266881 ], [ 673004.252197508933023, 7191294.311819788068533 ], [ 672997.178062942926772, 7191324.023216834291816 ], [ 672990.103927077027038, 7191348.07530046440661 ], [ 672985.859449065639637, 7191377.786696868017316 ], [ 672985.859453287092037, 7191396.179465470835567 ], [ 672990.103946230257861, 7191431.550173357129097 ], [ 673000.007749036070891, 7191452.772596410475671 ], [ 673009.204137378139421, 7191472.580191273242235 ], [ 673007.789312997832894, 7191489.558131845667958 ], [ 673013.448629676247947, 7191505.121242452412844 ], [ 673023.352431508363225, 7191522.099180445075035 ], [ 673033.256233666557819, 7191540.49194679223001 ], [ 673045.98969562468119, 7191573.032996039837599 ], [ 673058.7231579083018, 7191606.988873641937971 ], [ 673082.775239591370337, 7191611.233353219926357 ], [ 673096.923523335950449, 7191615.477835052646697 ], [ 673116.731120185460895, 7191619.722315597347915 ], [ 673132.294231557054445, 7191621.137140397913754 ], [ 673150.687003706814721, 7191640.94473316334188 ], [ 673152.10183718171902, 7191663.581986513920128 ], [ 673136.538735231617466, 7191703.197183994576335 ], [ 673136.538741077412851, 7191728.664094384759665 ], [ 673136.538745625060983, 7191748.471691348589957 ], [ 673116.731156565598212, 7191778.183091320097446 ], [ 673095.508738253964111, 7191803.650006551295519 ], [ 673094.093915498582646, 7191827.702088908292353 ], [ 673106.827374542015605, 7191847.509682970121503 ], [ 673128.049810070777312, 7191897.02867055311799 ], [ 673132.294305300805718, 7191942.303176946938038 ], [ 673135.123969324398786, 7191974.844228471629322 ], [ 673142.19812078634277, 7192018.703905867412686 ], [ 673156.34641038486734, 7192048.415298102423549 ], [ 673186.765223555266857, 7192071.052544843405485 ], [ 673234.869391500367783, 7192099.349100964143872 ], [ 673277.314245361369103, 7192123.401173312216997 ], [ 673342.396355249918997, 7192163.016352396458387 ], [ 673367.863267833017744, 7192178.579458491876721 ], [ 673387.670866650529206, 7192191.312909161671996 ], [ 673407.478467098553665, 7192211.120501613244414 ], [ 673418.79710015677847, 7192240.831894496455789 ], [ 673432.945389120373875, 7192267.713630019687116 ], [ 673461.241965423570946, 7192314.402959290891886 ], [ 673475.390251462114975, 7192328.551239615306258 ], [ 673498.027506191050634, 7192338.455032927915454 ], [ 673523.494417804060504, 7192349.773653952404857 ], [ 673544.716848164331168, 7192376.655387859791517 ], [ 673563.109620344126597, 7192396.462980634532869 ], [ 673564.524451553472318, 7192409.196435513906181 ], [ 673560.279972579213791, 7192434.663346894085407 ], [ 673563.109631741419435, 7192445.98197309486568 ], [ 673560.279980068677105, 7192467.204399084672332 ], [ 673541.887219610856846, 7192498.330627128481865 ], [ 673529.153776174178347, 7192546.434794155880809 ], [ 673536.227929288870655, 7192597.368613367900252 ], [ 673550.376217285986058, 7192620.005863830447197 ], [ 673570.183816121891141, 7192632.739314509555697 ], [ 673574.428303888067603, 7192645.47276874538511 ], [ 673586.454346865648404, 7192656.791392847895622 ], [ 673589.284008306916803, 7192678.013817546889186 ], [ 673589.284011566429399, 7192692.162101111374795 ], [ 673586.454359240829945, 7192710.554870396852493 ], [ 673586.454362173448317, 7192723.288325605913997 ], [ 673593.528506499016657, 7192736.021779195405543 ], [ 673602.017477801768109, 7192743.095919038169086 ], [ 673614.750934593030252, 7192752.999714616686106 ], [ 673631.728876221575774, 7192762.903509231284261 ], [ 673650.121648736065254, 7192784.125930370762944 ], [ 673665.684765344718471, 7192808.178008874878287 ], [ 673671.344088888843544, 7192853.45251499582082 ], [ 673688.322038669837639, 7192898.727018531411886 ], [ 673705.299986820085905, 7192936.927380282431841 ], [ 673726.522418506676331, 7192969.468427637591958 ], [ 673751.989331126213074, 7192985.031533731147647 ], [ 673756.23381987400353, 7193002.009473045356572 ], [ 673753.40417016169522, 7193031.720869194716215 ], [ 673727.937271883594804, 7193078.410210817120969 ], [ 673712.374165046028793, 7193096.802983026951551 ], [ 673699.640714436769485, 7193113.780926230363548 ], [ 673692.566579558188096, 7193142.077495001256466 ], [ 673699.640726821962744, 7193167.544403813779354 ], [ 673719.448328605853021, 7193193.011309713125229 ], [ 673733.596615969203413, 7193212.818903477862477 ], [ 673756.941284218803048, 7193219.893039921298623 ], [ 673761.185772969503887, 7193236.870979240164161 ], [ 673766.845091305556707, 7193259.508231665939093 ], [ 673773.919239879702218, 7193290.634453912265599 ], [ 673788.067528872517869, 7193317.516189469955862 ], [ 673803.630644192919135, 7193335.908954555168748 ], [ 673830.512387715862133, 7193362.790687195956707 ], [ 673847.490336534101516, 7193403.820705683901906 ], [ 673863.053453164175153, 7193427.872784203849733 ], [ 673885.690715435310267, 7193470.317629754543304 ], [ 673904.083491564844735, 7193507.103162847459316 ], [ 673909.742816756945103, 7193559.45181080326438 ], [ 673909.742824586806819, 7193593.40769140329212 ], [ 673915.402146520558745, 7193631.608055781573057 ], [ 673919.646637562313117, 7193658.489793615415692 ], [ 673919.64664441451896, 7193688.201189144514501 ], [ 673909.742856236407533, 7193730.646042171865702 ], [ 673901.961310805985704, 7193774.505723068490624 ], [ 673896.302005186094902, 7193807.046776618808508 ], [ 673901.961321898037568, 7193822.609887266531587 ], [ 673907.620640242472291, 7193845.247139708139002 ], [ 673907.620645462302491, 7193867.884393449872732 ], [ 673904.79099444753956, 7193891.936476197093725 ], [ 673873.664783025626093, 7193938.625819178298116 ], [ 673858.101684651570395, 7193993.804128745570779 ], [ 673832.634785044705495, 7194034.834156994707882 ], [ 673809.997538084047846, 7194058.886244285851717 ], [ 673793.019604249275289, 7194082.938330284319818 ], [ 673784.530643034726381, 7194119.723869570530951 ], [ 673785.945479140849784, 7194153.679749870672822 ], [ 673795.849283636198379, 7194181.976314790546894 ], [ 673822.73102783516515, 7194211.687704179435968 ], [ 673826.975519854808226, 7194242.813927115872502 ], [ 673828.390361507190391, 7194300.821889534592628 ], [ 673809.997603297815658, 7194341.851916179060936 ], [ 673809.290193394641392, 7194360.244685016572475 ], [ 673802.216053940705024, 7194368.733656797558069 ], [ 673786.652943492052145, 7194371.563317080959678 ], [ 673771.089833689620718, 7194377.222634088248014 ], [ 673759.771208412596025, 7194381.467121759429574 ], [ 673749.867412720574066, 7194391.370922544971108 ], [ 673747.037761368439533, 7194414.008176950737834 ], [ 673732.889486369560473, 7194447.964060827158391 ], [ 673722.985696216230281, 7194481.919943734072149 ], [ 673727.230186277069151, 7194504.557196522131562 ], [ 673756.941585749620572, 7194528.609271840192378 ], [ 673782.408498744247481, 7194545.587206327356398 ], [ 673820.6088662808761, 7194562.565137894824147 ], [ 673870.127862366614863, 7194589.446865392848849 ], [ 673908.328232191619463, 7194616.328595481812954 ], [ 673926.721007695887238, 7194650.284471910446882 ], [ 673943.698959161294624, 7194702.633117351680994 ], [ 673956.432426759507507, 7194759.226248851045966 ], [ 673966.336235834984109, 7194807.330410839989781 ], [ 673973.410388997057453, 7194858.264230201020837 ], [ 673980.484540204866789, 7194900.709079401567578 ], [ 673980.484547058586031, 7194930.420474978163838 ], [ 673969.873343095416203, 7194965.791186433285475 ], [ 673951.480584222241305, 7195003.991556396707892 ], [ 673947.236106879776344, 7195036.532609672285616 ], [ 673967.043711983831599, 7195076.147799240425229 ], [ 673995.340285810409114, 7195111.518501778133214 ], [ 674010.450653759296983, 7195119.667909674346447 ], [ 674019.505557071184739, 7195129.628299260511994 ], [ 674031.276930061983876, 7195136.872217768803239 ], [ 674046.670262205414474, 7195138.683194540441036 ], [ 674077.456928371917456, 7195150.454559443518519 ], [ 674093.755753959761932, 7195166.753378424793482 ], [ 674109.14908777596429, 7195175.808276403695345 ], [ 674130.880852721398696, 7195186.674153231084347 ], [ 674156.234577237744816, 7195193.918068623170257 ], [ 674178.871829359210096, 7195192.10708312317729 ], [ 674199.698101273970678, 7195190.296098041348159 ], [ 674215.99692205619067, 7195185.768643539398909 ], [ 674235.917702825623564, 7195179.430207906290889 ], [ 674253.122014544438571, 7195178.524713804014027 ], [ 674271.231819296488538, 7195190.296081610023975 ], [ 674277.57025251747109, 7195201.161961970850825 ], [ 674284.814177096355706, 7195217.460783030837774 ], [ 674292.963591358507983, 7195231.948623577132821 ], [ 674309.262415488716215, 7195241.909011498093605 ], [ 674330.088688662159257, 7195245.530967319384217 ], [ 674345.482022064155899, 7195252.774884992279112 ], [ 674362.686335252015851, 7195258.207821946591139 ], [ 674392.567510067950934, 7195264.546246136538684 ], [ 674425.165152680361643, 7195260.018787886947393 ], [ 674448.707895323866978, 7195260.018782472237945 ], [ 674474.06162086641416, 7195271.676962341181934 ], [ 674465.006718380842358, 7195265.338533366099 ], [ 674461.384755881037563, 7195256.28363268263638 ], [ 674459.573772116797045, 7195240.890300529077649 ], [ 674462.290237603359856, 7195220.064026422798634 ], [ 674474.06160326814279, 7195195.615789631381631 ], [ 674493.982379638589919, 7195170.26206081174314 ], [ 674502.131787409307435, 7195156.679706672206521 ], [ 674502.131786362151615, 7195152.152255916967988 ], [ 674502.13178343011532, 7195139.475393798202276 ], [ 674502.131778608541936, 7195118.649120322428644 ], [ 674500.320794007508084, 7195099.633827563375235 ], [ 674501.226280966191553, 7195086.051475089974701 ], [ 674506.659217594540678, 7195068.847160967066884 ], [ 674512.997645788011141, 7195057.981277694925666 ], [ 674530.201952267787419, 7195034.438529811799526 ], [ 674554.650179764372297, 7195011.801270409487188 ], [ 674565.516058675362729, 7195001.840876247733831 ], [ 674580.909386203857139, 7194983.731069685891271 ], [ 674590.869774176506326, 7194970.148715129122138 ], [ 674603.54662930581253, 7194942.984007680788636 ], [ 674612.14877897547558, 7194915.819301173090935 ], [ 674625.731126931495965, 7194900.42596548050642 ], [ 674632.975043758400716, 7194883.221650945022702 ], [ 674636.596999128814787, 7194861.489886490628123 ], [ 674639.313465659390204, 7194845.191063151694834 ], [ 674639.313462302787229, 7194830.703220739029348 ], [ 674642.029928833129816, 7194814.404397398233414 ], [ 674643.840904631186277, 7194795.389103814959526 ], [ 674657.423251955886371, 7194777.279297672212124 ], [ 674670.100113368593156, 7194777.279294753447175 ], [ 674689.115407167701051, 7194784.523211580701172 ], [ 674722.618541954434477, 7194789.05065462179482 ], [ 674747.972262268536724, 7194778.184766969643533 ], [ 674772.420491639059037, 7194763.696918928995728 ], [ 674786.002839377266355, 7194747.398093084804714 ], [ 674793.246755567844957, 7194727.477308098226786 ], [ 674800.490667981328443, 7194691.257700404152274 ], [ 674809.545561855426058, 7194660.471033195964992 ], [ 674814.978494904702529, 7194627.873386522755027 ], [ 674817.694959119311534, 7194601.614171529188752 ], [ 674814.97848545841407, 7194587.126329746097326 ], [ 674801.848876060219482, 7194574.449470663443208 ], [ 674779.211618922185153, 7194554.528692567721009 ], [ 674752.046909604803659, 7194527.363994310609996 ], [ 674728.504160691052675, 7194500.199295221827924 ], [ 674702.244943576632068, 7194482.089498260058463 ], [ 674677.796706454013474, 7194463.074210733175278 ], [ 674661.497879610629752, 7194441.342450875788927 ], [ 674655.159442823845893, 7194415.083237976767123 ], [ 674655.159436322632246, 7194387.013043314218521 ], [ 674673.269231203012168, 7194356.226374038495123 ], [ 674691.718587492825463, 7194336.758331557735801 ], [ 674714.355835809605196, 7194318.648523340933025 ], [ 674731.333769687684253, 7194294.87940299231559 ], [ 674744.916118046152405, 7194281.297047609463334 ], [ 674755.102876169257797, 7194257.527928819879889 ], [ 674761.894044841639698, 7194226.967634688131511 ], [ 674764.157764059258625, 7194200.934792353771627 ], [ 674761.894026479916647, 7194147.737246559932828 ], [ 674760.762152313254774, 7194097.935288570821285 ], [ 674773.212633848073892, 7194066.243130458518863 ], [ 674773.212628076085821, 7194041.342151338234544 ], [ 674774.344485455891117, 7194018.704897329211235 ], [ 674766.421437900862657, 7193979.089705100283027 ], [ 674750.575348035199568, 7193922.496574388816953 ], [ 674747.17975465382915, 7193898.72745873965323 ], [ 674742.652297596097924, 7193870.430892607197165 ], [ 674739.256702902493998, 7193841.002463525161147 ], [ 674734.72924689645879, 7193817.23334814235568 ], [ 674724.542477765004151, 7193793.464234062470496 ], [ 674718.883160443860106, 7193775.354432374238968 ], [ 674731.89957433543168, 7193748.189724888652563 ], [ 674748.877507676137611, 7193722.156879182904959 ], [ 674765.855443112086505, 7193705.178934967145324 ], [ 674788.492686421843246, 7193665.563735712319613 ], [ 674815.657380232587457, 7193625.948535418137908 ], [ 674845.085800598375499, 7193591.992648035287857 ], [ 674869.986774925375357, 7193577.278427368029952 ], [ 674906.20637549564708, 7193562.564204093068838 ], [ 674935.634800055879168, 7193546.718119695782661 ], [ 674967.326950128539465, 7193532.003897459246218 ], [ 675010.337726179044694, 7193516.157809926196933 ], [ 675046.557328057591803, 7193507.102900078520179 ], [ 675074.853892879444174, 7193503.707305485382676 ], [ 675104.282320851343684, 7193502.575436009094119 ], [ 675128.051434385590255, 7193495.784254401922226 ], [ 675147.293097423855215, 7193488.993073841556907 ], [ 675158.611722616129555, 7193484.465620482340455 ], [ 675171.062209116527811, 7193474.278853428550065 ], [ 675168.79848045122344, 7193459.564639026299119 ], [ 675151.820531621924601, 7193418.817586237564683 ], [ 675125.787682589609176, 7193381.466123595833778 ], [ 675112.205326107796282, 7193359.960735690779984 ], [ 675115.600908722612076, 7193337.323481181636453 ], [ 675120.128356592846103, 7193326.004853272810578 ], [ 675138.238154369872063, 7193307.89504611492157 ], [ 675184.078578288666904, 7193254.697489278391004 ], [ 675206.715825771912932, 7193233.192093013785779 ], [ 675206.715823931852356, 7193225.269054208882153 ], [ 675203.320232641301118, 7193210.554840072989464 ], [ 675201.05650607869029, 7193204.895527167245746 ], [ 675188.606012744945474, 7193185.653864379040897 ], [ 675177.287384139141068, 7193175.467102820053697 ], [ 675158.045717166503891, 7193165.280343088321388 ], [ 675130.881013406440616, 7193161.884761301800609 ], [ 675110.507485914160497, 7193160.752903318963945 ], [ 675086.738370022387244, 7193157.357320750132203 ], [ 675073.156016170978546, 7193147.170559708029032 ], [ 675026.183713602484204, 7193131.324492946267128 ], [ 674993.359695674502291, 7193123.401461715810001 ], [ 674970.722440571058542, 7193112.082840079441667 ], [ 674946.953322058776394, 7193097.368630643934011 ], [ 674928.843515877379104, 7193079.258831845596433 ], [ 674916.393022025818937, 7193057.75344368442893 ], [ 674912.997429954819381, 7193039.643641495145857 ], [ 674920.920463069458492, 7193017.006385952234268 ], [ 674936.766536125680432, 7193001.160304699093103 ], [ 674958.271921509876847, 7192981.918634080328047 ], [ 674976.381718497024849, 7192960.413238873705268 ], [ 674983.172888461849652, 7192935.512258224189281 ], [ 674996.755235477932729, 7192916.270589431747794 ], [ 675004.678269378608093, 7192897.028921952471137 ], [ 674999.018954158527777, 7192887.974021771922708 ], [ 674977.513559847371653, 7192868.732361076399684 ], [ 674960.53562102036085, 7192870.996090364642441 ], [ 674949.216994788032025, 7192870.99609297607094 ], [ 674937.898367764079012, 7192867.600507527589798 ], [ 674920.920423162868246, 7192844.963257730938494 ], [ 674905.074340919964015, 7192821.194144992157817 ], [ 674905.074336196295917, 7192800.820616651326418 ], [ 674907.338054354069754, 7192770.260323625057936 ], [ 674911.865499597741291, 7192747.623068872839212 ], [ 674911.865493821213022, 7192722.722089796327055 ], [ 674898.283137093298137, 7192700.084839221090078 ], [ 674883.568918266100809, 7192679.711314275860786 ], [ 674855.838274024310522, 7192636.700538630597293 ], [ 674835.464742086362094, 7192616.327014993876219 ], [ 674821.882384050521068, 7192588.030450996011496 ], [ 674793.134409599122591, 7192565.068956358358264 ], [ 674762.605041796457954, 7192540.645473621785641 ], [ 674754.056816160562448, 7192522.327858254313469 ], [ 674762.605032201856375, 7192499.125540978275239 ], [ 674782.143817772390321, 7192472.259697696194053 ], [ 674792.453922269050963, 7192443.152034094557166 ], [ 674791.322055975557305, 7192427.305956768803298 ], [ 674800.376951971324161, 7192405.800563668832183 ], [ 674838.860274844104424, 7192378.635850360617042 ], [ 674854.706344477133825, 7192348.07555422000587 ], [ 674863.761238108156249, 7192316.383396960794926 ], [ 674864.893093382008374, 7192284.691241530701518 ], [ 674860.365627405117266, 7192217.911344179883599 ], [ 674847.915127011598088, 7192168.109388930723071 ], [ 674841.123939465731382, 7192117.175569696351886 ], [ 674835.464615070028231, 7192068.50547556951642 ], [ 674825.277847534278408, 7192051.527537651360035 ], [ 674815.091078160679899, 7192026.626560946926475 ], [ 674798.1131301705027, 7191989.275096278637648 ], [ 674794.717535743955523, 7191960.978529956191778 ], [ 674793.585667613660917, 7191937.209413850679994 ], [ 674794.717520788079128, 7191896.462356962263584 ], [ 674832.068977602641098, 7191854.583429044112563 ], [ 674859.233673181384802, 7191822.891267629340291 ], [ 674895.453268154407851, 7191784.407928025349975 ], [ 674913.563062225584872, 7191750.452043332159519 ], [ 674919.222370083793066, 7191727.814788352698088 ], [ 674920.354223253438249, 7191687.067731471732259 ], [ 674915.826756750233471, 7191618.024108810350299 ], [ 674896.585079582291655, 7191563.694704432971776 ], [ 674884.134582871804014, 7191529.738826796412468 ], [ 674877.343398216878995, 7191491.255497124046087 ], [ 674873.94780116667971, 7191451.640303989872336 ], [ 674876.211516956798732, 7191410.893246864899993 ], [ 674880.738961403723806, 7191384.860404105857015 ], [ 674888.661994764115661, 7191363.355011293664575 ], [ 674888.661991087836213, 7191347.508933727629483 ], [ 674879.607084607006982, 7191323.739819468930364 ], [ 674870.552179963560775, 7191307.893743989989161 ], [ 674868.288451570901088, 7191294.311392315663397 ], [ 674871.118104974739254, 7191280.729039466008544 ], [ 674883.568590918905102, 7191268.278547080233693 ], [ 674888.096038777148351, 7191256.959919204004109 ], [ 674891.491619025357068, 7191224.1359006119892 ], [ 674890.359751154668629, 7191201.498647212050855 ], [ 674889.227883809129708, 7191181.125119179487228 ], [ 674889.227878558216617, 7191158.487865520641208 ], [ 674888.096010686596856, 7191135.850612122565508 ], [ 674888.096004121238366, 7191107.554045051336288 ], [ 674881.304823672631755, 7191087.180518325418234 ], [ 674873.381780077703297, 7191064.543266493827105 ], [ 674867.722463035257533, 7191047.565327554941177 ], [ 674866.590596478898078, 7191030.587387574836612 ], [ 674886.964118135743774, 7191006.818266540765762 ], [ 674916.392543122870848, 7190993.2359075602144 ], [ 674948.084691246040165, 7190970.598646598868072 ], [ 674962.798897174070589, 7190935.510900041088462 ], [ 674966.194476629025303, 7190899.291293416172266 ], [ 674969.590052933082916, 7190849.4893346009776 ], [ 674970.721904523205012, 7190801.951101676560938 ], [ 674982.040517329704016, 7190744.226102264598012 ], [ 675010.903004424646497, 7190702.347176358103752 ], [ 675047.122602488845587, 7190677.44618899282068 ], [ 675067.496126761077903, 7190664.995694785378873 ], [ 675101.45200247457251, 7190652.545197442173958 ], [ 675112.77062657289207, 7190643.490293370559812 ], [ 675116.166209962451831, 7190624.248626990243793 ], [ 675099.188267770572565, 7190611.798141404986382 ], [ 675075.419150122790597, 7190600.479520071297884 ], [ 675050.518169065238908, 7190585.765310952439904 ], [ 675032.408361627021804, 7190561.996198807843029 ], [ 675019.957865977776237, 7190532.567771946080029 ], [ 675014.2985460460186, 7190503.139343524351716 ], [ 675014.298539740033448, 7190475.974639154970646 ], [ 675016.562258411664516, 7190447.678071584552526 ], [ 675034.672053758986294, 7190419.381500361487269 ], [ 675072.023515481152572, 7190399.007963466458023 ], [ 675110.506840344634838, 7190380.898151674307883 ], [ 675134.275951417163014, 7190363.92020595818758 ], [ 675152.385747282998636, 7190337.887360095977783 ], [ 675167.099954237462953, 7190307.327064290642738 ], [ 675187.473476394079626, 7190285.821668633259833 ], [ 675231.050177775556222, 7190245.074602028355002 ], [ 675265.006050309515558, 7190219.041752507910132 ], [ 675303.489373318850994, 7190193.008901936933398 ], [ 675348.763873621821404, 7190173.767225885763764 ], [ 675382.719748254050501, 7190156.789277813397348 ], [ 675416.675621566711925, 7190134.152016332373023 ], [ 675431.389829826075584, 7190109.251033937558532 ], [ 675424.598639886709861, 7190048.130450714379549 ], [ 675425.73049039253965, 7189996.064767118543386 ], [ 675409.884405034244992, 7189958.713302301242948 ], [ 675399.697638567304239, 7189946.262815166264772 ], [ 675380.455968776252121, 7189923.625565993599594 ], [ 675375.928512771846727, 7189899.856450740247965 ], [ 675369.137323105474934, 7189839.867730216123164 ], [ 675403.659117443603463, 7189773.087824057787657 ], [ 675421.768912496510893, 7189743.659390166401863 ], [ 675451.197332945419475, 7189710.835365619510412 ], [ 675479.493893672130071, 7189690.461830816231668 ], [ 675511.18604040844366, 7189662.165256464853883 ], [ 675537.218876683735289, 7189645.187310228124261 ], [ 675558.724265118478797, 7189639.527991848997772 ], [ 675585.888966383645311, 7189632.7368094753474 ], [ 675613.053669228800572, 7189632.736803187057376 ], [ 675650.405135904671624, 7189633.86865721642971 ], [ 675671.910524869337678, 7189630.473064192570746 ], [ 675696.811501157935709, 7189624.813745021820068 ], [ 675718.316892231581733, 7189630.473053440451622 ], [ 675733.031109703471884, 7189645.187264882028103 ], [ 675747.745327702257782, 7189662.165201678872108 ], [ 675754.536507900455035, 7189681.406865680590272 ], [ 675776.041902401484549, 7189701.78038894943893 ], [ 675794.151707996497862, 7189717.626462281681597 ], [ 675809.997786771156825, 7189726.681360054761171 ], [ 675834.898765702964738, 7189732.340667688287795 ], [ 675860.931607519160025, 7189739.131837734952569 ], [ 675891.491900336463004, 7189748.18673209566623 ], [ 675918.656607941957191, 7189768.560254048556089 ], [ 675943.557590045733377, 7189787.801913848146796 ], [ 675974.117883394123055, 7189799.120533566921949 ], [ 676009.771556416526437, 7189801.384250653907657 ], [ 676038.068122417200357, 7189803.647969447076321 ], [ 676098.056841479148716, 7189804.77981820423156 ], [ 676144.463207001565024, 7189796.856768658384681 ], [ 676179.550945276510902, 7189784.406271019019186 ], [ 676244.067106608999893, 7189750.45037560351193 ], [ 676282.550430883769877, 7189730.076838403940201 ], [ 676338.011692321626469, 7189700.64839581027627 ], [ 676390.077365895733237, 7189671.219954001717269 ], [ 676435.351861899718642, 7189633.868475005030632 ], [ 676482.890085257240571, 7189605.571896928362548 ], [ 676525.900858402135782, 7189578.407182585448027 ], [ 676575.702801423380151, 7189526.341487686149776 ], [ 676600.603769484208897, 7189485.594425389543176 ], [ 676624.372879697242752, 7189465.220891607925296 ], [ 676631.164047450409271, 7189431.265009613707662 ], [ 676623.24100249260664, 7189402.96844445168972 ], [ 676608.526779440231621, 7189364.485116750001907 ], [ 676562.120395130477846, 7189292.045916019007564 ], [ 676545.142448702827096, 7189261.485627606511116 ], [ 676534.955679840408266, 7189238.848376377485693 ], [ 676528.164499098667875, 7189217.342987038195133 ], [ 676533.823805558960885, 7189189.046418718062341 ], [ 676554.197322345338762, 7189144.90376945771277 ], [ 676614.186019879067317, 7189054.354741100221872 ], [ 676639.086985535803251, 7189003.420914711430669 ], [ 676650.405604287050664, 7188971.728757042437792 ], [ 676690.020784759894013, 7188924.190515268594027 ], [ 676755.668801714666188, 7188860.80618991702795 ], [ 676796.415844795992598, 7188813.267947880551219 ], [ 676859.360747119528241, 7188745.234682125039399 ], [ 676892.332444084109738, 7188685.397124727256596 ], [ 676899.659480107948184, 7188638.992492647841573 ], [ 676905.640534515492618, 7188588.027249234728515 ], [ 676913.563557431218214, 7188522.379212003201246 ], [ 676919.222862015943974, 7188486.159604955464602 ], [ 676930.541465073474683, 7188387.687549252994359 ], [ 676935.068905977765098, 7188346.940491760149598 ], [ 676936.200758231803775, 7188302.797847026959062 ], [ 676936.200748934410512, 7188263.182653276249766 ], [ 676945.821568953571841, 7188211.116967815905809 ], [ 676951.48087114142254, 7188164.710596678778529 ], [ 676951.480859984760173, 7188117.172364184632897 ], [ 676933.371039526537061, 7188037.941980930045247 ], [ 676888.096514161559753, 7187949.656702591106296 ], [ 676867.722976185847074, 7187903.250337542966008 ], [ 676858.668062774464488, 7187850.052793788723648 ], [ 676857.536190069979057, 7187807.042012293823063 ], [ 676863.195487480610609, 7187740.262112977914512 ], [ 676863.195477126049809, 7187696.1194685427472 ], [ 676860.931742863846011, 7187657.636138031259179 ], [ 676863.195459331036545, 7187620.284669139422476 ], [ 676876.777800360345282, 7187576.142021546140313 ], [ 676903.942495429888368, 7187543.317997558042407 ], [ 676935.634643082157709, 7187519.548873939551413 ], [ 676975.249830107670277, 7187500.307199177332222 ], [ 676992.227768275653943, 7187495.779744503088295 ], [ 677005.810118596535176, 7187491.252290626056492 ], [ 677026.183642483316362, 7187477.669933740049601 ], [ 677028.447363460785709, 7187459.560130372643471 ], [ 677028.447359474375844, 7187442.582190209999681 ], [ 677022.788036827696487, 7187401.835135148838162 ], [ 677015.996854757308029, 7187374.670432480983436 ], [ 677002.414494073600508, 7187335.055241949856281 ], [ 676991.095861278707162, 7187306.758677661418915 ], [ 676982.040956901735626, 7187292.044464971870184 ], [ 676979.777226623031311, 7187270.539074633270502 ], [ 676983.172812608536333, 7187262.61603510286659 ], [ 676999.795458124484867, 7187232.199465813115239 ], [ 677021.052748168818653, 7187184.961013813503087 ], [ 677018.26053187798243, 7187169.803287398070097 ], [ 677001.282585213892162, 7187138.111136408522725 ], [ 676982.606846223003231, 7187113.210161873139441 ], [ 676945.255375416600145, 7187093.968505086377263 ], [ 676899.980862060561776, 7187056.617047317326069 ], [ 676886.398506964906119, 7187040.770973009988666 ], [ 676868.288698223419487, 7187011.34254764020443 ], [ 676853.574479187722318, 7186989.837160214781761 ], [ 676833.200947609264404, 7186970.595499463379383 ], [ 676809.431828721193597, 7186953.617564857937396 ], [ 676787.92643001768738, 7186915.134238867089152 ], [ 676780.003384018782526, 7186882.310223096981645 ], [ 676777.73964843840804, 7186838.167579242028296 ], [ 676777.739637289079838, 7186790.629346831701696 ], [ 676790.190113568562083, 7186737.431798143312335 ], [ 676798.113143637776375, 7186702.344053331762552 ], [ 676798.113137535052374, 7186676.311211777850986 ], [ 676806.036171053536236, 7186655.937681758776307 ], [ 676817.354791086632758, 7186629.904837569221854 ], [ 676830.937133959261701, 7186593.685228767804801 ], [ 676834.332715162308887, 7186565.388661075383425 ], [ 676831.503050663159229, 7186531.432781455107033 ], [ 676831.503039774717763, 7186485.026411743834615 ], [ 676822.448124793125317, 7186425.037692032754421 ], [ 676832.634881944395602, 7186397.872985441237688 ], [ 676858.667712765396573, 7186358.257785715162754 ], [ 676893.755448211217299, 7186334.488661340437829 ], [ 676909.601517362636514, 7186302.796502726152539 ], [ 676928.843175949295983, 7186277.895519373007119 ], [ 676954.876011278480291, 7186257.52198513969779 ], [ 676963.930912186158821, 7186257.521983023732901 ], [ 676979.776984789641574, 7186240.544039192609489 ], [ 676983.172567580942996, 7186219.038647564128041 ], [ 676985.436281644389965, 7186171.500414669513702 ], [ 676985.436271013924852, 7186126.225907650776207 ], [ 676984.304403352318332, 7186104.72051708586514 ], [ 676997.320820480352268, 7186092.270024618133903 ], [ 677014.298757819458842, 7186084.346981927752495 ], [ 677030.144832541816868, 7186076.423939500935376 ], [ 677058.441394420107827, 7186061.709718115627766 ], [ 677085.606093415408395, 7186045.863634318113327 ], [ 677103.715890704421327, 7186026.621964607387781 ], [ 677115.034511516336352, 7186003.984708461910486 ], [ 677130.880580651573837, 7185972.292549856938422 ], [ 677158.045275918440893, 7185940.600388606078923 ], [ 677169.363899123622105, 7185928.14989653788507 ], [ 677193.1330070795957, 7185898.721461428329349 ], [ 677202.187901329714805, 7185870.42489243671298 ], [ 677206.715345927630551, 7185845.523912532255054 ], [ 677206.715341669158079, 7185827.414109732955694 ], [ 677212.374649145407602, 7185803.644992236979306 ], [ 677220.29768690164201, 7185801.381265036761761 ], [ 677235.011901668389328, 7185804.776849621906877 ], [ 677251.989840861060657, 7185804.776845651678741 ], [ 677272.363367095356807, 7185801.38125286437571 ], [ 677302.923654179321602, 7185786.667030945420265 ], [ 677326.692766120424494, 7185774.216535963118076 ], [ 677348.198152300203219, 7185759.502316160127521 ], [ 677362.912362006958574, 7185741.392509924247861 ], [ 677375.362847285461612, 7185726.67829223908484 ], [ 677384.417744455276988, 7185710.83221267350018 ], [ 677393.4726405616384, 7185690.458682409487665 ], [ 677411.582438104320318, 7185672.348875377327204 ], [ 677417.807677146513015, 7185649.71162042953074 ], [ 677431.390021833940409, 7185621.415050383657217 ], [ 677439.313055325881578, 7185601.041520385071635 ], [ 677448.367948232917115, 7185567.085638031363487 ], [ 677454.027250636252575, 7185521.811129726469517 ], [ 677455.159103122423403, 7185478.800347834825516 ], [ 677454.027231714804657, 7185441.448879845440388 ], [ 677441.576736318180338, 7185413.152315903455019 ], [ 677427.994380974909291, 7185396.174378968775272 ], [ 677391.774773119599558, 7185378.064584653824568 ], [ 677361.214478861889802, 7185362.218514364212751 ], [ 677332.917910360381939, 7185348.636168893426657 ], [ 677320.467420028755441, 7185341.844995762221515 ], [ 677318.203692940762267, 7185333.921957571990788 ], [ 677324.994866217137314, 7185323.735191915184259 ], [ 677358.950742450659163, 7185314.680282579734921 ], [ 677400.82965776626952, 7185309.020959410816431 ], [ 677440.444846258615144, 7185296.570460725575686 ], [ 677477.796303929644637, 7185260.350846412591636 ], [ 677483.455609527416527, 7185228.65869021601975 ], [ 677506.658778412500396, 7185166.406237713992596 ], [ 677532.691608352586627, 7185123.395450014621019 ], [ 677553.06512230169028, 7185067.934174224734306 ], [ 677557.592568480526097, 7185049.824370386078954 ], [ 677565.657085789367557, 7185033.695325395092368 ], [ 677588.294330356176943, 7185001.154268228448927 ], [ 677609.51675032521598, 7184984.176323149353266 ], [ 677616.590888313017786, 7184970.028038071468472 ], [ 677618.005708907498047, 7184937.486985875293612 ], [ 677618.00570390757639, 7184916.264560746960342 ], [ 677618.005697572836652, 7184889.382822250947356 ], [ 677619.420521834515966, 7184872.404881816357374 ], [ 677629.324317351914942, 7184862.501081105321646 ], [ 677656.20605403999798, 7184861.086246462538838 ], [ 677681.672962797805667, 7184861.08624049462378 ], [ 677734.021602235967293, 7184834.204489728435874 ], [ 677777.881270418642089, 7184800.248599245212972 ], [ 677799.103689040057361, 7184777.611340800300241 ], [ 677824.570591120282188, 7184749.314767997711897 ], [ 677845.793008738663048, 7184722.433024529367685 ], [ 677858.526454767561518, 7184687.062313005328178 ], [ 677858.526447755168192, 7184657.350917834788561 ], [ 677862.770924866897985, 7184624.809864982962608 ], [ 677878.334024750627577, 7184578.120526068843901 ], [ 677868.430220224661753, 7184549.823961570858955 ], [ 677867.015388623229228, 7184535.675678489729762 ], [ 677857.111584767932072, 7184510.208770672790706 ], [ 677840.133640263229609, 7184487.571521196514368 ], [ 677824.570525355637074, 7184470.593584754504263 ], [ 677817.496380367549136, 7184455.030474663712084 ], [ 677816.0815467616776, 7184432.393221536651254 ], [ 677817.496371019515209, 7184415.415281115099788 ], [ 677838.718789297388867, 7184391.363194341771305 ], [ 677852.86706759117078, 7184372.970422588288784 ], [ 677874.089485197328031, 7184346.088679132983088 ], [ 677923.60845437052194, 7184261.198967069387436 ], [ 677950.490182353183627, 7184222.99859556183219 ], [ 677971.712597612524405, 7184186.213053725659847 ], [ 678007.083294830983505, 7184146.597851887345314 ], [ 678024.06122730311472, 7184118.301281092688441 ], [ 678033.965018460992724, 7184090.004711959511042 ], [ 678028.305697386735119, 7184056.04883312061429 ], [ 678014.157403394230641, 7184007.94467287324369 ], [ 678025.476024148287252, 7183985.307416775263846 ], [ 678049.528098599868827, 7183959.84050100389868 ], [ 678069.335688591119833, 7183935.788414569571614 ], [ 678100.461906690732576, 7183920.225295517593622 ], [ 678135.832608905620873, 7183901.832518788054585 ], [ 678176.862618483486585, 7183859.387658947147429 ], [ 678207.988830887363292, 7183819.772458111867309 ], [ 678237.700216369470581, 7183785.816570973023772 ], [ 678278.73022861185018, 7183754.690337849780917 ], [ 678297.122992339311168, 7183739.127221786417067 ], [ 678298.537815246032551, 7183716.48996802046895 ], [ 678298.537800516933203, 7183654.237521077506244 ], [ 678321.175041660433635, 7183607.548180548474193 ], [ 678355.130909234168939, 7183562.273665701970458 ], [ 678415.968506405479275, 7183485.872921066358685 ], [ 678444.265063264523633, 7183450.502205924130976 ], [ 678475.39126056083478, 7183347.219729846343398 ], [ 678475.391251850873232, 7183310.434193037450314 ], [ 678483.880213712109253, 7183277.893139244057238 ], [ 678492.369174901396036, 7183242.522428775206208 ], [ 678498.028481579036452, 7183215.640689007937908 ], [ 678512.176760504255071, 7183200.077573947608471 ], [ 678529.862107067718171, 7183171.781003012321889 ], [ 678534.106583805289119, 7183137.825121886096895 ], [ 678541.180711701163091, 7183081.231986680999398 ], [ 678542.595526555203833, 7183024.638852812349796 ], [ 678563.81793973967433, 7182979.364340985193849 ], [ 678626.070370470872149, 7182925.600849468261003 ], [ 678650.122442181454971, 7182888.815307009033859 ], [ 678660.02623162092641, 7182853.444596223533154 ], [ 678669.930022734333761, 7182825.148027129471302 ], [ 678699.641408823546953, 7182794.021796690300107 ], [ 678761.893842549412511, 7182752.991760216653347 ], [ 678773.212465610005893, 7182740.258302505128086 ], [ 678787.360746200545691, 7182731.769329139962792 ], [ 678797.264542008750141, 7182723.280356779694557 ], [ 678800.094194836681709, 7182707.717244398780167 ], [ 678800.094189801486209, 7182686.494819330051541 ], [ 678785.945899144047871, 7182652.538942566141486 ], [ 678760.478977708145976, 7182598.775471745058894 ], [ 678739.256543401628733, 7182554.915798284113407 ], [ 678717.326699668774381, 7182530.863721719942987 ], [ 678696.104274425772019, 7182525.204413374885917 ], [ 678670.637364741065539, 7182520.959934365004301 ], [ 678652.244595685973763, 7182513.885797013528645 ], [ 678622.533200885518454, 7182508.226490665227175 ], [ 678587.162493047188036, 7182502.567185648716986 ], [ 678575.843863948830403, 7182489.833733281120658 ], [ 678568.769719298230484, 7182475.685451575554907 ], [ 678574.429026302415878, 7182450.218540172092617 ], [ 678621.1183474737918, 7182402.114365704357624 ], [ 678653.659389730426483, 7182369.57330627925694 ], [ 678676.296633835183457, 7182335.617420855909586 ], [ 678707.422845812048763, 7182294.587391745299101 ], [ 678718.74146652163472, 7182271.950135685503483 ], [ 678727.230430038180202, 7182246.483223620802164 ], [ 678724.400770833948627, 7182235.16459759324789 ], [ 678718.741452427930199, 7182212.527345538139343 ], [ 678710.25247481954284, 7182178.571467459201813 ], [ 678710.252467771759257, 7182148.860072389245033 ], [ 678714.496943152626045, 7182109.244877959601581 ], [ 678732.889698106446303, 7182056.896225173026323 ], [ 678744.208315453841351, 7182020.110685753636062 ], [ 678756.9417664273642, 7182005.962399386800826 ], [ 678769.675212032161653, 7181969.176859637722373 ], [ 678792.312455781269819, 7181933.806145891547203 ], [ 678800.801417612819932, 7181901.265092154964805 ], [ 678813.534861869411543, 7181858.820239067077637 ], [ 678829.097967005567625, 7181834.768153682351112 ], [ 678857.394516058498994, 7181766.856386873871088 ], [ 678888.520724646281451, 7181711.678074429742992 ], [ 678922.476592770079151, 7181669.233216341584921 ], [ 678957.847296203952283, 7181656.499752970412374 ], [ 679020.837893310701475, 7181635.556364296004176 ], [ 679078.233089579618536, 7181619.68108256533742 ], [ 679124.637717652949505, 7181612.354024734348059 ], [ 679156.456026500090957, 7181615.583892369642854 ], [ 679157.00048221484758, 7181586.182907184585929 ], [ 679155.367089643026702, 7181567.126713557168841 ], [ 679149.377993268892169, 7181538.270192610099912 ], [ 679136.310881737503223, 7181508.324747970327735 ], [ 679124.877160456147976, 7181487.635168606415391 ], [ 679115.621292879455723, 7181479.468230509199202 ], [ 679099.760543115669861, 7181469.364755488932133 ], [ 679097.915249049314298, 7181468.327551254071295 ], [ 679032.83313405548688, 7181404.660291541367769 ], [ 678956.432389988563955, 7181328.259579481557012 ], [ 678922.476505422382616, 7181301.377849131822586 ], [ 678919.646843193564564, 7181277.325768101960421 ], [ 678930.258043366600759, 7181227.806773873977363 ], [ 678952.895280365250073, 7181164.139493461698294 ], [ 678996.754941891646013, 7181103.30186471156776 ], [ 679010.903212028322741, 7181050.953212987631559 ], [ 679029.295971974730492, 7181019.826985284686089 ], [ 679043.44425051053986, 7181002.849041925743222 ], [ 679071.740802876302041, 7180949.085558531805873 ], [ 679074.570457707857713, 7180942.011416191235185 ], [ 679111.355983645189553, 7180905.225870806723833 ], [ 679132.578403126681224, 7180886.833097444847226 ], [ 679166.534277925267816, 7180872.684806074947119 ], [ 679189.171530036139302, 7180872.684800723567605 ], [ 679224.542234439169988, 7180864.195822355337441 ], [ 679248.594314130721614, 7180861.366159999743104 ], [ 679275.476051680278033, 7180864.195810311473906 ], [ 679295.283652328886092, 7180885.418230638839304 ], [ 679309.431941629620269, 7180913.714793978258967 ], [ 679334.898856315063313, 7180939.181697972118855 ], [ 679356.121282190317288, 7180947.670662954449654 ], [ 679378.758533965912648, 7180946.255829265341163 ], [ 679395.736468332470395, 7180926.448228565044701 ], [ 679391.491977837518789, 7180902.396147885359824 ], [ 679366.025059445993975, 7180861.366132220253348 ], [ 679358.95091075100936, 7180830.239910540170968 ], [ 679358.950905363308266, 7180807.602657194249332 ], [ 679366.025039910105988, 7180779.306088836863637 ], [ 679378.75848984264303, 7180760.913317479193211 ], [ 679398.566082739038393, 7180749.594686118885875 ], [ 679425.447815236169845, 7180731.201911414042115 ], [ 679448.0850632970687, 7180714.223966047167778 ], [ 679470.722308661672287, 7180685.927394010126591 ], [ 679511.044907565694302, 7180659.045646114274859 ], [ 679549.245262736571021, 7180626.504585388116539 ], [ 679614.327354771434329, 7180593.963518291711807 ], [ 679645.453570338897407, 7180568.496600907295942 ], [ 679675.164957308792509, 7180541.614855524152517 ], [ 679680.824266285053454, 7180524.63691417966038 ], [ 679677.99460538988933, 7180506.244146512821317 ], [ 679668.090802870807238, 7180486.436552192084491 ], [ 679636.964578201877885, 7180473.703104569576681 ], [ 679618.571808511274867, 7180463.799310592003167 ], [ 679591.690064899041317, 7180435.502750292420387 ], [ 679587.445577098056674, 7180422.769296298734844 ], [ 679587.445574399549514, 7180411.450669631361961 ], [ 679601.593852912425064, 7180394.47272627800703 ], [ 679608.667990818852559, 7180380.324441267177463 ], [ 679608.66799014271237, 7180377.494784602895379 ], [ 679598.764192016446032, 7180376.07995861582458 ], [ 679586.030735687003471, 7180367.590991632081568 ], [ 679554.904512711334974, 7180361.931685674935579 ], [ 679528.022773151635192, 7180350.613065375946462 ], [ 679491.237235467066057, 7180337.879619087092578 ], [ 679471.429637863417156, 7180329.390653779730201 ], [ 679453.036866495735012, 7180312.412718135863543 ], [ 679441.718235392007045, 7180291.190295819193125 ], [ 679434.644087375840172, 7180262.893730830401182 ], [ 679434.6440816471586, 7180238.841649168170989 ], [ 679445.962703986908309, 7180223.278534825891256 ], [ 679464.35546692693606, 7180204.885762141086161 ], [ 679484.163058125413954, 7180186.492989121936262 ], [ 679496.896508379839361, 7180169.515046109445393 ], [ 679499.726161857135594, 7180156.781590444967151 ], [ 679499.726159158744849, 7180145.462963780388236 ], [ 679513.874434636207297, 7180115.751565439626575 ], [ 679520.241149312001653, 7180063.402915619313717 ], [ 679514.581830221693963, 7180037.936006968840957 ], [ 679514.581823479384184, 7180009.639440318569541 ], [ 679515.996645668870769, 7179984.172529993578792 ], [ 679530.144923499203287, 7179964.364929987117648 ], [ 679572.589766094577499, 7179943.142494944855571 ], [ 679585.323217692319304, 7179931.823865266516805 ], [ 679603.715979950968176, 7179910.601435920223594 ], [ 679603.715979276108555, 7179907.771779257804155 ], [ 679596.641835639369674, 7179897.867982605472207 ], [ 679579.663894219207577, 7179887.964188303798437 ], [ 679541.463530323235318, 7179883.719712357968092 ], [ 679500.433506883913651, 7179866.741782087832689 ], [ 679442.425544724450447, 7179851.178684167563915 ], [ 679437.473643136094324, 7179839.86005868203938 ], [ 679433.229155002743937, 7179825.711776360869408 ], [ 679433.229148598853499, 7179798.830038052052259 ], [ 679445.962597502046265, 7179776.19278172031045 ], [ 679471.42950035771355, 7179752.140694043599069 ], [ 679506.800203355611302, 7179737.99240234401077 ], [ 679566.2229849944124, 7179716.769963285885751 ], [ 679598.764034852385521, 7179716.769955575466156 ], [ 679628.475425501586869, 7179705.451321877539158 ], [ 679659.601641369052231, 7179681.399232855066657 ], [ 679686.483372130896896, 7179655.932316506281495 ], [ 679696.387165188789368, 7179636.124717513099313 ], [ 679696.387161140330136, 7179619.146777527406812 ], [ 679685.068529707030393, 7179596.509526902809739 ], [ 679680.824039882863872, 7179575.287102930247784 ], [ 679680.824035831377842, 7179558.309162948280573 ], [ 679699.216797063825652, 7179532.842248616740108 ], [ 679717.609561332734302, 7179520.108789268881083 ], [ 679720.439216153230518, 7179513.034646939486265 ], [ 679721.854040697682649, 7179497.471534956246614 ], [ 679721.854036984033883, 7179481.908423308283091 ], [ 679720.439203327521682, 7179459.27117033675313 ], [ 679723.268853761954233, 7179433.804259698837996 ], [ 679734.587472707033157, 7179404.092862052842975 ], [ 679757.224715321674012, 7179364.477663401514292 ], [ 679777.032302435487509, 7179329.106950420886278 ], [ 679788.350923403049819, 7179307.884522765874863 ], [ 679802.49920155480504, 7179289.491751102730632 ], [ 679809.57333910651505, 7179273.928637780249119 ], [ 679810.988161621266045, 7179249.876555812545121 ], [ 679816.647467542439699, 7179220.165159515105188 ], [ 679840.699540766887367, 7179190.453758856281638 ], [ 679895.877825429313816, 7179118.297500878572464 ], [ 679910.026102898526005, 7179097.07507255487144 ], [ 679942.567146983812563, 7179073.022983204573393 ], [ 679976.523019319283776, 7179048.970893517136574 ], [ 680010.47889064066112, 7179020.674318834207952 ], [ 680048.679246380575933, 7178990.962914816103876 ], [ 680089.709260316216387, 7178968.325651776045561 ], [ 680103.857537098461762, 7178944.273566791787744 ], [ 680119.420637735747732, 7178901.828713175840676 ], [ 680132.154067996074446, 7178801.375898688100278 ], [ 680153.376412957441062, 7178471.720892744138837 ], [ 680139.228105061687529, 7178365.608771385625005 ], [ 680103.857388948323205, 7178324.578758238814771 ], [ 680096.783240584889427, 7178294.867365000769496 ], [ 680099.612891000579111, 7178269.40045440196991 ], [ 680125.079787695081905, 7178219.881456823088229 ], [ 680174.598755193292163, 7178130.747260315343738 ], [ 680195.821170170092955, 7178093.961718712002039 ], [ 680200.773048064787872, 7178006.242361143231392 ], [ 680209.261998283211142, 7177925.597144383005798 ], [ 680221.995414634933695, 7177767.136368559673429 ], [ 680217.750901112100109, 7177646.875961665995419 ], [ 680209.261887267581187, 7177461.533452719449997 ], [ 680199.358066839165986, 7177366.739957118406892 ], [ 680117.29794611595571, 7177022.936693096533418 ], [ 680105.979303881060332, 7176955.024936094880104 ], [ 680090.416185019188561, 7176921.069059950299561 ], [ 680064.949265707633458, 7176875.794559543952346 ], [ 680042.312011014437303, 7176864.475938312709332 ], [ 680016.845101509592496, 7176860.231459381990135 ], [ 679995.62267810839694, 7176861.646292749792337 ], [ 679971.570595502853394, 7176851.742500178515911 ], [ 679956.007480368483812, 7176833.34973562695086 ], [ 679952.677040851325728, 7176821.931095372885466 ] ] ] ] } }
]
}
