{
"type": "FeatureCollection",
"name": "rio_iraizinho",
"crs": { "type": "name", "properties": { "name": "urn:ogc:def:crs:EPSG::31982" } },
"features": [
{ "type": "Feature", "properties": { "AREA": 52258816.909259997, "PERIMETER": 37112.40479, "BACIAS1_": 18, "BACIAS1_ID": 0, "NOME_BACIA": "RIO IRAIZINHO", "SUB_AREA": 52.26, "SUBCODIGO": 17, "BACCODIGO": 2, "SUBNOME": "RIO IRAIZINHO", "SUBBAC_DAT": "2002-01-03", "SUBBAC_POP": 27468, "SUBBAC_P_1": 35280, "SUBBAC_DEN": 675.11, "SUBBAC_D_1": 525.61 }, "geometry": { "type": "MultiPolygon", "coordinates": [ [ [ [ 699297.609796394477598, 7184727.497274484485388 ], [ 699321.741352822864428, 7184718.215898828580976 ], [ 699370.004464200348593, 7184694.08432593382895 ], [ 699395.992290455731563, 7184669.952758893370628 ], [ 699416.411297885118984, 7184655.102562629617751 ], [ 699453.536766696255654, 7184630.970992658287287 ], [ 699485.093417174997739, 7184617.97706732340157 ], [ 699525.931434977566823, 7184599.414317958988249 ], [ 699572.338275039219297, 7184584.564114851877093 ], [ 699589.044733960647136, 7184566.001371838152409 ], [ 699631.739022565772757, 7184536.300978811457753 ], [ 699670.720764633500949, 7184510.313134483061731 ], [ 699713.415055200457573, 7184488.037836898118258 ], [ 699746.827980411238968, 7184478.756458790972829 ], [ 699801.588051395025104, 7184460.193705746904016 ], [ 699831.288424654281698, 7184434.205863861367106 ], [ 699862.84506773413159, 7184393.367830595001578 ], [ 699888.832891993690282, 7184361.811168103478849 ], [ 699922.245814736117609, 7184343.248420681804419 ], [ 699979.790290924720466, 7184304.266654424369335 ], [ 700018.772029518848285, 7184265.284893059171736 ], [ 700072.603958672028966, 7184228.159401638433337 ], [ 700137.573533331975341, 7184202.171550437808037 ], [ 700193.261739686015062, 7184178.039975546300411 ], [ 700234.099756460404024, 7184155.764678430743515 ], [ 700284.219142518821172, 7184135.345652727410197 ], [ 700334.338529560249299, 7184118.639174738898873 ], [ 700356.613814665237442, 7184118.639168852940202 ], [ 700384.457922030938789, 7184122.351709214970469 ], [ 700404.876934362575412, 7184126.064251538366079 ], [ 700427.152228352846578, 7184159.477175138890743 ], [ 700445.71497334598098, 7184187.321278143674135 ], [ 700473.55908614594955, 7184211.452830969356 ], [ 700553.378862223471515, 7184228.15927460603416 ], [ 700618.348448232631199, 7184244.865722165443003 ], [ 700701.880767876282334, 7184246.721973915584385 ], [ 700764.994081613840535, 7184268.997243534773588 ], [ 700833.676223065005615, 7184315.404071868397295 ], [ 700904.214637788012624, 7184359.954625844955444 ], [ 700935.771298622363247, 7184385.942451538518071 ], [ 700995.172069811378606, 7184426.780460743233562 ], [ 701037.866371724288911, 7184447.199461896903813 ], [ 701073.135577115346678, 7184462.049643434584141 ], [ 701108.404787461622618, 7184495.462563587352633 ], [ 701126.967530011781491, 7184514.025297277607024 ], [ 701143.080741911078803, 7184530.138501486741006 ], [ 701164.182514170301147, 7184509.036716837435961 ], [ 701199.91251014044974, 7184459.5566919259727 ], [ 701231.60388533200603, 7184403.850193485617638 ], [ 701263.23195310367737, 7184350.32573557831347 ], [ 701311.890523347770795, 7184284.636625535786152 ], [ 701365.414952360093594, 7184218.947514204308391 ], [ 701494.04250337544363, 7184151.676517881453037 ], [ 701536.719516708049923, 7184104.635718757286668 ], [ 701547.262054117396474, 7184027.962563278153539 ], [ 701523.55529368983116, 7183961.056942819617689 ], [ 701491.927197981858626, 7183909.965431270189583 ], [ 701443.268582256976515, 7183805.349474773742259 ], [ 701389.744120120885782, 7183746.959180485457182 ], [ 701343.518440305721015, 7183666.672518568113446 ], [ 701285.128119413973764, 7183608.282225573435426 ], [ 701238.902451962349005, 7183574.221224556677043 ], [ 701172.432253590784967, 7183524.936408407054842 ], [ 701073.463239364908077, 7183520.696819003671408 ], [ 701000.475362302851863, 7183537.727345002815127 ], [ 700934.786272099474445, 7183549.89201002009213 ], [ 700878.828894903301261, 7183545.026165808551013 ], [ 700832.603227474843152, 7183510.965164771303535 ], [ 700784.832119359867647, 7183392.996470205485821 ], [ 700754.602099185809493, 7183346.256463710218668 ], [ 700729.111438158899546, 7183272.657683597877622 ], [ 700728.089114809641615, 7183217.45301400590688 ], [ 700720.932936867233366, 7183152.025259030982852 ], [ 700697.419824965065345, 7183102.954447606578469 ], [ 700631.992056723684072, 7183046.727486373856664 ], [ 700595.161961150006391, 7182980.656392568722367 ], [ 700584.171936398954131, 7182898.196369934827089 ], [ 700575.921919662156142, 7182843.216355094686151 ], [ 700567.671901466092095, 7182782.746338559314609 ], [ 700545.681881966651417, 7182730.51632821187377 ], [ 700537.441859385697171, 7182653.546306576579809 ], [ 700537.441852277494036, 7182626.836684905923903 ], [ 700526.732390585937537, 7182605.417774578556418 ], [ 700489.363484596833587, 7182572.923089338466525 ], [ 700451.994583364343271, 7182558.300486415624619 ], [ 700419.499885270372033, 7182540.42841268889606 ], [ 700400.00306235300377, 7182514.43266174569726 ], [ 700367.508358646417037, 7182475.439036191441119 ], [ 700365.883614043239504, 7182438.070137232542038 ], [ 700370.757805082132109, 7182389.328093267977238 ], [ 700385.380406280513853, 7182348.709720507264137 ], [ 700409.75141720531974, 7182314.590284192934632 ], [ 700435.747164088417776, 7182285.345051721669734 ], [ 700456.056334019987844, 7182234.978268928825855 ], [ 700465.80473467009142, 7182207.357775506563485 ], [ 700477.177866527810693, 7182166.739403612911701 ], [ 700482.052063609706238, 7182140.743646239861846 ], [ 700482.052053234539926, 7182101.750012116506696 ], [ 700493.425189412198961, 7182077.378987777978182 ], [ 700509.672532180789858, 7182062.75637068413198 ], [ 700534.043548278510571, 7182048.133751440793276 ], [ 700590.909246015595272, 7181989.643285213038325 ], [ 700599.032909828703851, 7181953.899118456989527 ], [ 700605.531838975613937, 7181918.154952130280435 ], [ 700620.15443279792089, 7181849.916088562458754 ], [ 700618.529686884954572, 7181807.67298537120223 ], [ 700599.032863980275579, 7181781.677234457805753 ], [ 700574.661840107175522, 7181767.054628115147352 ], [ 700545.416615266818553, 7181763.805166345089674 ], [ 700516.171393885510042, 7181773.553582610562444 ], [ 700469.054094210034236, 7181794.675146881490946 ], [ 700400.815243449760601, 7181814.171981979161501 ], [ 700343.949528432218358, 7181807.673057993873954 ], [ 700311.454832532908767, 7181797.924658056348562 ], [ 700290.333279291749932, 7181788.176255106925964 ], [ 700270.836460285354406, 7181776.803116977214813 ], [ 700246.465433396631852, 7181750.807367345318198 ], [ 700223.719146354822442, 7181744.308434339240193 ], [ 700165.228699269122444, 7181747.557919293642044 ], [ 700111.612459630472586, 7181763.805280994623899 ], [ 700067.744629707187414, 7181786.551579137332737 ], [ 700015.75312688597478, 7181810.922614176757634 ], [ 699976.759497503051534, 7181820.67103299126029 ], [ 699950.763741562492214, 7181815.796835584565997 ], [ 699939.390595455886796, 7181802.79896055161953 ], [ 699934.516383699839935, 7181773.553736255504191 ], [ 699934.516375938779674, 7181744.308510674163699 ], [ 699934.516366455587558, 7181708.564346078783274 ], [ 699934.516357402200811, 7181674.444916238076985 ], [ 699934.516349210869521, 7181643.574955906718969 ], [ 699944.264748147805221, 7181609.455523500218987 ], [ 699960.512090054340661, 7181591.583436917513609 ], [ 699998.693343468243256, 7181549.340323238633573 ], [ 700016.565419604536146, 7181529.843501477502286 ], [ 700047.435373491374776, 7181511.971411037258804 ], [ 700092.927940220572054, 7181497.348786243237555 ], [ 700131.921566563774832, 7181476.22722414880991 ], [ 700172.53992325393483, 7181438.858314085751772 ], [ 700190.411989886546507, 7181383.617327740415931 ], [ 700190.411977368523367, 7181336.500019887462258 ], [ 700183.913030509604141, 7181305.630061287432909 ], [ 700167.665676096919924, 7181276.384840017184615 ], [ 700153.043058940442279, 7181256.888026839122176 ], [ 700131.921499242889695, 7181222.768602595664561 ], [ 700120.548347532167099, 7181188.649175779893994 ], [ 700114.049400677205995, 7181157.779217187315226 ], [ 700094.552578668226488, 7181135.032935789786279 ], [ 700078.305228577577509, 7181122.035062054172158 ], [ 700071.806283881189302, 7181099.28877722658217 ], [ 700076.680480107665062, 7181070.043550386093557 ], [ 700079.929940805886872, 7181037.548854470252991 ], [ 700068.556786943110637, 7180995.30575389880687 ], [ 700045.810495182056911, 7180970.934738611802459 ], [ 700040.936282994458452, 7180940.064779596403241 ], [ 700040.936270485399291, 7180892.947471771389246 ], [ 700055.558869515080005, 7180844.205425336956978 ], [ 700071.806211401941255, 7180826.333338771015406 ], [ 700107.55037011008244, 7180811.710716564208269 ], [ 700153.04293636395596, 7180795.463357027620077 ], [ 700180.66342045890633, 7180775.966532707214355 ], [ 700185.53761711041443, 7180748.346040630713105 ], [ 700179.038673277013004, 7180728.84922531992197 ], [ 700153.042918236809783, 7180727.224497433751822 ], [ 700110.799819155246951, 7180735.348182349465787 ], [ 700071.806191554991528, 7180751.595540164038539 ], [ 700036.062031554756686, 7180761.343958111479878 ], [ 699997.068401365424506, 7180767.842907413840294 ], [ 699975.94685074465815, 7180767.842912985011935 ], [ 699947.513991119689308, 7180756.469777220860124 ], [ 699928.017169989761896, 7180736.972965335473418 ], [ 699918.268756837816909, 7180717.476150881499052 ], [ 699913.394545089104213, 7180688.230926628224552 ], [ 699898.771924932370894, 7180657.360970196314156 ], [ 699876.02563534094952, 7180641.113628675229847 ], [ 699851.654612381593324, 7180629.740491839125752 ], [ 699838.656731199938804, 7180615.117882495746017 ], [ 699812.660967546282336, 7180580.998459560796618 ], [ 699775.2920677192742, 7180571.250060899183154 ], [ 699737.923170045949519, 7180569.625335996039212 ], [ 699694.055333290249109, 7180566.375878053717315 ], [ 699663.185370824299753, 7180551.753273418173194 ], [ 699643.688550136401318, 7180533.881196284666657 ], [ 699627.441197053180076, 7180509.510179286822677 ], [ 699586.822825323324651, 7180490.013372965157032 ], [ 699554.328128629596904, 7180477.015503507107496 ], [ 699494.212935792282224, 7180438.021885294467211 ], [ 699443.846150075900368, 7180395.778795011341572 ], [ 699406.477250691037625, 7180387.65513108856976 ], [ 699382.106231186189689, 7180389.27987225074321 ], [ 699360.98468530504033, 7180407.151960071176291 ], [ 699322.803430196479894, 7180442.896134648472071 ], [ 699296.807678605779074, 7180454.269284744746983 ], [ 699262.688249835278839, 7180451.019824212417006 ], [ 699241.566696644178592, 7180441.271421255543828 ], [ 699213.94619879196398, 7180408.776733485050499 ], [ 699189.575173272867687, 7180387.65518812276423 ], [ 699160.329945484991185, 7180373.032583044841886 ], [ 699114.837362489313819, 7180325.915287209674716 ], [ 699101.83948046900332, 7180308.043208359740674 ], [ 699062.845840850844979, 7180278.797993079759181 ], [ 699030.351144175510854, 7180265.800123604014516 ], [ 699010.854323510546237, 7180247.928046462126076 ], [ 698978.359625549986959, 7180230.055972730740905 ], [ 698949.114396485616453, 7180210.559163395315409 ], [ 698936.116513614077121, 7180189.437615044414997 ], [ 698923.118623450049199, 7180140.69557592831552 ], [ 698901.997062122682109, 7180100.077212699688971 ], [ 698892.248649435583502, 7180082.205132999457419 ], [ 698882.50023974920623, 7180075.706196555867791 ], [ 698874.376566012739204, 7180074.081463934853673 ], [ 698874.37656772765331, 7180080.580402940511703 ], [ 698874.37657458987087, 7180106.576158951967955 ], [ 698874.376580165931955, 7180127.697710711508989 ], [ 698869.502382613602094, 7180152.068733254447579 ], [ 698867.877653526724316, 7180173.190285443328321 ], [ 698856.504518184112385, 7180200.810779193416238 ], [ 698837.007706528063864, 7180217.058131819590926 ], [ 698804.513015862321481, 7180226.806548850610852 ], [ 698768.768855012836866, 7180233.305497230030596 ], [ 698724.901022998266853, 7180247.928121492266655 ], [ 698694.031064419774339, 7180247.928129585459828 ], [ 698672.909512099693529, 7180241.429196119308472 ], [ 698642.039549237815663, 7180225.181856699287891 ], [ 698612.79432318196632, 7180217.058190608397126 ], [ 698585.173834785120562, 7180220.307667346671224 ], [ 698552.679143258952536, 7180226.806614863686264 ], [ 698526.683390379534103, 7180233.30556067917496 ], [ 698489.314497863990255, 7180251.177652727812529 ], [ 698440.572463994612917, 7180273.92395200766623 ], [ 698414.576714108348824, 7180291.79604107607156 ], [ 698377.207820302224718, 7180304.793928869068623 ], [ 698359.335744579439051, 7180325.915485311299562 ], [ 698356.086278250091709, 7180337.288629421964288 ], [ 698357.711021039402112, 7180368.15858927089721 ], [ 698367.45943671267014, 7180397.403812242671847 ], [ 698375.583119863294996, 7180434.772709402255714 ], [ 698386.143901585950516, 7180459.143727911636233 ], [ 698376.395508584449999, 7180516.009446769021451 ], [ 698361.772910309373401, 7180568.000962654128671 ], [ 698322.77929037832655, 7180613.493545908480883 ], [ 698288.659869729657657, 7180641.114045618101954 ], [ 698265.913588296971284, 7180655.736664334312081 ], [ 698243.167301734676585, 7180650.862466030754149 ], [ 698210.672611469984986, 7180662.235617792233825 ], [ 698184.676864983164705, 7180693.105584879405797 ], [ 698111.563816257752478, 7180735.348707547411323 ], [ 698080.693862359505147, 7180753.220797888934612 ], [ 698048.199170805863105, 7180759.719745389185846 ], [ 698009.205543160671368, 7180775.967103099450469 ], [ 697981.585060718702152, 7180801.962866351008415 ], [ 697960.463516500080004, 7180826.333893151953816 ], [ 697918.220419951016083, 7180844.205986462533474 ], [ 697895.474134664982557, 7180844.205992402508855 ], [ 697846.732098606415093, 7180858.828617895022035 ], [ 697820.736348686972633, 7180876.700706958770752 ], [ 697804.489009304554202, 7180904.321201989427209 ], [ 697786.616936535108835, 7180936.815901705063879 ], [ 697770.369593313429505, 7180949.813783967867494 ], [ 697751.685145110357553, 7180951.438523593358696 ], [ 697707.8173023739364, 7180925.442778995260596 ], [ 697685.071011970518157, 7180905.945967898704112 ], [ 697641.203158584656194, 7180839.331854488700628 ], [ 697620.081602848367766, 7180819.835042968392372 ], [ 697587.586905322852544, 7180803.587703917175531 ], [ 697569.71482062083669, 7180790.589830558747053 ], [ 697555.092205244116485, 7180777.591956350952387 ], [ 697550.217997846775688, 7180764.594079604372382 ], [ 697550.217991030309349, 7180738.598323568701744 ], [ 697530.721166980452836, 7180707.728368360549212 ], [ 697512.8490780221764, 7180678.483147480525076 ], [ 697486.853311064885929, 7180631.365846447646618 ], [ 697459.232814132119529, 7180602.120628111064434 ], [ 697433.237055697478354, 7180587.498022115789354 ], [ 697387.74448471609503, 7180585.873299213126302 ], [ 697339.002444834914058, 7180585.873311905190349 ], [ 697298.38407954457216, 7180590.747526735067368 ], [ 697259.390451041166671, 7180603.745414899662137 ], [ 697205.774214399862103, 7180631.365919632837176 ], [ 697178.153729809913784, 7180649.238009091466665 ], [ 697129.411692899302579, 7180660.611165032722056 ], [ 697079.044918351224624, 7180660.611178129911423 ], [ 697028.678143377997912, 7180658.986456472426653 ], [ 697004.307123010279611, 7180657.361728056333959 ], [ 696957.189815664780326, 7180649.238066541031003 ], [ 696916.571449941606261, 7180652.487546600401402 ], [ 696875.140717737609521, 7180658.986496370285749 ], [ 696819.899743869202211, 7180676.858592988923192 ], [ 696766.283506782259792, 7180702.854362942278385 ], [ 696722.415675974916667, 7180722.3511913549155 ], [ 696670.42416845401749, 7180728.850143855437636 ], [ 696647.677881476236507, 7180722.351210748776793 ], [ 696610.308979987981729, 7180706.103872923180461 ], [ 696569.690607903990895, 7180684.982331681996584 ], [ 696530.696973450947553, 7180675.23393328115344 ], [ 696503.076480367686599, 7180660.611327676102519 ], [ 696470.581783298868686, 7180645.988723332062364 ], [ 696442.961293183732778, 7180642.739260987378657 ], [ 696426.71394655527547, 7180642.739265197888017 ], [ 696412.091337131685577, 7180652.487677499651909 ], [ 696400.718198726419359, 7180668.735027965158224 ], [ 696392.594530917238444, 7180689.856581846252084 ], [ 696379.596660389797762, 7180715.852341246791184 ], [ 696353.600911286892369, 7180736.973899757489562 ], [ 696308.108347494155169, 7180762.969667577184737 ], [ 696254.492111231666058, 7180792.214907001703978 ], [ 696223.622154748765752, 7180800.338588755577803 ], [ 696168.381187622435391, 7180844.2064413651824 ], [ 696119.63915702921804, 7180879.950618531554937 ], [ 696083.895006275502965, 7180925.443200848996639 ], [ 696062.773467065300792, 7180969.311044631525874 ], [ 696057.899271530448459, 7181001.805740945972502 ], [ 696048.150870313984342, 7181027.80149951018393 ], [ 696028.654064495582134, 7181066.795138618908823 ], [ 696012.406725466367789, 7181096.040368372574449 ], [ 695992.097546395147219, 7181112.287721153348684 ], [ 695940.106050672475249, 7181164.279246690683067 ], [ 695917.359774249140173, 7181198.398682383820415 ], [ 695881.615627269959077, 7181258.513877488672733 ], [ 695857.244611954083666, 7181276.385966073721647 ], [ 695836.123063431237824, 7181284.509645296260715 ], [ 695785.756288841832429, 7181284.509658308699727 ], [ 695738.638983579119667, 7181284.509670477360487 ], [ 695694.77114806859754, 7181286.134416557848454 ], [ 695663.901190714444965, 7181291.008628787472844 ], [ 695590.788141791825183, 7181333.251751244068146 ], [ 695542.046110718045384, 7181367.371193641796708 ], [ 695506.301956112263724, 7181398.241163177415729 ], [ 695483.55568008357659, 7181433.985333625227213 ], [ 695454.310464550973848, 7181466.480036236345768 ], [ 695418.566308672889136, 7181492.475801514461637 ], [ 695386.071617487119511, 7181500.599483661353588 ], [ 695355.201658858451992, 7181500.59949161671102 ], [ 695334.080104847555049, 7181487.601619029417634 ], [ 695311.333810700336471, 7181453.482195063494146 ], [ 695286.962778521003202, 7181406.364893490448594 ], [ 695243.094925320358016, 7181339.750779898837209 ], [ 695217.099159324774519, 7181295.882948255166411 ], [ 695182.979723379481584, 7181265.012996728532016 ], [ 695117.177949708886445, 7181188.650480274111032 ], [ 695039.190674482611939, 7181144.782662013545632 ], [ 694987.199154727393761, 7181104.164306567050517 ], [ 694948.205510185449384, 7181055.422274013049901 ], [ 694912.461339179193601, 7181022.927588149905205 ], [ 694876.717169856303371, 7180996.931841298937798 ], [ 694844.222471541259438, 7180977.435032624751329 ], [ 694808.478306424920447, 7180967.686633294448256 ], [ 694748.363125135540031, 7180972.560852999798954 ], [ 694693.122148257214576, 7180979.059806202538311 ], [ 694655.753250995650887, 7180979.059815800748765 ], [ 694608.635943657136522, 7180970.93615413736552 ], [ 694576.14124367327895, 7180944.940406439825892 ], [ 694540.397073526750319, 7180915.695190070196986 ], [ 694512.776582151651382, 7180907.571523396298289 ], [ 694498.153968085069209, 7180899.44785338640213 ], [ 694442.912976534338668, 7180849.081090237013996 ], [ 694397.420406382181682, 7180850.705836657434702 ], [ 694343.804162497399375, 7180850.705850409343839 ], [ 694295.06212469516322, 7180858.829536667093635 ], [ 694239.008785514393821, 7180884.825307070277631 ], [ 694219.511969136656262, 7180883.200577314943075 ], [ 694193.516213266993873, 7180878.326379718258977 ], [ 694169.145189130329527, 7180862.079038439318538 ], [ 694156.147306801518425, 7180842.582224739715457 ], [ 694136.650485819787718, 7180823.085412708111107 ], [ 694115.528931430308148, 7180808.462805348448455 ], [ 694104.155785023001954, 7180793.840195490047336 ], [ 694094.407368671847507, 7180761.345502943731844 ], [ 694086.283689497504383, 7180738.599218495190144 ], [ 694063.537402124260552, 7180730.475550560280681 ], [ 694032.667443945305422, 7180732.100293215364218 ], [ 694024.543771050055511, 7180733.725030047819018 ], [ 694019.669571244157851, 7180749.972378814592957 ], [ 694021.294311347533949, 7180771.09393017552793 ], [ 694022.91905144858174, 7180792.215481538325548 ], [ 694022.919058143394068, 7180818.211237572133541 ], [ 694024.543799500563182, 7180844.206993192434311 ], [ 694024.543805357767269, 7180866.953279727138579 ], [ 694016.420137480832636, 7180888.074833586812019 ], [ 693993.673862652154639, 7180928.69320821762085 ], [ 693988.799661590950564, 7180940.066352732479572 ], [ 693977.426525639602914, 7180966.062111685052514 ], [ 693961.179184859269299, 7180988.808402378112078 ], [ 693944.931838642805815, 7180990.43314128741622 ], [ 693918.936082354048267, 7180983.934208928607404 ], [ 693868.569306531455368, 7180979.060017555952072 ], [ 693836.074613261269405, 7180979.060025868006051 ], [ 693808.45412607153412, 7180987.183706692419946 ], [ 693772.709964728681371, 7180992.057920088991523 ], [ 693736.965800459729508, 7180985.558990215882659 ], [ 693686.599024638533592, 7180980.684798828326166 ], [ 693660.603266264777631, 7180966.062192698940635 ], [ 693637.856974294874817, 7180940.066442470997572 ], [ 693590.739668637979776, 7180938.441719754599035 ], [ 693543.622364234179258, 7180941.691201293841004 ], [ 693480.257713613798842, 7180946.5654217293486 ], [ 693426.641473475145176, 7180961.188048183917999 ], [ 693397.39625286962837, 7180974.185933667235076 ], [ 693382.773646736517549, 7180996.932223934680223 ], [ 693363.276838695979677, 7181027.802189208567142 ], [ 693350.278968892176636, 7181057.04741807281971 ], [ 693343.780036490876228, 7181081.418441021814942 ], [ 693340.530580088146962, 7181131.785219188779593 ], [ 693338.905854596057907, 7181167.529384166933596 ], [ 693303.161707828054205, 7181229.269313897937536 ], [ 693277.978324704919942, 7181245.516667852178216 ], [ 693243.858896759920754, 7181245.516676552593708 ], [ 693214.613671973464079, 7181242.267214501276612 ], [ 693188.617917764699087, 7181243.891955880448222 ], [ 693170.745840209769085, 7181258.514573214575648 ], [ 693136.626419759821147, 7181287.759807465597987 ], [ 693100.882265475927852, 7181320.254511636681855 ], [ 693053.764966874849051, 7181346.250279693864286 ], [ 692990.400317049352452, 7181354.373969595879316 ], [ 692946.532478200620972, 7181343.000837489962578 ], [ 692899.415170441381633, 7181333.252440962940454 ], [ 692847.423655365360901, 7181310.506167648360133 ], [ 692811.679490258218721, 7181300.757768223062158 ], [ 692775.935323489829898, 7181284.510429780930281 ], [ 692730.442747075925581, 7181261.764154803939164 ], [ 692696.323316221358255, 7181250.391020208597183 ], [ 692673.57703092484735, 7181250.391025991179049 ], [ 692634.583403556724079, 7181268.263118186034262 ], [ 692580.967165454640053, 7181291.009418355301023 ], [ 692532.225126360775903, 7181294.25890024472028 ], [ 692499.730433078599162, 7181294.258908497169614 ], [ 692472.109947107965127, 7181307.256793537177145 ], [ 692438.802892300882377, 7181330.003088539466262 ], [ 692399.809266997966915, 7181355.998854491859674 ], [ 692365.689841951825656, 7181367.372006424702704 ], [ 692331.570415245369077, 7181372.246219344437122 ], [ 692294.201517137233168, 7181368.996759317815304 ], [ 692268.205760021228343, 7181359.248357391916215 ], [ 692235.711059273453429, 7181330.003140075132251 ], [ 692196.717423187568784, 7181313.755802430212498 ], [ 692156.099054512102157, 7181305.632138963788748 ], [ 692126.853828485473059, 7181297.508472610265017 ], [ 692089.484924168791622, 7181269.887991275638342 ], [ 692063.48916043213103, 7181234.143833298236132 ], [ 692030.994458456407301, 7181200.024411717429757 ], [ 691992.000822795089334, 7181185.401808817870915 ], [ 691962.755599260679446, 7181187.026550977490842 ], [ 691930.260909705772065, 7181201.649171985685825 ], [ 691912.388833368197083, 7181221.145993545651436 ], [ 691905.889906713739038, 7181268.263303030282259 ], [ 691884.768366424599662, 7181308.881677207536995 ], [ 691845.774741517263465, 7181336.502177882939577 ], [ 691798.65744163072668, 7181357.623741601593792 ], [ 691756.414343668147922, 7181370.621630316600204 ], [ 691715.795984914293513, 7181401.491600904613733 ], [ 691699.548646124894731, 7181432.361565330065787 ], [ 691686.550776662887074, 7181463.23152893409133 ], [ 691612.625379589153454, 7181581.837184646166861 ], [ 691609.375918109319173, 7181612.707145789638162 ], [ 691609.375941659556702, 7181705.317026766017079 ], [ 691607.751220627920702, 7181758.933274064213037 ], [ 691609.375970167224295, 7181817.423724805936217 ], [ 691601.252306756912731, 7181856.417360965162516 ], [ 691552.510287034674548, 7181936.02937625348568 ], [ 691502.143528094515204, 7181997.769309656694531 ], [ 691463.14991428446956, 7182069.257648719474673 ], [ 691445.277847819845192, 7182127.748104411177337 ], [ 691422.531574054388329, 7182173.240683298557997 ], [ 691391.661624891567044, 7182210.609590459614992 ], [ 691346.169064967893064, 7182252.852705581113696 ], [ 691315.299119921401143, 7182306.468960300087929 ], [ 691286.053911189315841, 7182366.584153632633388 ], [ 691253.559226520126686, 7182400.703591698780656 ], [ 691213.753242444596253, 7182460.818787699565291 ], [ 691174.759624872123823, 7182517.684513987973332 ], [ 691140.640207173652016, 7182558.302891488187015 ], [ 691080.525034799706191, 7182598.9212755439803 ], [ 691028.533533284324221, 7182629.791249013505876 ], [ 690929.424732592655346, 7182685.032255690544844 ], [ 690857.936426991480403, 7182763.019541995599866 ], [ 690802.695464349351823, 7182826.384211402386427 ], [ 690755.578173800255172, 7182884.874674498103559 ], [ 690709.273249343386851, 7182938.490933122113347 ], [ 690686.526971396058798, 7182967.73616446275264 ], [ 690670.279631295707077, 7182993.731924660503864 ], [ 690654.032292840187438, 7183026.226623883470893 ], [ 690623.16234689229168, 7183076.593409113585949 ], [ 690600.416074279230088, 7183126.960192304104567 ], [ 690576.04506576329004, 7183172.452771633863449 ], [ 690559.797728531411849, 7183209.821675133891404 ], [ 690535.426718777511269, 7183250.440050194971263 ], [ 690524.053583492757753, 7183279.685278689488769 ], [ 690509.430985032464378, 7183333.301529364660382 ], [ 690493.183651078259572, 7183383.668310932815075 ], [ 690470.437372699030675, 7183411.288807530887425 ], [ 690437.94268753787037, 7183443.783510850742459 ], [ 690416.821140539599583, 7183458.406128976494074 ], [ 690403.823266061604954, 7183469.779275548644364 ], [ 690385.951186757534742, 7183477.902953825891018 ], [ 690318.524700873997062, 7183489.2761140614748 ], [ 690258.409525510040112, 7183518.521354793570936 ], [ 690173.923330927384086, 7183551.01607115380466 ], [ 690100.810283529339358, 7183601.382866993546486 ], [ 690069.94032891432289, 7183617.63022231683135 ], [ 690027.697229975252412, 7183627.37864145450294 ], [ 689975.705722201266326, 7183633.877593519166112 ], [ 689926.963684992399067, 7183645.250749040395021 ], [ 689881.471116712316871, 7183654.999168986454606 ], [ 689829.479612618102692, 7183676.120733865536749 ], [ 689788.861252844566479, 7183703.741234926506877 ], [ 689759.61603452404961, 7183726.487528867088258 ], [ 689718.997676379512995, 7183760.606968957930803 ], [ 689689.75246255507227, 7183801.225345242768526 ], [ 689668.630926572019234, 7183859.71580183878541 ], [ 689660.507268761983141, 7183921.455724705941975 ], [ 689660.507278165547177, 7183958.824624160304666 ], [ 689673.505164520232938, 7183994.568785607814789 ], [ 689712.49880641582422, 7184033.562410067766905 ], [ 689731.995628590579145, 7184057.933426575735211 ], [ 689749.867719370406121, 7184095.302321565337479 ], [ 689751.492459358647466, 7184116.423873028717935 ], [ 689751.492463449365459, 7184132.671220621094108 ], [ 689733.620387393864803, 7184153.792776965536177 ], [ 689723.871982235577889, 7184165.165922720916569 ], [ 689702.750434384448454, 7184176.539071323350072 ], [ 689671.880478103994392, 7184186.28748760279268 ], [ 689647.509461319074035, 7184199.285371776670218 ], [ 689657.051900577032939, 7184237.443448113277555 ], [ 689668.189553407370113, 7184278.281470260582864 ], [ 689690.464856734033674, 7184350.676145251840353 ], [ 689694.177424811176024, 7184432.352194203063846 ], [ 689714.596464665140957, 7184545.584894621744752 ], [ 689714.59648335701786, 7184619.835849074646831 ], [ 689698.818178825313225, 7184708.936998380348086 ], [ 689672.83036160399206, 7184770.194042319431901 ], [ 689644.986268284381367, 7184822.169717418029904 ], [ 689606.00453006173484, 7184864.864025993272662 ], [ 689552.172595684649423, 7184883.426778073422611 ], [ 689489.059296235209331, 7184916.839723370037973 ], [ 689454.71824520023074, 7184970.671673957258463 ], [ 689448.134229216258973, 7184995.910429248586297 ], [ 689443.580613370286301, 7185013.365975573658943 ], [ 689463.071497656404972, 7185052.347721816971898 ], [ 689502.053260631859303, 7185108.035927951335907 ], [ 689617.142257153638639, 7185200.849592314101756 ], [ 689672.83048353344202, 7185254.681520411744714 ], [ 689758.219087296864018, 7185297.375797895714641 ], [ 689826.901219270890579, 7185308.513423880562186 ], [ 689977.259405166842043, 7185353.063958938233554 ], [ 690073.785645443247631, 7185371.626673378050327 ], [ 690168.455606810748577, 7185369.770375775173306 ], [ 690237.137735985568725, 7185369.770358545705676 ], [ 690355.011108587263152, 7185325.219756241887808 ], [ 690418.124409908778034, 7185299.231906307861209 ], [ 690494.23163130809553, 7185288.094244012609124 ], [ 690555.488666368764825, 7185291.806776344776154 ], [ 690603.751783692860045, 7185289.950490349903703 ], [ 690681.715273214038461, 7185256.537541209720075 ], [ 690707.703103991923854, 7185249.112439222633839 ], [ 690735.547209470532835, 7185245.39988449215889 ], [ 690774.528966443496756, 7185276.956530354917049 ], [ 690785.666612300090492, 7185289.950444594025612 ], [ 690800.516810849774629, 7185323.36337039526552 ], [ 690824.648374917102046, 7185343.782376817427576 ], [ 690837.642296416684985, 7185364.201386043801904 ], [ 690856.205042492598295, 7185397.614310910925269 ], [ 690867.342695404426195, 7185438.452333103865385 ], [ 690898.899352643755265, 7185451.446242204867303 ], [ 690913.749542737612501, 7185451.446238465607166 ], [ 690965.725208065006882, 7185451.446225374937057 ], [ 691026.982249258202501, 7185479.29031789675355 ], [ 691073.389094714075327, 7185484.85912779532373 ], [ 691139.286819848930463, 7185510.846945276483893 ], [ 691181.981116842711344, 7185512.70320837572217 ], [ 691248.806977920117788, 7185534.978477887809277 ], [ 691276.651086704805493, 7185544.259840181097388 ], [ 691308.20774489780888, 7185560.966296995058656 ], [ 691337.908130745054223, 7185583.241575865074992 ], [ 691358.327142126159742, 7185583.241570712998509 ], [ 691386.171247143298388, 7185577.67274209484458 ], [ 691412.159077925258316, 7185570.247640077024698 ], [ 691436.2906377754407, 7185573.960181713104248 ], [ 691452.997104932786897, 7185586.954094540327787 ], [ 691523.5355107227806, 7185598.091719908639789 ], [ 691579.223727830452845, 7185614.798170617781579 ], [ 691651.618409744813107, 7185635.217164825648069 ], [ 691692.45643251191359, 7185635.217154500074685 ], [ 691724.013086468912661, 7185635.217146521434188 ], [ 691759.282289838884026, 7185642.642233058810234 ], [ 691785.270122510148212, 7185642.642226485535502 ], [ 691826.108142915181816, 7185633.3608468323946 ], [ 691852.095971806556918, 7185618.510649345815182 ], [ 691889.221438541891985, 7185585.097710399888456 ], [ 691924.490634821821004, 7185564.67868896946311 ], [ 691952.334741252707317, 7185564.678681922145188 ], [ 691961.616111953277141, 7185572.103775028139353 ], [ 691970.897485491121188, 7185590.666511317715049 ], [ 691974.61003679735586, 7185605.516701286658645 ], [ 691980.178878415026702, 7185685.336476031690836 ], [ 691987.603986704023555, 7185737.312142352573574 ], [ 692011.735551289631985, 7185759.587422613985837 ], [ 692047.004757506540045, 7185778.15015232283622 ], [ 692076.705142910126597, 7185798.569157307967544 ], [ 692143.531012085848488, 7185852.40108244959265 ], [ 692186.225316676660441, 7185883.957727326080203 ], [ 692254.907448265235871, 7185893.239079237915576 ], [ 692337.511637816205621, 7185921.083166258409619 ], [ 692393.199859706219286, 7185956.352355561219156 ], [ 692458.16944709722884, 7185978.62762545235455 ], [ 692523.139032122446224, 7185991.621526012197137 ], [ 692601.102530645322986, 7185993.47778007760644 ], [ 692660.503296757815406, 7186015.753051365725696 ], [ 692684.634868016699329, 7186064.016165724955499 ], [ 692692.059977305936627, 7186119.704379795119166 ], [ 692723.616641251835972, 7186158.686122945509851 ], [ 692760.742124116164632, 7186188.38649535458535 ], [ 692809.005246716435067, 7186206.949221739545465 ], [ 692844.274453925900161, 7186229.224499155767262 ], [ 692896.250128809013404, 7186266.349963246844709 ], [ 692940.800704839872196, 7186288.625238299369812 ], [ 693015.051661096746102, 7186310.900505791418254 ], [ 693070.739883520407602, 7186348.025968929752707 ], [ 693102.296548446174711, 7186390.720259809866548 ], [ 693120.859296550741419, 7186431.558280134573579 ], [ 693124.571857395581901, 7186483.533947438001633 ], [ 693117.146775655215606, 7186535.509617585688829 ], [ 693115.290527096018195, 7186633.892132980749011 ], [ 693116.218681576661766, 7186702.57426581159234 ], [ 693155.200447761802934, 7186769.40011508949101 ], [ 693166.338111757999286, 7186852.932436268776655 ], [ 693177.475774805760011, 7186932.75220972020179 ], [ 693201.607351360144094, 7187001.434336667880416 ], [ 693223.882657484267838, 7187083.110381165519357 ], [ 693223.882669855025597, 7187131.373501727357507 ], [ 693223.882686510682106, 7187196.34308710321784 ], [ 693246.15798645443283, 7187253.887571338564157 ], [ 693277.714649523841217, 7187289.156766789034009 ], [ 693298.133667141664773, 7187313.288321871310472 ], [ 693344.540517488727346, 7187337.41987032815814 ], [ 693353.821887748665176, 7187342.988689567893744 ], [ 693372.38463017588947, 7187361.551423517987132 ], [ 693377.953463380108587, 7187407.95826880633831 ], [ 693390.947386413463391, 7187433.946099653840065 ], [ 693416.935224861721508, 7187456.221379447728395 ], [ 693442.923059977823868, 7187465.502742163836956 ], [ 693465.198348511941731, 7187478.496653560549021 ], [ 693502.323830995126627, 7187506.340752119198442 ], [ 693522.742844812921248, 7187515.622116252779961 ], [ 693541.305583434295841, 7187519.334659250453115 ], [ 693565.437142402399331, 7187519.334653091616929 ], [ 693596.993794531794265, 7187511.909549560397863 ], [ 693613.70025652681943, 7187504.484449818730354 ], [ 693652.681997999316081, 7187474.784057966433465 ], [ 693699.088831673609093, 7187433.946021004579961 ], [ 693762.202124947798438, 7187376.401514954864979 ], [ 693806.752686753170565, 7187342.988573937676847 ], [ 693882.859901627292857, 7187305.863077115267515 ], [ 693955.254568962263875, 7187268.737581236287951 ], [ 694003.517677328665741, 7187231.612091528251767 ], [ 694046.211967259994708, 7187205.624246451072395 ], [ 694087.04998963617254, 7187203.767962129786611 ], [ 694129.744291035924107, 7187222.330689882859588 ], [ 694183.576238861773163, 7187255.743605726398528 ], [ 694215.132899105083197, 7187279.875157931819558 ], [ 694264.32416491326876, 7187322.569444299675524 ], [ 694310.731014336808585, 7187342.988444961607456 ], [ 694360.850411294260994, 7187363.407444669865072 ], [ 694405.400987914064899, 7187387.538993540219963 ], [ 694440.67019139311742, 7187394.964079971425235 ], [ 694475.939392958185636, 7187394.964070925489068 ], [ 694524.202509451773949, 7187389.395236939191818 ], [ 694552.046612116857432, 7187374.545038847252727 ], [ 694593.812766112736426, 7187352.269741711206734 ], [ 694619.800594050320797, 7187333.706996357068419 ], [ 694653.213514655828476, 7187305.862879755906761 ], [ 694682.913889643969014, 7187285.443859580904245 ], [ 694734.889552222681232, 7187274.306203025393188 ], [ 694788.721491444855928, 7187274.306189198046923 ], [ 694816.565601776354015, 7187289.156372990459204 ], [ 694848.122264440869913, 7187322.569294514134526 ], [ 694903.81049231137149, 7187380.113770119845867 ], [ 694929.798332723090425, 7187409.814145337790251 ], [ 694966.923817658098415, 7187446.93961316626519 ], [ 695002.193028829293326, 7187484.065081468783319 ], [ 695054.168704865965992, 7187524.903093216940761 ], [ 695082.012818095972762, 7187550.890920219011605 ], [ 695100.575557685690001, 7187558.316010918468237 ], [ 695126.563390423427336, 7187558.316004231572151 ], [ 695148.838675628765486, 7187558.315998498350382 ], [ 695158.120045424671844, 7187562.028543848544359 ], [ 695165.545143376104534, 7187573.16618515085429 ], [ 695176.682792224921286, 7187597.297742582857609 ], [ 695193.389261897653341, 7187619.573024710640311 ], [ 695234.227285255445167, 7187621.429288065060973 ], [ 695252.790022926172242, 7187621.429283288307488 ], [ 695270.424622753169388, 7187617.716731010004878 ], [ 695316.831463563372381, 7187604.722801973111928 ], [ 695366.950849020620808, 7187580.591228765435517 ], [ 695413.357691270997748, 7187573.166121331043541 ], [ 695463.477082500001416, 7187571.30983454361558 ], [ 695521.021564462920651, 7187552.74708101991564 ], [ 695565.572122348588891, 7187504.48394894041121 ], [ 695595.272481906111352, 7187424.664164924994111 ], [ 695608.266385747701861, 7187376.401040988042951 ], [ 695606.410098976339214, 7187326.281647020019591 ], [ 695604.553809314151295, 7187265.024609845131636 ], [ 695604.553796307649463, 7187214.905215404927731 ], [ 695604.55378715635743, 7187179.636011911556125 ], [ 695621.260247195605189, 7187164.78581665828824 ], [ 695658.385722997947596, 7187166.642080947756767 ], [ 695732.636681352043524, 7187196.342443673871458 ], [ 695793.893719489919022, 7187211.192618801258504 ], [ 695855.150758594390936, 7187229.755341665819287 ], [ 695916.407795290346257, 7187239.036695182323456 ], [ 695959.102093843976036, 7187246.461779620498419 ], [ 696016.646583494730294, 7187257.599407957866788 ], [ 696055.628332103369758, 7187255.743124013766646 ], [ 696092.753807428525761, 7187255.74311441089958 ], [ 696152.154568430152722, 7187257.599372915923595 ], [ 696176.286130290012807, 7187268.737009882926941 ], [ 696194.848875200259499, 7187296.58111310377717 ], [ 696222.692991359974258, 7187333.706583268940449 ], [ 696250.537096889922395, 7187329.994028326123953 ], [ 696265.387284604599699, 7187320.712655140087008 ], [ 696297.872067298274487, 7187289.155990969389677 ], [ 696329.428712624241598, 7187255.743053171783686 ], [ 696377.691819424508139, 7187213.048741703853011 ], [ 696420.386102502001449, 7187161.073062342591584 ], [ 696472.361744726309553, 7187071.971903217956424 ], [ 696498.349572124658152, 7187051.552883937954903 ], [ 696526.193671350367367, 7187023.708768706768751 ], [ 696554.037771543487906, 7186999.577201210893691 ], [ 696591.163240078487433, 7186973.589357439428568 ], [ 696626.432434361311607, 7186945.745240282267332 ], [ 696659.845355360070243, 7186919.757397472858429 ], [ 696678.408087202114984, 7186897.482106249779463 ], [ 696730.38374197401572, 7186856.64406768605113 ], [ 696754.515293654054403, 7186828.799953416921198 ], [ 696765.652927039423957, 7186793.53074705041945 ], [ 696771.221733795944601, 7186737.842529596760869 ], [ 696784.215642881579697, 7186709.998418220318854 ], [ 696810.203466381994076, 7186674.729208003729582 ], [ 696836.191293272306211, 7186652.453914855606854 ], [ 696877.957440858590417, 7186606.047057347372174 ], [ 696894.663898437982425, 7186581.915492743253708 ], [ 696905.801532296231017, 7186548.502560254186392 ], [ 696915.082893359358422, 7186518.802175980061293 ], [ 696924.364253451814875, 7186485.389243975281715 ], [ 696952.208351186942309, 7186451.976307149045169 ], [ 696983.764997416874394, 7186422.27591709420085 ], [ 697019.034191660000943, 7186394.431799936108291 ], [ 697046.878288901993074, 7186359.162589244544506 ], [ 697078.434925417532213, 7186292.336721871979535 ], [ 697121.12920596706681, 7186231.079673202708364 ], [ 697182.386228515999392, 7186186.529084499925375 ], [ 697252.924619388883002, 7186140.122219512239099 ], [ 697308.612822576542385, 7186102.996727714315057 ], [ 697342.025743027916178, 7186075.152611037716269 ], [ 697369.869839270832017, 7186036.170852620154619 ], [ 697386.576292444951832, 7185995.332823239266872 ], [ 697397.713926759315655, 7185963.776164634153247 ], [ 697397.713914119638503, 7185915.513044141232967 ], [ 697403.282726172241382, 7185880.243839260190725 ], [ 697430.198686493793502, 7185844.974628821015358 ], [ 697471.036700036376715, 7185809.705414755269885 ], [ 697485.886890137800947, 7185809.70541088655591 ], [ 697511.874723302898929, 7185811.561677983030677 ], [ 697552.7127533799503, 7185839.405775314196944 ], [ 697576.844312296481803, 7185839.405769027769566 ], [ 697606.544687147834338, 7185818.986748775467277 ], [ 697625.107418934581801, 7185796.711457560770214 ], [ 697649.238973955041729, 7185781.861260352656245 ], [ 697671.514256184920669, 7185770.723611358553171 ], [ 697703.07090625516139, 7185755.87341221421957 ], [ 697740.196376636973582, 7185737.31066388823092 ], [ 697781.034394054790027, 7185716.89164072740823 ], [ 697912.829816080629826, 7185659.347116539254785 ], [ 697955.52410383883398, 7185625.934175838716328 ], [ 698013.068579740473069, 7185585.096135798841715 ], [ 698031.631306144292466, 7185542.401832079514861 ], [ 698031.631295902538113, 7185503.420080933719873 ], [ 698035.343836111016572, 7185475.575972006656229 ], [ 698061.331660484196618, 7185444.019309533759952 ], [ 698094.744578440091573, 7185406.893823528662324 ], [ 698120.732402320718393, 7185373.48088719137013 ], [ 698143.00768306828104, 7185356.774416599422693 ], [ 698170.851785100298002, 7185340.067944552749395 ], [ 698219.114894600585103, 7185308.511276254430413 ], [ 698265.521730337874033, 7185276.95460844412446 ], [ 698326.77875567227602, 7185243.541662882082164 ], [ 698356.479128525592387, 7185215.697547163814306 ], [ 698391.74832021666225, 7185178.572060672566295 ], [ 698417.736146031296812, 7185152.584219788201153 ], [ 698441.867703458876349, 7185147.015391884371638 ], [ 698486.418271770118736, 7185139.590284770354629 ], [ 698534.68138124642428, 7185108.033616462722421 ], [ 698592.225860500941053, 7185080.189493446610868 ], [ 698633.063879816094413, 7185067.195565708912909 ], [ 698670.189355525188148, 7185069.051829842850566 ], [ 698690.608368851826526, 7185076.47691994626075 ], [ 698724.021297526662238, 7185080.189458914101124 ], [ 698761.146772745531052, 7185080.189449181780219 ], [ 698811.266163801774383, 7185078.333162177354097 ], [ 698863.241828128928319, 7185074.620600819587708 ], [ 698907.792396921431646, 7185069.051767543889582 ], [ 698946.774142961017787, 7185057.91411414090544 ], [ 698978.330793465021998, 7185044.920188819058239 ], [ 699032.162729099043645, 7185031.926257650367916 ], [ 699065.575656794244424, 7185031.92624887637794 ], [ 699106.4136780614499, 7185026.357416566461325 ], [ 699130.545233518816531, 7185013.36349318921566 ], [ 699149.107965239789337, 7184991.088201961480081 ], [ 699152.820505894720554, 7184965.100366908125579 ], [ 699162.101859982125461, 7184909.412148592993617 ], [ 699167.67066654691007, 7184853.723931260406971 ], [ 699169.526932458393276, 7184824.023548975586891 ], [ 699182.520842893281952, 7184801.748259213753045 ], [ 699202.939849840593524, 7184785.041789090260863 ], [ 699273.478242422104813, 7184746.060019447468221 ], [ 699297.609796394477598, 7184727.497274484485388 ] ] ] ] } }
]
}
