{
"type": "FeatureCollection",
"name": "TR_100anos",
"crs": { "type": "name", "properties": { "name": "urn:ogc:def:crs:EPSG::31982" } },
"features": [
{ "type": "Feature", "properties": { "FID": 0, "Count": 537, "Length": 1879.9648639, "Area": 60122.428147, "RangeMin": "0", "RangeMax": "Max", "Name": "{0, Max}" }, "geometry": { "type": "MultiPolygon", "coordinates": [ [ [ [ 672609.614000000059605, 7186448.487999999895692 ], [ 672610.152, 7186447.992000000551343 ], [ 672610.648000000044703, 7186447.435000000521541 ], [ 672611.841000000014901, 7186447.295 ], [ 672618.177999999956228, 7186446.023 ], [ 672620.642, 7186445.782999999821186 ], [ 672623.378000000026077, 7186445.751000000163913 ], [ 672627.847000000067055, 7186445.699 ], [ 672630.636000000056811, 7186445.666000000201166 ], [ 672633.489000000059605, 7186445.634000000543892 ], [ 672637.728, 7186445.58600000012666 ], [ 672640.628999999957159, 7186445.553000000305474 ], [ 672645.299, 7186443.162999999709427 ], [ 672649.072000000043772, 7186440.045 ], [ 672650.62300000002142, 7186438.833999999798834 ], [ 672651.229000000050291, 7186439.100000000558794 ], [ 672658.624000000068918, 7186440.486000000499189 ], [ 672660.616999999969266, 7186442.79700000025332 ], [ 672663.805999999982305, 7186445.298000000417233 ], [ 672666.608, 7186444.485000000335276 ], [ 672670.611000000033528, 7186445.265000000596046 ], [ 672674.910000000032596, 7186442.793999999761581 ], [ 672676.403999999980442, 7186442.69400000013411 ], [ 672680.604000000050291, 7186441.458000000566244 ], [ 672683.072999999974854, 7186440.963000000454485 ], [ 672689.544, 7186439.548000000417233 ], [ 672690.598, 7186439.33 ], [ 672691.160999999963678, 7186439.057 ], [ 672691.712000000057742, 7186438.494 ], [ 672692.619000000064261, 7186436.473000000230968 ], [ 672694.101000000024214, 7186432.003000000491738 ], [ 672696.516000000061467, 7186428.5 ], [ 672696.378000000026077, 7186424.287000000476837 ], [ 672696.216000000014901, 7186422.882000000216067 ], [ 672696.096000000019558, 7186418.506 ], [ 672697.447000000043772, 7186415.361999999731779 ], [ 672700.592000000062399, 7186409.660000000149012 ], [ 672701.374000000068918, 7186409.295 ], [ 672707.23699999996461, 7186408.513000000268221 ], [ 672710.187999999965541, 7186408.115000000223517 ], [ 672710.584999999962747, 7186408.149000000208616 ], [ 672711.101000000024214, 7186407.997000000439584 ], [ 672719.006999999983236, 7186406.941000000573695 ], [ 672720.579000000027008, 7186406.206000000238419 ], [ 672725.363000000012107, 7186403.303000000305474 ], [ 672729.660000000032596, 7186399.432 ], [ 672730.572999999974854, 7186398.629999999888241 ], [ 672730.611000000033528, 7186398.557 ], [ 672730.619000000064261, 7186398.519000000320375 ], [ 672730.615, 7186398.477 ], [ 672730.572999999974854, 7186398.145999999716878 ], [ 672728.893999999971129, 7186390.204 ], [ 672728.901000000070781, 7186388.525000000372529 ], [ 672729.094000000040978, 7186387.046 ], [ 672730.572999999974854, 7186381.704 ], [ 672731.106000000028871, 7186379.065000000409782 ], [ 672731.288000000058673, 7186378.532000000588596 ], [ 672731.503000000026077, 7186377.600999999791384 ], [ 672731.90500000002794, 7186369.870000000111759 ], [ 672732.40300000004936, 7186368.537999999709427 ], [ 672733.54500000004191, 7186365.566000000573695 ], [ 672734.712999999988824, 7186362.684000000357628 ], [ 672736.199000000022352, 7186358.543999999761581 ], [ 672738.13, 7186356.108 ], [ 672740.567000000039116, 7186354.782999999821186 ], [ 672745.277, 7186353.259999999776483 ], [ 672746.064000000013039, 7186353.046 ], [ 672750.560000000055879, 7186351.70200000051409 ], [ 672754.606999999959953, 7186354.498000000603497 ], [ 672758.121000000042841, 7186356.111999999731779 ], [ 672760.554, 7186357.387000000104308 ], [ 672762.065000000060536, 7186357.032999999821186 ], [ 672767.351000000024214, 7186355.348000000230968 ], [ 672770.548000000067987, 7186354.747000000439584 ], [ 672774.469000000040978, 7186354.623000000603497 ], [ 672776.542000000015832, 7186354.545 ], [ 672780.540999999968335, 7186354.42 ], [ 672783.04300000006333, 7186356.043000000528991 ], [ 672784.697000000043772, 7186358.543999999761581 ], [ 672788.212999999988824, 7186360.86600000038743 ], [ 672790.535000000032596, 7186361.433000000193715 ], [ 672793.307000000029802, 7186361.316000000573695 ], [ 672797.915000000037253, 7186361.157999999821186 ], [ 672800.528999999980442, 7186361.049999999813735 ], [ 672803.060999999986961, 7186361.076000000350177 ], [ 672807.984000000054948, 7186361.083000000566244 ], [ 672810.523000000044703, 7186361.109000000171363 ], [ 672813.87699999997858, 7186361.899000000208616 ], [ 672817.231999999959953, 7186361.829 ], [ 672820.516000000061467, 7186363.381 ], [ 672822.79300000006333, 7186360.821000000461936 ], [ 672822.881000000052154, 7186358.543999999761581 ], [ 672825.145000000018626, 7186353.916000000201166 ], [ 672825.13800000003539, 7186353.173000000417233 ], [ 672825.908999999985099, 7186353.151999999769032 ], [ 672830.51, 7186350.779 ], [ 672832.800999999977648, 7186350.841 ], [ 672836.893999999971129, 7186348.549999999813735 ], [ 672835.923000000067987, 7186343.96999999973923 ], [ 672836.557999999960884, 7186342.503000000491738 ], [ 672832.567999999970198, 7186340.615000000223517 ], [ 672830.51, 7186338.904 ], [ 672830.285999999963678, 7186338.781000000424683 ], [ 672830.175999999977648, 7186338.557 ], [ 672830.038000000058673, 7186338.085 ], [ 672830.51, 7186336.307 ], [ 672831.261000000056811, 7186337.80599999986589 ], [ 672838.072000000043772, 7186336.125 ], [ 672840.503999999957159, 7186336.822999999858439 ], [ 672841.685999999986961, 7186337.373999999836087 ], [ 672842.288000000058673, 7186338.557 ], [ 672846.099000000045635, 7186342.955 ], [ 672850.496999999973923, 7186344.471 ], [ 672854.689000000013039, 7186344.359000000171363 ], [ 672856.256000000052154, 7186344.316000000573695 ], [ 672860.491000000038184, 7186344.20299999974668 ], [ 672862.853, 7186340.918000000528991 ], [ 672863.96999999997206, 7186338.557 ], [ 672865.495, 7186333.566999999806285 ], [ 672865.718, 7186333.33 ], [ 672869.942000000039116, 7186328.563 ], [ 672870.209999999962747, 7186328.28899999987334 ], [ 672870.48499999998603, 7186327.996000000275671 ], [ 672874.46999999997206, 7186322.554999999701977 ], [ 672877.39000000001397, 7186318.56900000013411 ], [ 672878.696, 7186316.787000000476837 ], [ 672880.479000000050291, 7186314.356000000610948 ], [ 672882.557999999960884, 7186310.65500000026077 ], [ 672883.46999999997206, 7186308.576000000350177 ], [ 672885.99, 7186304.093000000342727 ], [ 672887.788000000058673, 7186301.265999999828637 ], [ 672889.447000000043772, 7186298.582000000402331 ], [ 672889.717000000062399, 7186297.82700000051409 ], [ 672890.472000000067055, 7186291.546 ], [ 672890.888999999966472, 7186289.004999999888241 ], [ 672890.979000000050291, 7186288.588000000454485 ], [ 672891.567000000039116, 7186287.492999999783933 ], [ 672894.223, 7186282.34499999973923 ], [ 672896.435999999986961, 7186278.594000000506639 ], [ 672895.094000000040978, 7186273.973000000230968 ], [ 672894.785000000032596, 7186272.91399999987334 ], [ 672893.530999999959022, 7186268.600999999791384 ], [ 672896.991000000038184, 7186265.126000000163913 ], [ 672900.466000000014901, 7186262.251000000163913 ], [ 672905.223, 7186263.844000000506639 ], [ 672905.967000000062399, 7186264.108 ], [ 672910.459999999962747, 7186265.659 ], [ 672914.310000000055879, 7186262.457000000402331 ], [ 672919.749000000068918, 7186258.606999999843538 ], [ 672920.167000000015832, 7186258.321000000461936 ], [ 672920.452999999979511, 7186258.157000000588596 ], [ 672920.981000000028871, 7186258.08 ], [ 672929.702000000048429, 7186257.861000000499189 ], [ 672930.447000000043772, 7186257.714999999850988 ], [ 672931.647, 7186257.407000000588596 ], [ 672937.63, 7186255.79700000025332 ], [ 672940.441, 7186255.097 ], [ 672945.263999999966472, 7186253.435999999754131 ], [ 672945.731999999959953, 7186253.316000000573695 ], [ 672950.435000000055879, 7186251.893000000156462 ], [ 672952.669, 7186250.847 ], [ 672959.506999999983236, 7186249.534 ], [ 672960.427999999956228, 7186249.240000000223517 ], [ 672962.398999999975786, 7186250.583999999798834 ], [ 672966.182999999960884, 7186252.853000000119209 ], [ 672970.422000000020489, 7186257.782000000588596 ], [ 672971.522, 7186257.507000000216067 ], [ 672977.738000000012107, 7186255.929000000469387 ], [ 672980.415999999968335, 7186255.267 ], [ 672984.626000000047497, 7186254.395999999716878 ], [ 672985.924, 7186254.122000000439584 ], [ 672990.408999999985099, 7186253.205 ], [ 672994.959000000031665, 7186254.057 ], [ 672995.756000000052154, 7186253.96 ], [ 673000.40300000004936, 7186254.471 ], [ 673004.39000000001397, 7186254.620000000111759 ], [ 673006.285999999963678, 7186254.496000000275671 ], [ 673010.397, 7186254.622000000439584 ], [ 673013.587000000057742, 7186251.803000000305474 ], [ 673016.133999999961816, 7186248.612999999895692 ], [ 673018.217000000062399, 7186246.440000000409782 ], [ 673020.391000000061467, 7186244.183000000193715 ], [ 673023.604000000050291, 7186241.833000000566244 ], [ 673025.790999999968335, 7186238.620000000111759 ], [ 673028.055000000051223, 7186236.291000000201166 ], [ 673030.383999999961816, 7186233.900000000372529 ], [ 673034.231999999959953, 7186232.474000000394881 ], [ 673030.383999999961816, 7186228.626000000163913 ], [ 673030.383999999961816, 7186208.638000000268221 ], [ 673025.386999999987893, 7186203.642 ], [ 673020.391000000061467, 7186198.645000000484288 ], [ 673020.391000000061467, 7186178.657000000588596 ], [ 673015.393999999971129, 7186173.660000000149012 ], [ 673010.397, 7186168.66399999987334 ], [ 673010.397, 7186148.676 ], [ 673000.40300000004936, 7186138.682 ], [ 673000.40300000004936, 7186118.695000000298023 ], [ 672990.408999999985099, 7186108.701000000350177 ], [ 672990.408999999985099, 7186104.498000000603497 ], [ 672987.54300000006333, 7186105.835 ], [ 672986.040000000037253, 7186108.701000000350177 ], [ 672984.680000000051223, 7186112.964999999850988 ], [ 672980.415999999968335, 7186117.625 ], [ 672979.810999999986961, 7186118.091 ], [ 672979.253000000026077, 7186118.695000000298023 ], [ 672978.050999999977648, 7186121.060000000521541 ], [ 672976.92000000004191, 7186125.193 ], [ 672971.89000000001397, 7186128.689000000245869 ], [ 672972.378000000026077, 7186130.644000000320375 ], [ 672973.364000000059605, 7186135.74100000038743 ], [ 672974.216000000014901, 7186138.682 ], [ 672977.457999999984168, 7186141.640000000596046 ], [ 672977.51, 7186145.770000000484288 ], [ 672978.523999999975786, 7186148.676 ], [ 672978.449000000022352, 7186150.643000000156462 ], [ 672978.271000000066124, 7186156.525000000372529 ], [ 672978.189000000013039, 7186158.67 ], [ 672978.082999999984168, 7186161.002000000327826 ], [ 672977.886000000056811, 7186166.134000000543892 ], [ 672977.770000000018626, 7186168.66399999987334 ], [ 672975.795999999972992, 7186173.282999999821186 ], [ 672975.518999999971129, 7186173.759999999776483 ], [ 672974.317000000039116, 7186178.657000000588596 ], [ 672972.452000000048429, 7186180.687 ], [ 672970.422000000020489, 7186181.528 ], [ 672965.761999999987893, 7186183.99100000038743 ], [ 672962.287000000011176, 7186188.651000000536442 ], [ 672961.29300000006333, 7186189.515999999828637 ], [ 672960.427999999956228, 7186190.265000000596046 ], [ 672957.886999999987893, 7186191.191999999806285 ], [ 672951.54500000004191, 7186189.761 ], [ 672950.682000000029802, 7186198.396999999880791 ], [ 672950.530999999959022, 7186198.645000000484288 ], [ 672950.479000000050291, 7186198.689000000245869 ], [ 672950.435000000055879, 7186198.725999999791384 ], [ 672950.307999999960884, 7186198.770999999716878 ], [ 672949.785999999963678, 7186198.645000000484288 ], [ 672949.517, 7186197.727 ], [ 672947.675999999977648, 7186191.409 ], [ 672946.864000000059605, 7186188.651000000536442 ], [ 672942.685999999986961, 7186186.406000000424683 ], [ 672940.441, 7186186.781000000424683 ], [ 672939.173000000067987, 7186187.38300000037998 ], [ 672937.846000000019558, 7186188.651000000536442 ], [ 672937.209999999962747, 7186191.882000000216067 ], [ 672936.804, 7186195.00800000037998 ], [ 672935.957999999984168, 7186198.645000000484288 ], [ 672935.266000000061467, 7186203.463000000454485 ], [ 672935.202999999979511, 7186203.88300000037998 ], [ 672934.51300000003539, 7186208.638000000268221 ], [ 672931.533999999985099, 7186209.725000000558794 ], [ 672930.447000000043772, 7186211.16399999987334 ], [ 672928.243000000016764, 7186210.843000000342727 ], [ 672922.555000000051223, 7186210.740000000223517 ], [ 672920.452999999979511, 7186210.495000000111759 ], [ 672915.54500000004191, 7186213.54700000025332 ], [ 672915.424, 7186213.602 ], [ 672915.312000000034459, 7186213.78000000026077 ], [ 672911.665999999968335, 7186218.632000000216067 ], [ 672910.952000000048429, 7186219.123999999836087 ], [ 672910.459999999962747, 7186219.45200000051409 ], [ 672908.864000000059605, 7186220.228000000119209 ], [ 672904.177000000025146, 7186222.343000000342727 ], [ 672900.466000000014901, 7186224.412000000476837 ], [ 672896.821, 7186224.980000000447035 ], [ 672894.065000000060536, 7186225.032999999821186 ], [ 672890.472000000067055, 7186225.475000000558794 ], [ 672885.886999999987893, 7186223.218000000342727 ], [ 672883.40500000002794, 7186221.558000000193715 ], [ 672880.479000000050291, 7186219.731999999843538 ], [ 672879.28000000002794, 7186219.831000000238419 ], [ 672872.587000000057742, 7186220.734000000171363 ], [ 672870.48499999998603, 7186220.889000000432134 ], [ 672868.983, 7186220.134000000543892 ], [ 672863.61199999996461, 7186218.632000000216067 ], [ 672861.471000000019558, 7186217.653 ], [ 672860.491000000038184, 7186217.483 ], [ 672859.214000000036322, 7186217.355000000447035 ], [ 672853.714000000036322, 7186215.415 ], [ 672850.496999999973923, 7186215.234000000171363 ], [ 672847.138999999966472, 7186215.274000000208616 ], [ 672842.942999999970198, 7186218.632000000216067 ], [ 672841.26, 7186219.388000000268221 ], [ 672840.503999999957159, 7186219.728000000119209 ], [ 672839.59499999997206, 7186219.541000000201166 ], [ 672837.74, 7186218.632000000216067 ], [ 672834.70499999995809, 7186214.437 ], [ 672830.51, 7186212.256 ], [ 672827.044, 7186212.104000000283122 ], [ 672824.048000000067987, 7186212.17 ], [ 672820.516000000061467, 7186212.032999999821186 ], [ 672816.945000000065193, 7186212.21 ], [ 672814.401000000070781, 7186212.517 ], [ 672810.523000000044703, 7186212.682 ], [ 672805.611000000033528, 7186213.71999999973923 ], [ 672805.445000000065193, 7186213.716 ], [ 672800.528999999980442, 7186214.416000000201166 ], [ 672798.388999999966472, 7186216.492000000551343 ], [ 672796.180999999982305, 7186218.632000000216067 ], [ 672795.337999999988824, 7186223.435000000521541 ], [ 672795.065000000060536, 7186224.096 ], [ 672793.865, 7186228.626000000163913 ], [ 672794.728, 7186232.81900000013411 ], [ 672792.858, 7186236.29700000025332 ], [ 672799.221000000019558, 7186237.312 ], [ 672800.528999999980442, 7186238.291000000201166 ], [ 672800.753999999957159, 7186238.394000000320375 ], [ 672800.869000000064261, 7186238.620000000111759 ], [ 672800.689000000013039, 7186238.78000000026077 ], [ 672800.528999999980442, 7186238.938 ], [ 672800.212999999988824, 7186238.935999999754131 ], [ 672791.245, 7186239.329 ], [ 672790.535000000032596, 7186239.325000000186265 ], [ 672789.179, 7186239.975999999791384 ], [ 672783.564000000013039, 7186241.642 ], [ 672780.540999999968335, 7186244.668000000528991 ], [ 672778.944000000017695, 7186247.015000000596046 ], [ 672777.283000000054017, 7186248.612999999895692 ], [ 672773.878000000026077, 7186251.94400000013411 ], [ 672771.054, 7186258.100000000558794 ], [ 672770.761999999987893, 7186258.606999999843538 ], [ 672770.662000000011176, 7186258.721 ], [ 672770.548000000067987, 7186258.832000000402331 ], [ 672770.092000000062399, 7186259.063 ], [ 672763.46999999997206, 7186261.523 ], [ 672760.554, 7186264.117000000551343 ], [ 672757.736000000033528, 7186261.424999999813735 ], [ 672752.572999999974854, 7186260.620000000111759 ], [ 672750.560000000055879, 7186259.813 ], [ 672747.952000000048429, 7186261.214999999850988 ], [ 672744.185999999986961, 7186262.225999999791384 ], [ 672741.522, 7186267.645999999716878 ], [ 672740.854999999981374, 7186268.600999999791384 ], [ 672740.825000000069849, 7186268.859000000171363 ], [ 672740.567000000039116, 7186269.96100000012666 ], [ 672738.707000000053085, 7186276.735000000335276 ], [ 672737.968, 7186278.594000000506639 ], [ 672735.526000000070781, 7186283.54700000025332 ], [ 672730.572999999974854, 7186288.449 ], [ 672730.462999999988824, 7186288.478000000119209 ], [ 672729.866000000038184, 7186288.588000000454485 ], [ 672722.794, 7186290.803000000305474 ], [ 672720.579000000027008, 7186296.083000000566244 ], [ 672718.121999999973923, 7186296.125 ], [ 672713.964999999967404, 7186295.20200000051409 ], [ 672710.584999999962747, 7186295.237999999895692 ], [ 672705.883999999961816, 7186293.881 ], [ 672705.425000000046566, 7186293.748000000603497 ], [ 672700.592000000062399, 7186292.353000000119209 ], [ 672699.749000000068918, 7186289.43099999986589 ], [ 672699.506000000052154, 7186288.588000000454485 ], [ 672699.816, 7186287.813 ], [ 672700.592000000062399, 7186286.187 ], [ 672704.383000000030734, 7186282.386 ], [ 672704.76, 7186278.594000000506639 ], [ 672702.366000000038184, 7186276.821000000461936 ], [ 672700.592000000062399, 7186275.259999999776483 ], [ 672697.125, 7186272.068 ], [ 672693.741999999969266, 7186268.600999999791384 ], [ 672692.223, 7186266.975999999791384 ], [ 672690.87300000002142, 7186258.882000000216067 ], [ 672690.761999999987893, 7186258.606999999843538 ], [ 672690.697000000043772, 7186258.50800000037998 ], [ 672690.598, 7186258.457000000402331 ], [ 672690.454000000027008, 7186258.463000000454485 ], [ 672682.866000000038184, 7186256.34499999973923 ], [ 672680.604000000050291, 7186256.395000000484288 ], [ 672678.441, 7186256.44400000013411 ], [ 672672.032, 7186258.606999999843538 ], [ 672671.276000000070781, 7186259.273 ], [ 672670.611000000033528, 7186259.301 ], [ 672669.255, 7186259.963000000454485 ], [ 672664.36199999996461, 7186262.352 ], [ 672660.616999999969266, 7186264.179000000469387 ], [ 672656.375, 7186264.359000000171363 ], [ 672651.548000000067987, 7186268.600999999791384 ], [ 672651.055999999982305, 7186269.034 ], [ 672650.62300000002142, 7186269.239 ], [ 672650.066, 7186269.157999999821186 ], [ 672649.503000000026077, 7186268.600999999791384 ], [ 672649.092000000062399, 7186267.070000000298023 ], [ 672647.615, 7186261.61600000038743 ], [ 672646.812000000034459, 7186258.606999999843538 ], [ 672642.415000000037253, 7186256.821000000461936 ], [ 672640.628999999957159, 7186256.092000000178814 ], [ 672639.359000000054948, 7186257.337000000290573 ], [ 672638.910999999963678, 7186258.606999999843538 ], [ 672635.633999999961816, 7186263.602 ], [ 672635.633999999961816, 7186263.605000000447035 ], [ 672635.631999999983236, 7186263.605000000447035 ], [ 672630.636000000056811, 7186265.287000000476837 ], [ 672627.954000000027008, 7186265.918999999761581 ], [ 672623.853, 7186268.600999999791384 ], [ 672627.935000000055879, 7186271.302000000141561 ], [ 672630.636000000056811, 7186271.966 ], [ 672635.388999999966472, 7186273.841 ], [ 672637.804, 7186278.594000000506639 ], [ 672634.797000000020489, 7186282.756 ], [ 672630.636000000056811, 7186285.208000000566244 ], [ 672628.375, 7186286.32700000051409 ], [ 672627.23699999996461, 7186288.588000000454485 ], [ 672625.028999999980442, 7186292.975000000558794 ], [ 672620.642, 7186295.145999999716878 ], [ 672617.881999999983236, 7186295.821999999694526 ], [ 672613.696, 7186298.582000000402331 ], [ 672613.256999999983236, 7186301.190000000409782 ], [ 672610.648000000044703, 7186307.70200000051409 ], [ 672609.745, 7186307.673000000417233 ], [ 672603.739000000059605, 7186305.49100000038743 ], [ 672600.65500000002794, 7186305.441999999806285 ], [ 672598.692000000039116, 7186306.612999999895692 ], [ 672596.326, 7186308.576000000350177 ], [ 672593.717000000062399, 7186311.632000000216067 ], [ 672590.660999999963678, 7186316.933000000193715 ], [ 672590.03000000002794, 7186317.938 ], [ 672589.821, 7186318.56900000013411 ], [ 672589.091000000014901, 7186320.139000000432134 ], [ 672587.859000000054948, 7186325.761 ], [ 672584.341000000014901, 7186328.563 ], [ 672581.944000000017695, 7186329.839999999850988 ], [ 672580.667000000015832, 7186329.619 ], [ 672579.969000000040978, 7186329.261 ], [ 672579.621999999973923, 7186328.563 ], [ 672574.263999999966472, 7186324.973000000230968 ], [ 672570.673000000067987, 7186324.813 ], [ 672568.204000000027008, 7186326.093000000342727 ], [ 672567.021000000066124, 7186328.563 ], [ 672564.915999999968335, 7186332.799000000581145 ], [ 672560.680000000051223, 7186334.951000000350177 ], [ 672557.712000000057742, 7186335.588999999687076 ], [ 672553.011999999987893, 7186338.557 ], [ 672552.636000000056811, 7186340.507000000216067 ], [ 672550.685999999986961, 7186345.412000000476837 ], [ 672548.70499999995809, 7186346.570000000298023 ], [ 672542.246000000042841, 7186346.997000000439584 ], [ 672540.692000000039116, 7186347.457000000402331 ], [ 672540.106999999959953, 7186347.966 ], [ 672539.097000000067055, 7186348.549999999813735 ], [ 672534.228, 7186352.08 ], [ 672530.697999999974854, 7186355.16399999987334 ], [ 672529.424, 7186357.270000000484288 ], [ 672524.75, 7186358.543999999761581 ], [ 672521.614000000059605, 7186359.454 ], [ 672520.70499999995809, 7186359.437 ], [ 672519.827000000048429, 7186359.42200000025332 ], [ 672518.537000000011176, 7186358.543999999761581 ], [ 672513.084999999962747, 7186356.171 ], [ 672510.711000000010245, 7186353.667000000365078 ], [ 672506.62, 7186354.454 ], [ 672503.442999999970198, 7186355.81900000013411 ], [ 672500.717000000062399, 7186356.604000000283122 ], [ 672498.993000000016764, 7186356.820000000298023 ], [ 672492.535999999963678, 7186356.731999999843538 ], [ 672490.724000000045635, 7186356.909 ], [ 672489.049, 7186356.869 ], [ 672481.858, 7186358.543999999761581 ], [ 672480.979999999981374, 7186358.793999999761581 ], [ 672480.729999999981374, 7186358.751000000163913 ], [ 672480.548000000067987, 7186358.725999999791384 ], [ 672479.871000000042841, 7186358.543999999761581 ], [ 672473.111000000033528, 7186356.168999999761581 ], [ 672470.736000000033528, 7186355.765000000596046 ], [ 672465.785000000032596, 7186353.593000000342727 ], [ 672465.702000000048429, 7186353.585 ], [ 672465.603, 7186353.411000000312924 ], [ 672461.878000000026077, 7186348.549999999813735 ], [ 672461.25199999997858, 7186348.041000000201166 ], [ 672460.741999999969266, 7186348.029 ], [ 672460.741999999969266, 7186358.543999999761581 ], [ 672470.736000000033528, 7186368.537999999709427 ], [ 672470.736000000033528, 7186388.525000000372529 ], [ 672480.729999999981374, 7186398.519000000320375 ], [ 672480.729999999981374, 7186407.303000000305474 ], [ 672481.777, 7186407.466 ], [ 672482.930000000051223, 7186408.513000000268221 ], [ 672488.716000000014901, 7186410.520000000484288 ], [ 672490.724000000045635, 7186412.799000000581145 ], [ 672494.856000000028871, 7186412.645999999716878 ], [ 672496.138999999966472, 7186413.091 ], [ 672500.717000000062399, 7186413.013000000268221 ], [ 672504.226000000024214, 7186412.020999999716878 ], [ 672508.366999999969266, 7186410.856999999843538 ], [ 672510.711000000010245, 7186410.196000000461936 ], [ 672513.003999999957159, 7186410.804999999701977 ], [ 672516.929, 7186408.513000000268221 ], [ 672518.712999999988824, 7186406.520999999716878 ], [ 672520.70499999995809, 7186405.003000000491738 ], [ 672523.238000000012107, 7186405.980000000447035 ], [ 672525.925999999977648, 7186408.513000000268221 ], [ 672525.29300000006333, 7186413.100999999791384 ], [ 672524.513999999966472, 7186414.696999999694526 ], [ 672523.521000000066124, 7186418.506 ], [ 672527.229000000050291, 7186421.975999999791384 ], [ 672530.697999999974854, 7186421.031000000424683 ], [ 672532.410000000032596, 7186420.218000000342727 ], [ 672539.846000000019558, 7186419.353000000119209 ], [ 672540.692000000039116, 7186419.108 ], [ 672541.462000000057742, 7186419.276999999769032 ], [ 672547.077999999979511, 7186422.115000000223517 ], [ 672550.685999999986961, 7186422.481000000610948 ], [ 672554.739000000059605, 7186424.446999999694526 ], [ 672556.822999999974854, 7186428.5 ], [ 672555.481999999959953, 7186433.296 ], [ 672554.01500000001397, 7186435.165 ], [ 672551.869000000064261, 7186438.494 ], [ 672556.584999999962747, 7186442.588000000454485 ], [ 672560.680000000051223, 7186445.898 ], [ 672562.847000000067055, 7186446.320000000298023 ], [ 672568.11199999996461, 7186448.487999999895692 ], [ 672568.278999999980442, 7186450.882000000216067 ], [ 672567.473, 7186455.281000000424683 ], [ 672567.61199999996461, 7186458.481000000610948 ], [ 672568.648000000044703, 7186460.506 ], [ 672570.673000000067987, 7186462.361999999731779 ], [ 672574.192999999970198, 7186464.956000000238419 ], [ 672577.322000000043772, 7186465.129999999888241 ], [ 672580.667000000015832, 7186466.207000000402331 ], [ 672585.246000000042841, 7186463.895999999716878 ], [ 672585.846000000019558, 7186463.661000000312924 ], [ 672590.660999999963678, 7186459.802000000141561 ], [ 672591.947999999974854, 7186459.768000000156462 ], [ 672599.366000000038184, 7186459.770000000484288 ], [ 672600.65500000002794, 7186459.736999999731779 ], [ 672601.280999999959022, 7186459.106999999843538 ], [ 672601.905999999959022, 7186458.481000000610948 ], [ 672605.981999999959953, 7186453.815000000409782 ], [ 672607.261999999987893, 7186451.873999999836087 ], [ 672609.614000000059605, 7186448.487999999895692 ] ] ], [ [ [ 672523.570000000065193, 7186425.634000000543892 ], [ 672520.70499999995809, 7186422.49100000038743 ], [ 672520.393000000040047, 7186428.188 ], [ 672520.46999999997206, 7186428.5 ], [ 672520.491999999969266, 7186428.713000000454485 ], [ 672520.70499999995809, 7186429.454 ], [ 672521.349999999976717, 7186429.145000000484288 ], [ 672522.37, 7186428.5 ], [ 672523.570000000065193, 7186425.634000000543892 ] ] ] ] } }
]
}
