{
"type": "FeatureCollection",
"name": "TR_25anos",
"crs": { "type": "name", "properties": { "name": "urn:ogc:def:crs:EPSG::31982" } },
"features": [
{ "type": "Feature", "properties": { "FID": 0, "Count": 539, "Length": 1856.3508269599999, "Area": 48921.984810499998, "RangeMin": "0", "RangeMax": "Max", "Name": "{0, Max}" }, "geometry": { "type": "MultiPolygon", "coordinates": [ [ [ [ 672604.927999999956228, 7186448.487999999895692 ], [ 672607.90500000002794, 7186445.745000000111759 ], [ 672610.648000000044703, 7186442.671 ], [ 672614.386000000056811, 7186442.231999999843538 ], [ 672616.935000000055879, 7186442.201000000350177 ], [ 672620.642, 7186441.841 ], [ 672623.952000000048429, 7186441.804000000469387 ], [ 672627.364000000059605, 7186441.765999999828637 ], [ 672630.636000000056811, 7186441.729000000283122 ], [ 672633.834000000031665, 7186441.693 ], [ 672637.472000000067055, 7186441.651999999769032 ], [ 672640.628999999957159, 7186441.61600000038743 ], [ 672642.694000000017695, 7186440.558000000193715 ], [ 672645.187999999965541, 7186438.494 ], [ 672647.478, 7186435.348000000230968 ], [ 672650.62300000002142, 7186432.947999999858439 ], [ 672655.331, 7186433.208999999798834 ], [ 672655.91800000006333, 7186433.199 ], [ 672660.616999999969266, 7186433.502000000327826 ], [ 672663.435000000055879, 7186435.676 ], [ 672665.667000000015832, 7186438.494 ], [ 672668.25, 7186440.854000000283122 ], [ 672670.611000000033528, 7186441.314000000245869 ], [ 672672.415000000037253, 7186440.298000000417233 ], [ 672679.177999999956228, 7186439.92 ], [ 672680.604000000050291, 7186439.511 ], [ 672681.45499999995809, 7186439.344000000506639 ], [ 672685.413999999989755, 7186438.494 ], [ 672687.772, 7186435.668000000528991 ], [ 672690.598, 7186433.0 ], [ 672691.726000000024214, 7186429.628999999724329 ], [ 672692.511000000056811, 7186428.5 ], [ 672692.454000000027008, 7186426.644000000320375 ], [ 672692.795999999972992, 7186420.704 ], [ 672692.738000000012107, 7186418.506 ], [ 672694.378999999957159, 7186414.725999999791384 ], [ 672695.055000000051223, 7186412.96999999973923 ], [ 672697.352000000071712, 7186408.513000000268221 ], [ 672698.669, 7186406.591 ], [ 672700.592000000062399, 7186403.03899999987334 ], [ 672705.349000000045635, 7186403.754999999888241 ], [ 672705.773999999975786, 7186403.701000000350177 ], [ 672710.584999999962747, 7186404.145000000484288 ], [ 672714.959000000031665, 7186402.892 ], [ 672717.915000000037253, 7186401.183000000193715 ], [ 672720.579000000027008, 7186399.972 ], [ 672721.491000000038184, 7186399.43099999986589 ], [ 672722.522, 7186398.519000000320375 ], [ 672722.542000000015832, 7186396.55599999986589 ], [ 672723.665000000037253, 7186391.611000000499189 ], [ 672723.685000000055879, 7186388.525000000372529 ], [ 672724.167000000015832, 7186384.937 ], [ 672724.224999999976717, 7186382.177000000141561 ], [ 672724.863000000012107, 7186378.532000000588596 ], [ 672725.665000000037253, 7186373.623999999836087 ], [ 672725.675999999977648, 7186373.435000000521541 ], [ 672726.343, 7186368.537999999709427 ], [ 672727.037000000011176, 7186365.003000000491738 ], [ 672728.643000000040047, 7186360.474000000394881 ], [ 672729.13800000003539, 7186358.543999999761581 ], [ 672729.61199999996461, 7186357.583000000566244 ], [ 672730.572999999974854, 7186355.303000000305474 ], [ 672733.253999999957159, 7186351.231999999843538 ], [ 672740.496000000042841, 7186348.549999999813735 ], [ 672740.540000000037253, 7186348.524000000208616 ], [ 672740.567000000039116, 7186348.503000000491738 ], [ 672740.60999999998603, 7186348.507000000216067 ], [ 672747.445000000065193, 7186345.435000000521541 ], [ 672750.560000000055879, 7186345.537000000476837 ], [ 672752.994000000064261, 7186346.117000000551343 ], [ 672754.425999999977648, 7186348.549999999813735 ], [ 672758.042000000015832, 7186351.063 ], [ 672760.554, 7186352.299999999813735 ], [ 672763.402, 7186351.398 ], [ 672768.619000000064261, 7186350.480000000447035 ], [ 672770.548000000067987, 7186349.986000000499189 ], [ 672771.841000000014901, 7186349.843000000342727 ], [ 672780.087000000057742, 7186349.004999999888241 ], [ 672780.540999999968335, 7186348.955 ], [ 672781.643000000040047, 7186349.651999999769032 ], [ 672787.037000000011176, 7186352.049000000581145 ], [ 672790.170999999972992, 7186358.179999999701977 ], [ 672790.419, 7186358.543999999761581 ], [ 672790.49, 7186358.588999999687076 ], [ 672790.535000000032596, 7186358.599000000394881 ], [ 672790.589000000036322, 7186358.598000000230968 ], [ 672792.952999999979511, 7186358.543999999761581 ], [ 672799.572999999974854, 7186357.588000000454485 ], [ 672800.528999999980442, 7186357.445000000298023 ], [ 672801.837999999988824, 7186357.235000000335276 ], [ 672808.439000000013039, 7186356.46 ], [ 672810.523000000044703, 7186356.088999999687076 ], [ 672814.984000000054948, 7186353.012000000104308 ], [ 672816.741000000038184, 7186348.549999999813735 ], [ 672814.746999999973923, 7186344.326000000350177 ], [ 672810.523000000044703, 7186341.705 ], [ 672808.761000000056811, 7186340.318 ], [ 672808.214000000036322, 7186338.557 ], [ 672806.12, 7186334.154 ], [ 672806.055999999982305, 7186333.03000000026077 ], [ 672804.669, 7186332.70299999974668 ], [ 672800.528999999980442, 7186330.200000000186265 ], [ 672799.660999999963678, 7186329.43099999986589 ], [ 672799.320000000065193, 7186328.563 ], [ 672799.90500000002794, 7186327.939000000245869 ], [ 672800.528999999980442, 7186327.592000000178814 ], [ 672801.745, 7186327.347 ], [ 672808.727000000071712, 7186326.767 ], [ 672810.523000000044703, 7186326.279 ], [ 672814.474000000045635, 7186322.520999999716878 ], [ 672817.469000000040978, 7186318.56900000013411 ], [ 672817.837999999988824, 7186315.890999999828637 ], [ 672817.76, 7186311.332000000402331 ], [ 672818.048000000067987, 7186308.576000000350177 ], [ 672819.616000000038184, 7186307.676 ], [ 672820.516000000061467, 7186307.69400000013411 ], [ 672821.719000000040978, 7186307.373000000603497 ], [ 672829.147, 7186307.212000000290573 ], [ 672830.51, 7186306.481000000610948 ], [ 672832.662000000011176, 7186306.424000000581145 ], [ 672838.201, 7186306.273 ], [ 672840.503999999957159, 7186306.21100000012666 ], [ 672842.103, 7186306.977 ], [ 672844.119000000064261, 7186308.576000000350177 ], [ 672846.87300000002142, 7186312.200000000186265 ], [ 672850.496999999973923, 7186314.796 ], [ 672853.927999999956228, 7186315.138000000268221 ], [ 672857.785999999963678, 7186318.56900000013411 ], [ 672858.729999999981374, 7186320.331000000238419 ], [ 672860.491000000038184, 7186321.052000000141561 ], [ 672861.785000000032596, 7186319.862999999895692 ], [ 672863.167000000015832, 7186318.56900000013411 ], [ 672866.147, 7186314.231999999843538 ], [ 672870.48499999998603, 7186311.666000000201166 ], [ 672871.881000000052154, 7186309.972 ], [ 672873.032, 7186308.576000000350177 ], [ 672876.395000000018626, 7186304.492000000551343 ], [ 672880.479000000050291, 7186299.534 ], [ 672880.834000000031665, 7186298.937 ], [ 672881.076, 7186298.582000000402331 ], [ 672881.476000000024214, 7186297.583999999798834 ], [ 672884.182999999960884, 7186292.293000000528991 ], [ 672885.207999999984168, 7186288.588000000454485 ], [ 672885.618000000016764, 7186283.734000000171363 ], [ 672885.826, 7186283.24100000038743 ], [ 672886.574000000022352, 7186278.594000000506639 ], [ 672887.167000000015832, 7186275.28899999987334 ], [ 672886.609000000054948, 7186272.463999999687076 ], [ 672886.966000000014901, 7186268.600999999791384 ], [ 672887.82999999995809, 7186265.958999999798834 ], [ 672890.472000000067055, 7186261.810000000521541 ], [ 672892.167000000015832, 7186260.302000000141561 ], [ 672894.549, 7186258.606999999843538 ], [ 672898.006000000052154, 7186256.146999999880791 ], [ 672900.466000000014901, 7186254.648 ], [ 672903.268000000040047, 7186255.804999999701977 ], [ 672910.402, 7186258.606999999843538 ], [ 672910.442999999970198, 7186258.623000000603497 ], [ 672910.459999999962747, 7186258.629999999888241 ], [ 672910.473, 7186258.620000000111759 ], [ 672910.494000000064261, 7186258.606999999843538 ], [ 672916.648999999975786, 7186254.802000000141561 ], [ 672920.452999999979511, 7186252.826000000350177 ], [ 672924.192000000039116, 7186252.352 ], [ 672927.756999999983236, 7186251.304000000469387 ], [ 672930.447000000043772, 7186250.843000000342727 ], [ 672932.25199999997858, 7186250.418000000528991 ], [ 672940.305999999982305, 7186248.748000000603497 ], [ 672940.441, 7186248.718000000342727 ], [ 672940.520000000018626, 7186248.693 ], [ 672940.858, 7186248.612999999895692 ], [ 672949.378999999957159, 7186247.558000000193715 ], [ 672950.435000000055879, 7186247.423000000417233 ], [ 672951.802000000025146, 7186247.246000000275671 ], [ 672958.229999999981374, 7186246.415 ], [ 672960.427999999956228, 7186246.132000000216067 ], [ 672962.45499999995809, 7186246.58600000012666 ], [ 672966.733, 7186248.612999999895692 ], [ 672969.033000000054017, 7186250.002000000327826 ], [ 672970.422000000020489, 7186251.625 ], [ 672972.837999999988824, 7186251.029 ], [ 672979.665000000037253, 7186249.364 ], [ 672980.415999999968335, 7186249.179999999701977 ], [ 672980.876000000047497, 7186249.074 ], [ 672982.888999999966472, 7186248.612999999895692 ], [ 672989.008999999961816, 7186247.213000000454485 ], [ 672990.408999999985099, 7186246.895999999716878 ], [ 672991.554, 7186247.468000000342727 ], [ 672993.87699999997858, 7186248.612999999895692 ], [ 672998.655999999959022, 7186250.361000000499189 ], [ 673000.40300000004936, 7186250.504999999888241 ], [ 673002.325000000069849, 7186250.536000000312924 ], [ 673007.837000000057742, 7186251.173000000417233 ], [ 673010.397, 7186251.207000000402331 ], [ 673011.76, 7186249.975999999791384 ], [ 673012.826, 7186248.612999999895692 ], [ 673016.49, 7186244.712000000290573 ], [ 673020.391000000061467, 7186240.571999999694526 ], [ 673021.51300000003539, 7186239.742000000551343 ], [ 673022.273999999975786, 7186238.620000000111759 ], [ 673026.270000000018626, 7186234.506 ], [ 673030.383999999961816, 7186230.28000000026077 ], [ 673031.59499999997206, 7186229.837000000290573 ], [ 673030.383999999961816, 7186228.626000000163913 ], [ 673030.383999999961816, 7186208.638000000268221 ], [ 673025.386999999987893, 7186203.642 ], [ 673020.391000000061467, 7186198.645000000484288 ], [ 673020.391000000061467, 7186178.657000000588596 ], [ 673015.393999999971129, 7186173.660000000149012 ], [ 673010.397, 7186168.66399999987334 ], [ 673010.397, 7186148.676 ], [ 673000.40300000004936, 7186138.682 ], [ 673000.40300000004936, 7186118.695000000298023 ], [ 672990.621999999973923, 7186108.91399999987334 ], [ 672990.434, 7186118.671 ], [ 672990.425000000046566, 7186118.695000000298023 ], [ 672990.423000000067987, 7186118.708000000566244 ], [ 672990.408999999985099, 7186118.742999999783933 ], [ 672987.018999999971129, 7186125.298000000417233 ], [ 672985.832000000053085, 7186128.689000000245869 ], [ 672986.055999999982305, 7186133.042000000365078 ], [ 672986.033999999985099, 7186134.307 ], [ 672986.231999999959953, 7186138.682 ], [ 672986.173000000067987, 7186142.918999999761581 ], [ 672986.13800000003539, 7186144.40500000026077 ], [ 672986.07999999995809, 7186148.676 ], [ 672985.919, 7186153.166000000201166 ], [ 672985.88800000003539, 7186154.148 ], [ 672985.724000000045635, 7186158.67 ], [ 672985.525000000023283, 7186163.554000000469387 ], [ 672985.518000000040047, 7186163.771999999880791 ], [ 672985.316, 7186168.66399999987334 ], [ 672983.157, 7186171.40500000026077 ], [ 672980.415999999968335, 7186174.821999999694526 ], [ 672978.95499999995809, 7186177.196999999694526 ], [ 672978.571, 7186178.657000000588596 ], [ 672974.582000000053085, 7186182.816999999806285 ], [ 672970.422000000020489, 7186184.43099999986589 ], [ 672967.631999999983236, 7186185.861000000499189 ], [ 672965.513999999966472, 7186188.651000000536442 ], [ 672962.777, 7186191.0 ], [ 672960.427999999956228, 7186193.012000000104308 ], [ 672956.307999999960884, 7186194.525000000372529 ], [ 672953.797000000020489, 7186198.645000000484288 ], [ 672951.979000000050291, 7186200.189000000245869 ], [ 672950.435000000055879, 7186201.498000000603497 ], [ 672945.974999999976717, 7186203.105000000447035 ], [ 672944.570000000065193, 7186202.774000000208616 ], [ 672944.38, 7186204.699 ], [ 672941.959999999962747, 7186208.638000000268221 ], [ 672941.135, 7186209.333000000566244 ], [ 672940.441, 7186209.918000000528991 ], [ 672937.522, 7186211.557 ], [ 672934.508000000030734, 7186212.699 ], [ 672930.447000000043772, 7186218.242999999783933 ], [ 672930.006999999983236, 7186218.191999999806285 ], [ 672922.544, 7186216.541000000201166 ], [ 672920.452999999979511, 7186216.349000000394881 ], [ 672919.057999999960884, 7186217.236999999731779 ], [ 672918.037000000011176, 7186218.632000000216067 ], [ 672913.599999999976717, 7186221.771999999880791 ], [ 672910.459999999962747, 7186223.937 ], [ 672907.402, 7186225.56900000013411 ], [ 672902.677000000025146, 7186228.626000000163913 ], [ 672901.288999999989755, 7186229.449 ], [ 672900.466000000014901, 7186229.640999999828637 ], [ 672899.277, 7186229.815000000409782 ], [ 672892.103, 7186230.257000000216067 ], [ 672890.472000000067055, 7186230.54700000025332 ], [ 672888.788000000058673, 7186230.310000000521541 ], [ 672884.971000000019558, 7186228.626000000163913 ], [ 672881.724000000045635, 7186227.381 ], [ 672880.479000000050291, 7186226.668000000528991 ], [ 672878.772, 7186226.92 ], [ 672871.616000000038184, 7186227.495000000111759 ], [ 672870.48499999998603, 7186227.643000000156462 ], [ 672868.684, 7186226.825000000186265 ], [ 672864.523000000044703, 7186224.594000000506639 ], [ 672860.491000000038184, 7186223.242000000551343 ], [ 672857.142, 7186221.981000000610948 ], [ 672852.67000000004191, 7186220.804999999701977 ], [ 672850.496999999973923, 7186220.111999999731779 ], [ 672847.602000000071712, 7186221.528 ], [ 672844.78000000002794, 7186222.907999999821186 ], [ 672840.503999999957159, 7186224.997000000439584 ], [ 672836.089000000036322, 7186224.21100000012666 ], [ 672834.908000000054017, 7186224.228000000119209 ], [ 672830.51, 7186222.968000000342727 ], [ 672825.892, 7186223.25 ], [ 672825.059, 7186223.174999999813735 ], [ 672820.516000000061467, 7186223.560000000521541 ], [ 672817.01, 7186225.120000000111759 ], [ 672815.10999999998603, 7186228.626000000163913 ], [ 672814.353, 7186232.457000000402331 ], [ 672814.317999999970198, 7186234.824 ], [ 672813.767, 7186238.620000000111759 ], [ 672812.655999999959022, 7186240.753000000491738 ], [ 672810.523000000044703, 7186242.735000000335276 ], [ 672807.383000000030734, 7186245.474000000394881 ], [ 672804.10999999998603, 7186248.612999999895692 ], [ 672802.403999999980442, 7186250.487999999895692 ], [ 672800.528999999980442, 7186251.878999999724329 ], [ 672795.756000000052154, 7186253.833999999798834 ], [ 672793.03000000002794, 7186258.606999999843538 ], [ 672791.827999999979511, 7186259.900000000372529 ], [ 672790.535000000032596, 7186260.83600000012666 ], [ 672788.309, 7186260.833000000566244 ], [ 672782.147, 7186260.213000000454485 ], [ 672780.540999999968335, 7186260.21 ], [ 672776.415000000037253, 7186264.475000000558794 ], [ 672771.412000000011176, 7186268.600999999791384 ], [ 672771.006999999983236, 7186269.060000000521541 ], [ 672770.548000000067987, 7186269.375 ], [ 672765.647, 7186273.693 ], [ 672764.665000000037253, 7186274.483 ], [ 672760.554, 7186277.822999999858439 ], [ 672758.236000000033528, 7186276.276000000536442 ], [ 672754.352000000071712, 7186274.803000000305474 ], [ 672754.057999999960884, 7186272.099000000394881 ], [ 672752.400000000023283, 7186268.600999999791384 ], [ 672751.51, 7186267.651000000536442 ], [ 672750.560000000055879, 7186267.212000000290573 ], [ 672749.575000000069849, 7186267.61600000038743 ], [ 672748.749000000068918, 7186268.600999999791384 ], [ 672748.388999999966472, 7186270.771999999880791 ], [ 672748.018000000040047, 7186276.052000000141561 ], [ 672747.48699999996461, 7186278.594000000506639 ], [ 672746.817000000039116, 7186282.337000000290573 ], [ 672746.59499999997206, 7186284.623000000603497 ], [ 672745.729000000050291, 7186288.588000000454485 ], [ 672744.537000000011176, 7186292.558000000193715 ], [ 672741.773999999975786, 7186297.373999999836087 ], [ 672741.219000000040978, 7186298.582000000402331 ], [ 672740.788000000058673, 7186298.803000000305474 ], [ 672740.567000000039116, 7186298.901000000536442 ], [ 672740.147, 7186299.002000000327826 ], [ 672731.23699999996461, 7186299.246000000275671 ], [ 672730.572999999974854, 7186299.532000000588596 ], [ 672728.628000000026077, 7186300.526000000536442 ], [ 672725.022, 7186303.025000000372529 ], [ 672720.579000000027008, 7186304.066000000573695 ], [ 672716.653999999980442, 7186304.651000000536442 ], [ 672713.023999999975786, 7186306.137000000104308 ], [ 672710.584999999962747, 7186306.713000000454485 ], [ 672707.834999999962747, 7186305.825000000186265 ], [ 672704.743000000016764, 7186304.424000000581145 ], [ 672700.592000000062399, 7186303.517 ], [ 672697.160999999963678, 7186302.012000000104308 ], [ 672694.576, 7186298.582000000402331 ], [ 672693.685000000055879, 7186295.494 ], [ 672692.13800000003539, 7186290.128000000491738 ], [ 672691.694000000017695, 7186288.588000000454485 ], [ 672692.454000000027008, 7186286.731999999843538 ], [ 672694.170999999972992, 7186282.167000000365078 ], [ 672695.809, 7186278.594000000506639 ], [ 672693.074000000022352, 7186276.117999999783933 ], [ 672690.598, 7186273.605000000447035 ], [ 672688.153999999980442, 7186271.045 ], [ 672686.020000000018626, 7186268.600999999791384 ], [ 672684.869000000064261, 7186264.33600000012666 ], [ 672684.332000000053085, 7186262.333999999798834 ], [ 672683.327999999979511, 7186258.606999999843538 ], [ 672681.192000000039116, 7186258.019000000320375 ], [ 672680.604000000050291, 7186258.034 ], [ 672680.045999999972992, 7186258.048000000417233 ], [ 672678.412000000011176, 7186258.606999999843538 ], [ 672674.29300000006333, 7186262.29 ], [ 672670.611000000033528, 7186262.468000000342727 ], [ 672666.508000000030734, 7186264.498000000603497 ], [ 672662.971000000019558, 7186266.246000000275671 ], [ 672660.616999999969266, 7186267.411000000312924 ], [ 672659.481999999959953, 7186267.466 ], [ 672658.209999999962747, 7186268.600999999791384 ], [ 672654.204000000027008, 7186272.182 ], [ 672650.62300000002142, 7186273.910000000149012 ], [ 672645.957999999984168, 7186273.265999999828637 ], [ 672641.192999999970198, 7186268.600999999791384 ], [ 672641.074000000022352, 7186268.156000000424683 ], [ 672640.628999999957159, 7186266.478000000119209 ], [ 672640.322000000043772, 7186268.293000000528991 ], [ 672632.738000000012107, 7186266.498999999836087 ], [ 672630.636000000056811, 7186267.225000000558794 ], [ 672629.523999999975786, 7186267.489 ], [ 672627.829000000027008, 7186268.600999999791384 ], [ 672629.518000000040047, 7186269.719000000506639 ], [ 672630.636000000056811, 7186269.994 ], [ 672632.969000000040978, 7186270.934000000357628 ], [ 672640.26300000003539, 7186268.967000000178814 ], [ 672639.071, 7186277.037000000476837 ], [ 672639.856999999959953, 7186278.594000000506639 ], [ 672637.915999999968335, 7186281.308000000193715 ], [ 672636.283999999985099, 7186284.242999999783933 ], [ 672634.133000000030734, 7186285.091 ], [ 672630.636000000056811, 7186287.177000000141561 ], [ 672629.692000000039116, 7186287.644000000320375 ], [ 672629.217000000062399, 7186288.588000000454485 ], [ 672627.777, 7186291.446999999694526 ], [ 672627.767, 7186295.713000000454485 ], [ 672623.549, 7186295.674999999813735 ], [ 672620.642, 7186297.112999999895692 ], [ 672619.462000000057742, 7186297.401999999769032 ], [ 672617.67000000004191, 7186298.582000000402331 ], [ 672617.067999999970198, 7186302.156000000424683 ], [ 672617.059, 7186304.992999999783933 ], [ 672616.15500000002794, 7186308.576000000350177 ], [ 672613.473, 7186311.400000000372529 ], [ 672610.648000000044703, 7186313.971 ], [ 672605.932999999960884, 7186313.291000000201166 ], [ 672605.115, 7186313.036000000312924 ], [ 672600.65500000002794, 7186312.17200000025332 ], [ 672597.67000000004191, 7186315.585 ], [ 672595.787000000011176, 7186318.56900000013411 ], [ 672595.427999999956228, 7186323.337000000290573 ], [ 672595.343, 7186323.881 ], [ 672594.932000000029802, 7186328.563 ], [ 672596.29300000006333, 7186332.924999999813735 ], [ 672600.65500000002794, 7186336.308000000193715 ], [ 672602.177000000025146, 7186337.034 ], [ 672602.947999999974854, 7186338.557 ], [ 672601.234000000054948, 7186339.136 ], [ 672600.65500000002794, 7186340.774000000208616 ], [ 672598.233, 7186340.979000000283122 ], [ 672593.852000000071712, 7186341.748000000603497 ], [ 672590.660999999963678, 7186341.968000000342727 ], [ 672589.189000000013039, 7186340.029 ], [ 672587.302000000025146, 7186338.557 ], [ 672584.25199999997858, 7186334.972 ], [ 672580.667000000015832, 7186334.352 ], [ 672576.837999999988824, 7186332.392 ], [ 672574.935000000055879, 7186328.563 ], [ 672572.383000000030734, 7186326.853000000119209 ], [ 672570.673000000067987, 7186326.776999999769032 ], [ 672569.494000000064261, 7186327.38300000037998 ], [ 672568.923000000067987, 7186328.563 ], [ 672567.185999999986961, 7186332.051 ], [ 672567.177000000025146, 7186335.060999999754131 ], [ 672564.136000000056811, 7186335.100000000558794 ], [ 672560.680000000051223, 7186336.849000000394881 ], [ 672559.283000000054017, 7186337.160000000149012 ], [ 672557.104999999981374, 7186338.557 ], [ 672556.299, 7186342.937 ], [ 672556.25, 7186344.121000000275671 ], [ 672555.091000000014901, 7186348.549999999813735 ], [ 672552.674, 7186350.53899999987334 ], [ 672550.685999999986961, 7186353.089999999850988 ], [ 672545.930999999982305, 7186353.30599999986589 ], [ 672545.474000000045635, 7186353.332000000402331 ], [ 672540.692000000039116, 7186353.543000000528991 ], [ 672537.530999999959022, 7186355.38300000037998 ], [ 672533.153999999980442, 7186358.543999999761581 ], [ 672532.001000000047497, 7186359.847 ], [ 672530.697999999974854, 7186360.014000000432134 ], [ 672529.29500000004191, 7186359.946999999694526 ], [ 672523.682000000029802, 7186361.520999999716878 ], [ 672520.70499999995809, 7186361.446999999694526 ], [ 672517.84499999997206, 7186361.404 ], [ 672513.63800000003539, 7186358.543999999761581 ], [ 672511.598, 7186357.657000000588596 ], [ 672510.711000000010245, 7186356.719000000506639 ], [ 672509.191, 7186357.024000000208616 ], [ 672505.744000000064261, 7186358.543999999761581 ], [ 672503.807999999960884, 7186361.634999999776483 ], [ 672502.033000000054017, 7186367.222 ], [ 672501.472000000067055, 7186368.537999999709427 ], [ 672501.131000000052154, 7186368.951000000350177 ], [ 672500.717000000062399, 7186369.07799999974668 ], [ 672500.194000000017695, 7186369.060999999754131 ], [ 672497.028999999980442, 7186368.537999999709427 ], [ 672492.99, 7186366.271999999880791 ], [ 672490.724000000045635, 7186365.747000000439584 ], [ 672486.226000000024214, 7186363.042000000365078 ], [ 672485.447000000043772, 7186363.261 ], [ 672480.729999999981374, 7186362.441000000573695 ], [ 672477.327000000048429, 7186361.946999999694526 ], [ 672472.912000000011176, 7186360.71999999973923 ], [ 672470.736000000033528, 7186360.321000000461936 ], [ 672468.224000000045635, 7186361.05599999986589 ], [ 672462.736000000033528, 7186360.537999999709427 ], [ 672470.736000000033528, 7186368.537999999709427 ], [ 672470.736000000033528, 7186388.525000000372529 ], [ 672480.729999999981374, 7186398.519000000320375 ], [ 672480.729999999981374, 7186403.844000000506639 ], [ 672484.797000000020489, 7186404.445000000298023 ], [ 672489.327999999979511, 7186408.513000000268221 ], [ 672490.368000000016764, 7186408.869 ], [ 672490.724000000045635, 7186409.270999999716878 ], [ 672491.451, 7186409.240000000223517 ], [ 672497.800999999977648, 7186411.429000000469387 ], [ 672500.717000000062399, 7186411.372000000439584 ], [ 672502.947999999974854, 7186410.744 ], [ 672510.626000000047497, 7186408.598000000230968 ], [ 672510.711000000010245, 7186408.574 ], [ 672510.79500000004191, 7186408.596 ], [ 672510.940000000060536, 7186408.513000000268221 ], [ 672513.366999999969266, 7186405.856999999843538 ], [ 672515.577000000048429, 7186403.384999999776483 ], [ 672516.429, 7186402.795 ], [ 672520.70499999995809, 7186399.611000000499189 ], [ 672522.496000000042841, 7186400.310000000521541 ], [ 672528.104000000050291, 7186401.112999999895692 ], [ 672530.697999999974854, 7186403.511 ], [ 672532.91800000006333, 7186406.293000000528991 ], [ 672540.457999999984168, 7186408.278 ], [ 672540.692000000039116, 7186408.393000000156462 ], [ 672540.797000000020489, 7186408.407999999821186 ], [ 672540.866999999969266, 7186408.513000000268221 ], [ 672540.915000000037253, 7186408.735000000335276 ], [ 672543.746999999973923, 7186415.45200000051409 ], [ 672544.128000000026077, 7186418.506 ], [ 672548.526000000070781, 7186420.666000000201166 ], [ 672550.685999999986961, 7186420.865000000223517 ], [ 672554.864000000059605, 7186422.685000000521541 ], [ 672556.755, 7186422.43099999986589 ], [ 672556.733, 7186424.553000000305474 ], [ 672558.827000000048429, 7186428.5 ], [ 672558.017, 7186431.162999999709427 ], [ 672557.935999999986961, 7186435.75 ], [ 672555.932000000029802, 7186438.494 ], [ 672558.557000000029802, 7186440.61600000038743 ], [ 672560.680000000051223, 7186442.267 ], [ 672565.050999999977648, 7186442.865000000223517 ], [ 672566.300999999977648, 7186442.86600000038743 ], [ 672570.673000000067987, 7186443.689000000245869 ], [ 672572.285000000032596, 7186446.876000000163913 ], [ 672575.34499999997206, 7186448.487999999895692 ], [ 672575.101000000024214, 7186452.915 ], [ 672574.941, 7186454.213999999687076 ], [ 672574.672000000020489, 7186458.481000000610948 ], [ 672577.865, 7186461.282999999821186 ], [ 672580.667000000015832, 7186462.189000000245869 ], [ 672583.148999999975786, 7186460.963000000454485 ], [ 672586.136999999987893, 7186458.481000000610948 ], [ 672587.572999999974854, 7186455.394000000320375 ], [ 672590.660999999963678, 7186453.591 ], [ 672595.41800000006333, 7186453.724000000394881 ], [ 672595.897, 7186453.724000000394881 ], [ 672600.65500000002794, 7186453.850000000558794 ], [ 672603.177000000025146, 7186451.009999999776483 ], [ 672604.927999999956228, 7186448.487999999895692 ] ] ] ] } }
]
}
