{
"type": "FeatureCollection",
"name": "TR_5anos",
"crs": { "type": "name", "properties": { "name": "urn:ogc:def:crs:EPSG::31982" } },
"features": [
{ "type": "Feature", "properties": { "FID": 0, "Count": 540, "Length": 1830.88014094, "Area": 36620.323167000002, "RangeMin": "0", "RangeMax": "Max", "Name": "{0, Max}" }, "geometry": { "type": "MultiPolygon", "coordinates": [ [ [ [ 672608.506000000052154, 7186438.494 ], [ 672609.131999999983236, 7186436.977 ], [ 672610.648000000044703, 7186435.245000000111759 ], [ 672614.464000000036322, 7186434.678000000305474 ], [ 672616.773000000044703, 7186434.625 ], [ 672620.642, 7186433.850999999791384 ], [ 672625.413000000058673, 7186433.270999999716878 ], [ 672626.006000000052154, 7186433.129999999888241 ], [ 672630.636000000056811, 7186432.437 ], [ 672634.119000000064261, 7186431.984000000171363 ], [ 672638.163999999989755, 7186430.966 ], [ 672640.628999999957159, 7186430.566999999806285 ], [ 672641.430000000051223, 7186429.301 ], [ 672642.59499999997206, 7186428.5 ], [ 672646.305000000051223, 7186424.183000000193715 ], [ 672650.62300000002142, 7186421.695000000298023 ], [ 672653.707999999984168, 7186421.592000000178814 ], [ 672657.665000000037253, 7186421.458999999798834 ], [ 672660.616999999969266, 7186421.359000000171363 ], [ 672665.36199999996461, 7186423.754999999888241 ], [ 672669.729000000050291, 7186428.5 ], [ 672670.246999999973923, 7186428.864 ], [ 672670.611000000033528, 7186429.356000000610948 ], [ 672671.29300000006333, 7186429.182 ], [ 672673.625, 7186428.5 ], [ 672678.615, 7186426.509999999776483 ], [ 672680.604000000050291, 7186426.236000000499189 ], [ 672683.782, 7186421.684000000357628 ], [ 672684.853, 7186418.506 ], [ 672687.278999999980442, 7186415.187 ], [ 672690.598, 7186410.956000000238419 ], [ 672691.299, 7186409.213999999687076 ], [ 672691.675999999977648, 7186408.513000000268221 ], [ 672694.351000000024214, 7186404.759999999776483 ], [ 672695.407, 7186403.32799999974668 ], [ 672698.280999999959022, 7186398.519000000320375 ], [ 672698.692000000039116, 7186396.619 ], [ 672700.592000000062399, 7186394.17200000025332 ], [ 672704.569000000017695, 7186394.542000000365078 ], [ 672709.40500000002794, 7186398.519000000320375 ], [ 672710.256000000052154, 7186398.848000000230968 ], [ 672710.584999999962747, 7186398.888000000268221 ], [ 672710.878999999957159, 7186398.812 ], [ 672711.424, 7186398.519000000320375 ], [ 672711.795999999972992, 7186397.309000000357628 ], [ 672713.511999999987893, 7186391.45200000051409 ], [ 672714.447000000043772, 7186388.525000000372529 ], [ 672714.652, 7186384.458999999798834 ], [ 672714.741000000038184, 7186382.687 ], [ 672714.950000000069849, 7186378.532000000588596 ], [ 672716.423000000067987, 7186374.375 ], [ 672717.425000000046566, 7186371.691999999806285 ], [ 672718.575000000069849, 7186368.537999999709427 ], [ 672718.995, 7186366.954 ], [ 672720.064000000013039, 7186359.059000000357628 ], [ 672720.175000000046566, 7186358.543999999761581 ], [ 672720.307999999960884, 7186358.273 ], [ 672720.579000000027008, 7186357.839999999850988 ], [ 672723.927999999956228, 7186351.899000000208616 ], [ 672725.560999999986961, 7186348.549999999813735 ], [ 672726.79300000006333, 7186344.770000000484288 ], [ 672730.572999999974854, 7186339.217000000178814 ], [ 672730.972000000067055, 7186338.956000000238419 ], [ 672731.434, 7186338.557 ], [ 672736.506000000052154, 7186334.496000000275671 ], [ 672740.567000000039116, 7186333.80599999986589 ], [ 672745.283999999985099, 7186333.838999999687076 ], [ 672748.741999999969266, 7186338.557 ], [ 672749.91800000006333, 7186339.199 ], [ 672750.560000000055879, 7186339.218000000342727 ], [ 672751.435999999986961, 7186339.432 ], [ 672752.802000000025146, 7186338.557 ], [ 672752.314000000013039, 7186336.803000000305474 ], [ 672750.560000000055879, 7186331.434000000357628 ], [ 672747.550000000046566, 7186331.574 ], [ 672749.810000000055879, 7186328.563 ], [ 672750.062000000034459, 7186328.065000000409782 ], [ 672750.560000000055879, 7186328.001000000163913 ], [ 672751.52800000004936, 7186327.59499999973923 ], [ 672756.90500000002794, 7186324.91399999987334 ], [ 672760.554, 7186323.748000000603497 ], [ 672763.643999999971129, 7186325.473000000230968 ], [ 672766.783999999985099, 7186328.563 ], [ 672766.785999999963678, 7186332.324 ], [ 672767.314000000013039, 7186335.322999999858439 ], [ 672767.317000000039116, 7186338.557 ], [ 672768.560999999986961, 7186340.543000000528991 ], [ 672770.548000000067987, 7186340.728000000119209 ], [ 672772.223, 7186340.231999999843538 ], [ 672780.397, 7186338.557 ], [ 672780.503999999957159, 7186338.519000000320375 ], [ 672780.540999999968335, 7186338.528 ], [ 672780.582000000053085, 7186338.515999999828637 ], [ 672780.655999999959022, 7186338.557 ], [ 672788.121000000042841, 7186340.971 ], [ 672790.535000000032596, 7186343.389000000432134 ], [ 672793.162000000011176, 7186341.183000000193715 ], [ 672794.489000000059605, 7186338.557 ], [ 672792.50199999997858, 7186336.588999999687076 ], [ 672791.922000000020489, 7186329.949 ], [ 672791.402, 7186328.563 ], [ 672795.550000000046566, 7186323.583999999798834 ], [ 672800.528999999980442, 7186320.526999999769032 ], [ 672802.128000000026077, 7186320.168000000528991 ], [ 672806.069000000017695, 7186318.56900000013411 ], [ 672808.88800000003539, 7186316.935000000521541 ], [ 672810.523000000044703, 7186312.018000000156462 ], [ 672811.20499999995809, 7186309.25800000037998 ], [ 672811.273999999975786, 7186308.576000000350177 ], [ 672817.121999999973923, 7186305.182 ], [ 672820.516000000061467, 7186305.239 ], [ 672825.086000000010245, 7186304.006 ], [ 672825.92000000004191, 7186303.985000000335276 ], [ 672830.51, 7186301.498000000603497 ], [ 672833.344000000040978, 7186301.416000000201166 ], [ 672837.79300000006333, 7186301.293000000528991 ], [ 672840.503999999957159, 7186301.214999999850988 ], [ 672845.481999999959953, 7186303.597 ], [ 672845.660000000032596, 7186303.737999999895692 ], [ 672850.496999999973923, 7186307.29700000025332 ], [ 672852.452999999979511, 7186306.620000000111759 ], [ 672857.067000000039116, 7186305.151999999769032 ], [ 672860.491000000038184, 7186303.862999999895692 ], [ 672864.552000000025146, 7186302.643000000156462 ], [ 672869.16800000006333, 7186299.899000000208616 ], [ 672870.48499999998603, 7186299.271999999880791 ], [ 672870.807000000029802, 7186298.904 ], [ 672871.089000000036322, 7186298.582000000402331 ], [ 672875.322000000043772, 7186293.745000000111759 ], [ 672875.471000000019558, 7186293.574 ], [ 672879.834999999962747, 7186288.588000000454485 ], [ 672879.88800000003539, 7186287.998000000603497 ], [ 672878.349000000045635, 7186280.724000000394881 ], [ 672878.457999999984168, 7186278.594000000506639 ], [ 672878.831, 7186276.946999999694526 ], [ 672880.479000000050291, 7186273.439000000245869 ], [ 672882.01300000003539, 7186270.134999999776483 ], [ 672882.16800000006333, 7186268.600999999791384 ], [ 672883.04500000004191, 7186266.035000000149012 ], [ 672883.799, 7186261.927000000141561 ], [ 672885.648999999975786, 7186258.606999999843538 ], [ 672887.544, 7186255.678000000305474 ], [ 672890.472000000067055, 7186253.261 ], [ 672893.302000000025146, 7186251.443 ], [ 672898.548000000067987, 7186248.612999999895692 ], [ 672899.540999999968335, 7186247.688 ], [ 672900.466000000014901, 7186247.667000000365078 ], [ 672901.224000000045635, 7186247.855000000447035 ], [ 672902.57999999995809, 7186248.612999999895692 ], [ 672908.0, 7186251.072999999858439 ], [ 672910.459999999962747, 7186252.139000000432134 ], [ 672912.741000000038184, 7186250.894000000320375 ], [ 672917.856999999959953, 7186248.612999999895692 ], [ 672919.474000000045635, 7186247.634000000543892 ], [ 672920.452999999979511, 7186247.342000000178814 ], [ 672921.756999999983236, 7186247.310000000521541 ], [ 672927.832000000053085, 7186245.998000000603497 ], [ 672930.447000000043772, 7186245.955 ], [ 672933.150000000023283, 7186245.911000000312924 ], [ 672937.26500000001397, 7186245.438 ], [ 672940.441, 7186245.395000000484288 ], [ 672944.114000000059605, 7186244.940000000409782 ], [ 672946.474999999976717, 7186244.653 ], [ 672950.435000000055879, 7186244.160000000149012 ], [ 672955.366999999969266, 7186243.552000000141561 ], [ 672955.513999999966472, 7186243.534 ], [ 672960.427999999956228, 7186242.929000000469387 ], [ 672965.054, 7186243.987999999895692 ], [ 672966.479999999981374, 7186244.671 ], [ 672970.422000000020489, 7186246.036000000312924 ], [ 672974.13800000003539, 7186244.896999999880791 ], [ 672976.273999999975786, 7186244.472 ], [ 672980.415999999968335, 7186242.739 ], [ 672983.787000000011176, 7186241.99100000038743 ], [ 672987.952000000048429, 7186241.07700000051409 ], [ 672990.408999999985099, 7186240.534 ], [ 672994.197000000043772, 7186242.407000000588596 ], [ 672995.815000000060536, 7186243.208000000566244 ], [ 673000.40300000004936, 7186245.474000000394881 ], [ 673002.23499999998603, 7186246.781000000424683 ], [ 673009.395000000018626, 7186247.611999999731779 ], [ 673010.397, 7186247.957000000402331 ], [ 673014.858, 7186243.081000000238419 ], [ 673018.979999999981374, 7186238.620000000111759 ], [ 673019.420999999972992, 7186237.650000000372529 ], [ 673020.391000000061467, 7186237.105000000447035 ], [ 673024.53000000002794, 7186232.765999999828637 ], [ 673028.496999999973923, 7186228.626000000163913 ], [ 673029.104000000050291, 7186227.346 ], [ 673030.383999999961816, 7186226.661000000312924 ], [ 673030.383999999961816, 7186208.638000000268221 ], [ 673025.386999999987893, 7186203.642 ], [ 673020.391000000061467, 7186198.645000000484288 ], [ 673020.391000000061467, 7186178.657000000588596 ], [ 673015.393999999971129, 7186173.660000000149012 ], [ 673010.397, 7186168.66399999987334 ], [ 673010.397, 7186148.676 ], [ 673000.40300000004936, 7186138.682 ], [ 673000.40300000004936, 7186118.695000000298023 ], [ 672997.832999999984168, 7186116.123999999836087 ], [ 672996.945000000065193, 7186118.695000000298023 ], [ 672996.121000000042841, 7186122.977 ], [ 672996.042000000015832, 7186124.32799999974668 ], [ 672994.87, 7186128.689000000245869 ], [ 672994.741000000038184, 7186133.020999999716878 ], [ 672994.695000000065193, 7186134.396999999880791 ], [ 672994.567000000039116, 7186138.682 ], [ 672994.081, 7186142.354000000283122 ], [ 672993.983, 7186145.103000000119209 ], [ 672993.584000000031665, 7186148.676 ], [ 672993.491999999969266, 7186151.75800000037998 ], [ 672993.34499999997206, 7186155.734000000171363 ], [ 672993.256000000052154, 7186158.67 ], [ 672993.150000000023283, 7186161.410000000149012 ], [ 672992.92000000004191, 7186166.153 ], [ 672992.821, 7186168.66399999987334 ], [ 672992.118000000016764, 7186170.372000000439584 ], [ 672990.408999999985099, 7186171.714999999850988 ], [ 672987.218, 7186175.464999999850988 ], [ 672984.459999999962747, 7186178.657000000588596 ], [ 672982.17000000004191, 7186180.412000000476837 ], [ 672980.415999999968335, 7186183.103000000119209 ], [ 672977.73499999998603, 7186185.971 ], [ 672972.582000000053085, 7186186.49100000038743 ], [ 672970.422000000020489, 7186187.32799999974668 ], [ 672969.549, 7186187.778 ], [ 672968.88800000003539, 7186188.651000000536442 ], [ 672964.343, 7186192.566000000573695 ], [ 672960.427999999956228, 7186195.934000000357628 ], [ 672958.452000000048429, 7186196.668999999761581 ], [ 672957.256999999983236, 7186198.645000000484288 ], [ 672953.579000000027008, 7186201.78899999987334 ], [ 672950.435000000055879, 7186204.473000000230968 ], [ 672947.386000000056811, 7186205.589999999850988 ], [ 672945.528999999980442, 7186208.638000000268221 ], [ 672942.777, 7186210.975000000558794 ], [ 672940.441, 7186212.957000000402331 ], [ 672936.812999999965541, 7186215.003999999724329 ], [ 672933.817999999970198, 7186218.632000000216067 ], [ 672932.006999999983236, 7186220.191999999806285 ], [ 672930.447000000043772, 7186221.549000000581145 ], [ 672927.38, 7186221.699 ], [ 672922.977000000071712, 7186221.156000000424683 ], [ 672920.452999999979511, 7186221.333999999798834 ], [ 672916.243000000016764, 7186224.415 ], [ 672910.694000000017695, 7186228.392 ], [ 672910.459999999962747, 7186228.560000000521541 ], [ 672910.41800000006333, 7186228.583999999798834 ], [ 672910.356000000028871, 7186228.626000000163913 ], [ 672904.276000000070781, 7186232.435999999754131 ], [ 672900.466000000014901, 7186233.411000000312924 ], [ 672896.003999999957159, 7186234.157000000588596 ], [ 672894.511999999987893, 7186234.58 ], [ 672890.472000000067055, 7186235.404 ], [ 672886.834000000031665, 7186234.981999999843538 ], [ 672883.74800000002142, 7186235.350000000558794 ], [ 672880.479000000050291, 7186234.69400000013411 ], [ 672876.440000000060536, 7186234.581000000238419 ], [ 672874.820000000065193, 7186234.284 ], [ 672870.48499999998603, 7186234.196000000461936 ], [ 672866.145000000018626, 7186232.966 ], [ 672862.344000000040978, 7186228.626000000163913 ], [ 672861.121999999973923, 7186227.995000000111759 ], [ 672860.491000000038184, 7186227.795 ], [ 672859.197000000043772, 7186227.332000000402331 ], [ 672853.951, 7186225.173000000417233 ], [ 672850.496999999973923, 7186224.125 ], [ 672847.51500000001397, 7186225.643000000156462 ], [ 672841.643999999971129, 7186228.626000000163913 ], [ 672840.981999999959953, 7186229.105000000447035 ], [ 672840.503999999957159, 7186229.205 ], [ 672839.751000000047497, 7186229.378999999724329 ], [ 672831.555000000051223, 7186229.671 ], [ 672830.51, 7186230.076000000350177 ], [ 672827.066, 7186232.070000000298023 ], [ 672824.741000000038184, 7186232.850999999791384 ], [ 672823.415999999968335, 7186235.71999999973923 ], [ 672821.472000000067055, 7186238.620000000111759 ], [ 672821.268999999971129, 7186239.372000000439584 ], [ 672820.516000000061467, 7186242.316000000573695 ], [ 672818.88800000003539, 7186246.985000000335276 ], [ 672817.038000000058673, 7186248.612999999895692 ], [ 672813.040000000037253, 7186251.131 ], [ 672810.523000000044703, 7186254.310000000521541 ], [ 672808.479000000050291, 7186256.563 ], [ 672805.441, 7186258.606999999843538 ], [ 672802.290999999968335, 7186260.369 ], [ 672800.528999999980442, 7186262.725999999791384 ], [ 672797.674, 7186265.746000000275671 ], [ 672793.202000000048429, 7186268.600999999791384 ], [ 672791.369000000064261, 7186269.435000000521541 ], [ 672790.535000000032596, 7186270.012000000104308 ], [ 672788.488000000012107, 7186270.648 ], [ 672783.011000000056811, 7186271.070000000298023 ], [ 672780.540999999968335, 7186272.622000000439584 ], [ 672777.522, 7186275.575000000186265 ], [ 672771.461000000010245, 7186278.594000000506639 ], [ 672770.778999999980442, 7186278.826000000350177 ], [ 672770.548000000067987, 7186279.21 ], [ 672765.875, 7186283.916000000201166 ], [ 672764.657, 7186284.485000000335276 ], [ 672760.554, 7186286.86600000038743 ], [ 672759.116000000038184, 7186287.150000000372529 ], [ 672757.913000000058673, 7186288.588000000454485 ], [ 672756.783999999985099, 7186292.358 ], [ 672756.09499999997206, 7186294.123000000603497 ], [ 672755.067000000039116, 7186298.582000000402331 ], [ 672753.165999999968335, 7186301.188 ], [ 672750.560000000055879, 7186302.509999999776483 ], [ 672746.518999999971129, 7186304.534 ], [ 672743.196, 7186305.946000000461936 ], [ 672740.567000000039116, 7186307.136 ], [ 672739.40500000002794, 7186307.41399999987334 ], [ 672737.410999999963678, 7186308.576000000350177 ], [ 672733.419, 7186311.42200000025332 ], [ 672730.572999999974854, 7186311.302000000141561 ], [ 672727.432999999960884, 7186311.714999999850988 ], [ 672723.459000000031665, 7186311.455 ], [ 672720.579000000027008, 7186312.058000000193715 ], [ 672715.631000000052154, 7186313.523 ], [ 672715.565000000060536, 7186313.554999999701977 ], [ 672710.584999999962747, 7186314.42200000025332 ], [ 672705.893999999971129, 7186313.878000000491738 ], [ 672705.21999999997206, 7186313.941000000573695 ], [ 672700.592000000062399, 7186313.071000000461936 ], [ 672697.00199999997858, 7186312.166000000201166 ], [ 672694.163999999989755, 7186312.140999999828637 ], [ 672690.598, 7186311.535000000149012 ], [ 672689.196, 7186309.978000000119209 ], [ 672688.457000000053085, 7186308.576000000350177 ], [ 672687.145000000018626, 7186305.123000000603497 ], [ 672686.61199999996461, 7186302.568 ], [ 672683.942000000039116, 7186298.582000000402331 ], [ 672683.196, 7186295.990000000223517 ], [ 672681.24800000002142, 7186289.231999999843538 ], [ 672681.062999999965541, 7186288.588000000454485 ], [ 672681.322999999974854, 7186287.870000000111759 ], [ 672683.489000000059605, 7186281.479000000283122 ], [ 672684.61199999996461, 7186278.594000000506639 ], [ 672682.609000000054948, 7186276.589999999850988 ], [ 672680.604000000050291, 7186274.379999999888241 ], [ 672677.413000000058673, 7186271.792000000365078 ], [ 672675.606000000028871, 7186268.600999999791384 ], [ 672672.64000000001397, 7186266.571000000461936 ], [ 672670.611000000033528, 7186266.719000000506639 ], [ 672669.375, 7186267.365000000223517 ], [ 672667.008000000030734, 7186268.600999999791384 ], [ 672664.947000000043772, 7186272.93099999986589 ], [ 672660.616999999969266, 7186277.03000000026077 ], [ 672659.805999999982305, 7186277.782999999821186 ], [ 672657.712000000057742, 7186278.594000000506639 ], [ 672653.427999999956228, 7186281.400000000372529 ], [ 672650.62300000002142, 7186282.412999999709427 ], [ 672645.979999999981374, 7186283.945000000298023 ], [ 672645.222000000067055, 7186283.995000000111759 ], [ 672640.628999999957159, 7186285.009999999776483 ], [ 672639.365, 7186287.324 ], [ 672636.197999999974854, 7186288.588000000454485 ], [ 672635.62699999997858, 7186293.579 ], [ 672635.62699999997858, 7186293.591 ], [ 672635.158000000054017, 7186298.582000000402331 ], [ 672633.604000000050291, 7186301.549999999813735 ], [ 672630.636000000056811, 7186304.389000000432134 ], [ 672627.787000000011176, 7186305.727 ], [ 672626.302000000025146, 7186308.576000000350177 ], [ 672623.317000000039116, 7186311.251000000163913 ], [ 672620.642, 7186313.309000000357628 ], [ 672618.077999999979511, 7186316.006 ], [ 672615.224999999976717, 7186318.56900000013411 ], [ 672614.849999999976717, 7186322.771999999880791 ], [ 672614.842000000062399, 7186324.369 ], [ 672614.522, 7186328.563 ], [ 672616.575000000069849, 7186332.629999999888241 ], [ 672620.642, 7186334.593000000342727 ], [ 672622.033000000054017, 7186337.166000000201166 ], [ 672621.976000000024214, 7186338.557 ], [ 672621.52800000004936, 7186339.443 ], [ 672620.642, 7186339.878999999724329 ], [ 672619.327999999979511, 7186339.871000000275671 ], [ 672611.912000000011176, 7186339.821000000461936 ], [ 672610.648000000044703, 7186339.812 ], [ 672607.527, 7186341.678000000305474 ], [ 672604.71999999997206, 7186342.622000000439584 ], [ 672603.695000000065193, 7186345.509999999776483 ], [ 672601.837000000057742, 7186348.549999999813735 ], [ 672601.422000000020489, 7186349.318 ], [ 672600.65500000002794, 7186349.723000000230968 ], [ 672599.49, 7186349.714999999850988 ], [ 672591.773000000044703, 7186349.662999999709427 ], [ 672590.660999999963678, 7186349.656000000424683 ], [ 672589.604000000050291, 7186349.606999999843538 ], [ 672588.03000000002794, 7186348.549999999813735 ], [ 672584.75199999997858, 7186344.466 ], [ 672580.667000000015832, 7186341.099000000394881 ], [ 672577.910000000032596, 7186341.314000000245869 ], [ 672573.348, 7186341.231999999843538 ], [ 672570.673000000067987, 7186341.487999999895692 ], [ 672565.945000000065193, 7186343.821999999694526 ], [ 672563.407, 7186348.549999999813735 ], [ 672561.897, 7186349.767 ], [ 672560.680000000051223, 7186350.349000000394881 ], [ 672556.324000000022352, 7186354.189000000245869 ], [ 672552.88800000003539, 7186358.543999999761581 ], [ 672551.810000000055879, 7186359.668999999761581 ], [ 672550.685999999986961, 7186360.81900000013411 ], [ 672547.227000000071712, 7186362.003000000491738 ], [ 672543.214000000036322, 7186361.066000000573695 ], [ 672542.023000000044703, 7186367.207000000402331 ], [ 672541.146000000066124, 7186368.537999999709427 ], [ 672540.962999999988824, 7186368.809000000357628 ], [ 672540.692000000039116, 7186369.037999999709427 ], [ 672540.185000000055879, 7186369.045 ], [ 672539.50199999997858, 7186368.537999999709427 ], [ 672534.474999999976717, 7186364.762000000104308 ], [ 672530.697999999974854, 7186364.941000000573695 ], [ 672526.802999999956228, 7186364.642 ], [ 672525.184, 7186364.059000000357628 ], [ 672520.70499999995809, 7186363.877000000327826 ], [ 672515.976000000024214, 7186363.809000000357628 ], [ 672514.511999999987893, 7186364.736999999731779 ], [ 672510.711000000010245, 7186364.475000000558794 ], [ 672509.067000000039116, 7186366.894000000320375 ], [ 672508.383999999961816, 7186368.537999999709427 ], [ 672504.959000000031665, 7186372.779 ], [ 672500.717000000062399, 7186374.13300000037998 ], [ 672496.239000000059605, 7186374.054000000469387 ], [ 672495.072000000043772, 7186374.183000000193715 ], [ 672490.724000000045635, 7186374.083000000566244 ], [ 672487.74800000002142, 7186371.514000000432134 ], [ 672483.549, 7186368.537999999709427 ], [ 672481.988000000012107, 7186367.28000000026077 ], [ 672480.729999999981374, 7186367.076000000350177 ], [ 672479.033999999985099, 7186366.842000000178814 ], [ 672472.684, 7186366.591 ], [ 672470.736000000033528, 7186366.252000000327826 ], [ 672468.96999999997206, 7186366.771999999880791 ], [ 672470.736000000033528, 7186368.537999999709427 ], [ 672470.736000000033528, 7186388.525000000372529 ], [ 672480.729999999981374, 7186398.519000000320375 ], [ 672480.729999999981374, 7186399.301 ], [ 672481.653999999980442, 7186399.443 ], [ 672483.989000000059605, 7186398.519000000320375 ], [ 672489.187999999965541, 7186396.983 ], [ 672490.724000000045635, 7186395.917000000365078 ], [ 672494.685999999986961, 7186394.557 ], [ 672499.694000000017695, 7186398.519000000320375 ], [ 672499.805999999982305, 7186399.429999999701977 ], [ 672497.25199999997858, 7186405.048000000417233 ], [ 672497.388999999966472, 7186408.513000000268221 ], [ 672499.851000000024214, 7186409.378999999724329 ], [ 672500.717000000062399, 7186409.367000000551343 ], [ 672501.386000000056811, 7186409.182 ], [ 672503.827999999979511, 7186408.513000000268221 ], [ 672504.692999999970198, 7186404.537000000476837 ], [ 672502.103, 7186399.90500000026077 ], [ 672509.45499999995809, 7186399.775000000372529 ], [ 672510.711000000010245, 7186398.894000000320375 ], [ 672510.891000000061467, 7186398.699 ], [ 672511.158000000054017, 7186398.519000000320375 ], [ 672511.648999999975786, 7186397.581000000238419 ], [ 672510.711000000010245, 7186396.054000000469387 ], [ 672509.287000000011176, 7186397.09499999973923 ], [ 672502.280999999959022, 7186396.955 ], [ 672500.717000000062399, 7186397.407000000588596 ], [ 672496.834000000031665, 7186392.409 ], [ 672498.290999999968335, 7186388.525000000372529 ], [ 672498.831, 7186386.639000000432134 ], [ 672500.717000000062399, 7186385.685000000521541 ], [ 672503.501000000047497, 7186385.74100000038743 ], [ 672509.231000000028871, 7186387.045 ], [ 672510.711000000010245, 7186387.089999999850988 ], [ 672511.827000000048429, 7186387.409 ], [ 672514.042000000015832, 7186388.525000000372529 ], [ 672517.78000000002794, 7186391.450000000186265 ], [ 672520.70499999995809, 7186390.748000000603497 ], [ 672522.609000000054948, 7186390.429999999701977 ], [ 672525.310999999986961, 7186388.525000000372529 ], [ 672528.822999999974854, 7186386.650000000372529 ], [ 672530.697999999974854, 7186386.457000000402331 ], [ 672532.006000000052154, 7186387.218000000342727 ], [ 672535.214999999967404, 7186388.525000000372529 ], [ 672535.790000000037253, 7186393.427000000141561 ], [ 672535.75, 7186393.57700000051409 ], [ 672536.033000000054017, 7186398.519000000320375 ], [ 672538.255, 7186400.956000000238419 ], [ 672540.692000000039116, 7186402.085 ], [ 672544.427000000025146, 7186402.253999999724329 ], [ 672547.604000000050291, 7186398.519000000320375 ], [ 672549.258999999961816, 7186397.092000000178814 ], [ 672550.685999999986961, 7186397.339999999850988 ], [ 672551.417000000015832, 7186397.787999999709427 ], [ 672552.41800000006333, 7186398.519000000320375 ], [ 672554.5, 7186402.333000000566244 ], [ 672552.812999999965541, 7186406.386 ], [ 672556.276000000070781, 7186404.110000000335276 ], [ 672560.680000000051223, 7186405.262000000104308 ], [ 672561.773000000044703, 7186407.42 ], [ 672561.727000000071712, 7186408.513000000268221 ], [ 672561.721000000019558, 7186409.554000000469387 ], [ 672561.589000000036322, 7186417.597 ], [ 672561.584000000031665, 7186418.506 ], [ 672562.484000000054948, 7186420.310999999754131 ], [ 672562.147, 7186427.032999999821186 ], [ 672568.62, 7186426.446999999694526 ], [ 672570.673000000067987, 7186427.407000000588596 ], [ 672571.398999999975786, 7186427.775000000372529 ], [ 672571.753000000026077, 7186428.5 ], [ 672571.758999999961816, 7186429.58600000012666 ], [ 672571.819000000017695, 7186437.349000000394881 ], [ 672571.824000000022352, 7186438.494 ], [ 672573.927000000025146, 7186441.747000000439584 ], [ 672575.040000000037253, 7186444.121000000275671 ], [ 672577.636999999987893, 7186445.457000000402331 ], [ 672580.667000000015832, 7186447.518000000156462 ], [ 672581.65500000002794, 7186447.5 ], [ 672589.538000000058673, 7186447.365000000223517 ], [ 672590.660999999963678, 7186447.34499999973923 ], [ 672592.158999999985099, 7186446.989 ], [ 672599.29500000004191, 7186447.128000000491738 ], [ 672600.65500000002794, 7186446.478000000119209 ], [ 672604.790000000037253, 7186442.628999999724329 ], [ 672608.506000000052154, 7186438.494 ] ], [ [ 672670.611000000033528, 7186288.032999999821186 ], [ 672671.298000000067987, 7186287.901000000536442 ], [ 672675.624000000068918, 7186288.588000000454485 ], [ 672671.108, 7186289.08600000012666 ], [ 672670.611000000033528, 7186288.92200000025332 ], [ 672670.413999999989755, 7186288.785000000149012 ], [ 672670.102000000071712, 7186288.588000000454485 ], [ 672670.13800000003539, 7186288.11600000038743 ], [ 672670.611000000033528, 7186288.032999999821186 ] ] ], [ [ [ 672552.604000000050291, 7186416.588000000454485 ], [ 672550.685999999986961, 7186411.270000000484288 ], [ 672549.727000000071712, 7186417.548000000417233 ], [ 672549.836000000010245, 7186418.506 ], [ 672550.417000000015832, 7186418.776000000536442 ], [ 672550.685999999986961, 7186418.795 ], [ 672551.160000000032596, 7186418.980000000447035 ], [ 672553.052999999956228, 7186418.506 ], [ 672552.604000000050291, 7186416.588000000454485 ] ] ] ] } }
]
}
