{
"type": "FeatureCollection",
"name": "TR_500anos",
"crs": { "type": "name", "properties": { "name": "urn:ogc:def:crs:EPSG::31982" } },
"features": [
{ "type": "Feature", "properties": { "FID": 0, "Count": 515, "Length": 1872.98870362, "Area": 70173.180364, "RangeMin": "0", "RangeMax": "Max", "Name": "{0, Max}" }, "geometry": { "type": "MultiPolygon", "coordinates": [ [ [ [ 672609.049, 7186458.481000000610948 ], [ 672609.79500000004191, 7186457.628000000491738 ], [ 672610.648000000044703, 7186456.333999999798834 ], [ 672614.837000000057742, 7186452.677000000141561 ], [ 672616.981000000028871, 7186452.149000000208616 ], [ 672620.642, 7186450.554999999701977 ], [ 672622.687000000034459, 7186450.532000000588596 ], [ 672628.658000000054017, 7186450.464999999850988 ], [ 672630.636000000056811, 7186450.443 ], [ 672632.570000000065193, 7186450.42200000025332 ], [ 672638.761000000056811, 7186450.356000000610948 ], [ 672640.628999999957159, 7186450.33600000012666 ], [ 672642.202999999979511, 7186450.062 ], [ 672646.087000000057742, 7186448.487999999895692 ], [ 672649.305999999982305, 7186447.171 ], [ 672650.62300000002142, 7186446.144000000320375 ], [ 672652.251000000047497, 7186446.860000000335276 ], [ 672653.746999999973923, 7186448.487999999895692 ], [ 672657.712000000057742, 7186451.393000000156462 ], [ 672660.616999999969266, 7186453.520999999716878 ], [ 672663.939000000013039, 7186451.810000000521541 ], [ 672668.212999999988824, 7186450.884999999776483 ], [ 672670.611000000033528, 7186450.057 ], [ 672671.38, 7186449.257000000216067 ], [ 672672.089000000036322, 7186448.487999999895692 ], [ 672677.035999999963678, 7186444.918999999761581 ], [ 672680.604000000050291, 7186443.837000000290573 ], [ 672685.017, 7186442.907000000588596 ], [ 672686.528999999980442, 7186442.563 ], [ 672690.598, 7186441.68099999986589 ], [ 672692.729000000050291, 7186440.625 ], [ 672694.790000000037253, 7186438.494 ], [ 672696.564000000013039, 7186434.467000000178814 ], [ 672700.592000000062399, 7186429.035000000149012 ], [ 672700.949000000022352, 7186428.856999999843538 ], [ 672701.663000000058673, 7186428.5 ], [ 672701.432000000029802, 7186427.660000000149012 ], [ 672700.592000000062399, 7186424.604000000283122 ], [ 672699.949000000022352, 7186419.149000000208616 ], [ 672699.929, 7186418.506 ], [ 672700.125, 7186418.04 ], [ 672700.592000000062399, 7186417.173000000417233 ], [ 672703.253000000026077, 7186415.846 ], [ 672706.148000000044703, 7186414.06900000013411 ], [ 672710.584999999962747, 7186412.679000000469387 ], [ 672715.057000000029802, 7186412.984000000171363 ], [ 672716.305000000051223, 7186412.787000000476837 ], [ 672720.579000000027008, 7186413.267 ], [ 672724.089999999967404, 7186412.024000000208616 ], [ 672730.081, 7186408.513000000268221 ], [ 672730.393999999971129, 7186408.333999999798834 ], [ 672730.572999999974854, 7186408.167000000365078 ], [ 672733.79300000006333, 7186401.739 ], [ 672734.481000000028871, 7186398.519000000320375 ], [ 672734.11199999996461, 7186394.980000000447035 ], [ 672733.680000000051223, 7186391.632000000216067 ], [ 672733.341000000014901, 7186388.525000000372529 ], [ 672734.347000000067055, 7186384.751000000163913 ], [ 672734.741999999969266, 7186382.701000000350177 ], [ 672736.104999999981374, 7186378.532000000588596 ], [ 672736.923000000067987, 7186374.888000000268221 ], [ 672739.76300000003539, 7186369.342000000178814 ], [ 672740.054, 7186368.537999999709427 ], [ 672740.195000000065193, 7186368.167000000365078 ], [ 672740.567000000039116, 7186367.119 ], [ 672743.021000000066124, 7186360.998999999836087 ], [ 672748.276000000070781, 7186358.543999999761581 ], [ 672750.01500000001397, 7186357.998999999836087 ], [ 672750.560000000055879, 7186357.859000000171363 ], [ 672750.949000000022352, 7186358.156000000424683 ], [ 672751.697000000043772, 7186358.543999999761581 ], [ 672756.986000000033528, 7186362.111999999731779 ], [ 672760.554, 7186365.447999999858439 ], [ 672763.942999999970198, 7186361.933000000193715 ], [ 672768.633000000030734, 7186360.458999999798834 ], [ 672770.548000000067987, 7186359.513000000268221 ], [ 672771.489000000059605, 7186359.486000000499189 ], [ 672779.82999999995809, 7186359.256 ], [ 672780.540999999968335, 7186359.235000000335276 ], [ 672781.878999999957159, 7186359.882000000216067 ], [ 672786.295999999972992, 7186362.782999999821186 ], [ 672790.535000000032596, 7186363.804000000469387 ], [ 672795.479000000050291, 7186363.487999999895692 ], [ 672795.591000000014901, 7186363.481999999843538 ], [ 672800.528999999980442, 7186363.174000000581145 ], [ 672805.273999999975786, 7186363.28899999987334 ], [ 672805.772, 7186363.295 ], [ 672810.523000000044703, 7186363.412999999709427 ], [ 672814.670999999972992, 7186364.389000000432134 ], [ 672819.511999999987893, 7186367.534 ], [ 672820.516000000061467, 7186368.009000000543892 ], [ 672824.971000000019558, 7186362.998999999836087 ], [ 672825.141000000061467, 7186358.543999999761581 ], [ 672826.903999999980442, 7186354.939000000245869 ], [ 672830.51, 7186353.07799999974668 ], [ 672835.160999999963678, 7186353.20200000051409 ], [ 672836.73499999998603, 7186352.31900000013411 ], [ 672840.503999999957159, 7186352.723000000230968 ], [ 672843.968, 7186352.015000000596046 ], [ 672847.158000000054017, 7186351.890000000596046 ], [ 672850.496999999973923, 7186351.372000000439584 ], [ 672853.23499999998603, 7186351.287999999709427 ], [ 672857.893000000040047, 7186351.149000000208616 ], [ 672860.491000000038184, 7186351.070000000298023 ], [ 672861.648000000044703, 7186349.707000000402331 ], [ 672862.547000000020489, 7186348.549999999813735 ], [ 672865.648999999975786, 7186343.714999999850988 ], [ 672865.842000000062399, 7186343.200000000186265 ], [ 672867.98499999998603, 7186338.557 ], [ 672868.552999999956228, 7186336.625 ], [ 672870.48499999998603, 7186334.509999999776483 ], [ 672873.709000000031665, 7186331.787000000476837 ], [ 672878.758000000030734, 7186328.563 ], [ 672879.479999999981374, 7186327.565000000409782 ], [ 672880.479000000050291, 7186326.185999999754131 ], [ 672883.51, 7186321.600999999791384 ], [ 672885.111000000033528, 7186318.56900000013411 ], [ 672886.932999999960884, 7186315.03000000026077 ], [ 672888.761000000056811, 7186310.287000000476837 ], [ 672889.503000000026077, 7186308.576000000350177 ], [ 672889.849999999976717, 7186307.95299999974668 ], [ 672890.472000000067055, 7186306.966 ], [ 672893.861000000033528, 7186301.96999999973923 ], [ 672896.462999999988824, 7186298.582000000402331 ], [ 672897.114000000059605, 7186295.230000000447035 ], [ 672898.175999999977648, 7186290.878999999724329 ], [ 672898.658999999985099, 7186288.588000000454485 ], [ 672899.285999999963678, 7186287.407999999821186 ], [ 672900.466000000014901, 7186285.450000000186265 ], [ 672904.169, 7186282.29700000025332 ], [ 672904.802999999956228, 7186278.594000000506639 ], [ 672906.40500000002794, 7186274.54 ], [ 672910.459999999962747, 7186273.358 ], [ 672912.952999999979511, 7186271.094000000506639 ], [ 672915.802999999956228, 7186268.600999999791384 ], [ 672918.305999999982305, 7186266.45299999974668 ], [ 672920.452999999979511, 7186264.850000000558794 ], [ 672923.959000000031665, 7186265.09499999973923 ], [ 672927.721000000019558, 7186265.873999999836087 ], [ 672930.447000000043772, 7186266.121000000275671 ], [ 672934.022, 7186265.026000000536442 ], [ 672936.180000000051223, 7186264.338999999687076 ], [ 672940.441, 7186263.07799999974668 ], [ 672943.794, 7186261.96 ], [ 672949.956, 7186259.08600000012666 ], [ 672950.435000000055879, 7186258.890999999828637 ], [ 672950.570000000065193, 7186258.742999999783933 ], [ 672950.724000000045635, 7186258.606999999843538 ], [ 672956.934, 7186255.112999999895692 ], [ 672960.427999999956228, 7186254.015000000596046 ], [ 672963.136999999987893, 7186255.898 ], [ 672965.535000000032596, 7186258.606999999843538 ], [ 672968.616000000038184, 7186260.412999999709427 ], [ 672970.422000000020489, 7186260.378000000491738 ], [ 672972.108, 7186260.293000000528991 ], [ 672979.077000000048429, 7186259.946000000461936 ], [ 672980.415999999968335, 7186259.878000000491738 ], [ 672981.63800000003539, 7186259.829 ], [ 672989.489000000059605, 7186259.526999999769032 ], [ 672990.408999999985099, 7186259.49100000038743 ], [ 672991.547000000020489, 7186259.745000000111759 ], [ 672999.555999999982305, 7186259.455 ], [ 673000.40300000004936, 7186259.835 ], [ 673001.197000000043772, 7186259.401000000536442 ], [ 673009.810000000055879, 7186259.19400000013411 ], [ 673010.397, 7186259.036000000312924 ], [ 673010.819000000017695, 7186259.029 ], [ 673011.616000000038184, 7186258.606999999843538 ], [ 673016.37, 7186254.587000000290573 ], [ 673020.391000000061467, 7186249.359000000171363 ], [ 673020.957999999984168, 7186249.18099999986589 ], [ 673021.552000000025146, 7186248.612999999895692 ], [ 673027.03000000002794, 7186245.259000000543892 ], [ 673030.383999999961816, 7186239.216 ], [ 673031.39000000001397, 7186239.626000000163913 ], [ 673034.094000000040978, 7186238.620000000111759 ], [ 673039.837000000057742, 7186238.079 ], [ 673030.383999999961816, 7186228.626000000163913 ], [ 673030.383999999961816, 7186208.638000000268221 ], [ 673025.386999999987893, 7186203.642 ], [ 673020.391000000061467, 7186198.645000000484288 ], [ 673020.391000000061467, 7186178.657000000588596 ], [ 673015.393999999971129, 7186173.660000000149012 ], [ 673010.397, 7186168.66399999987334 ], [ 673010.397, 7186148.676 ], [ 673000.40300000004936, 7186138.682 ], [ 673000.40300000004936, 7186118.695000000298023 ], [ 672990.408999999985099, 7186108.701000000350177 ], [ 672990.408999999985099, 7186097.599000000394881 ], [ 672990.035000000032596, 7186098.333000000566244 ], [ 672981.74, 7186097.38300000037998 ], [ 672980.415999999968335, 7186097.839999999850988 ], [ 672979.868000000016764, 7186098.160000000149012 ], [ 672979.368000000016764, 7186098.708000000566244 ], [ 672979.396000000066124, 7186099.727 ], [ 672979.243000000016764, 7186107.528 ], [ 672979.272, 7186108.701000000350177 ], [ 672974.182000000029802, 7186112.462000000290573 ], [ 672970.422000000020489, 7186116.665 ], [ 672969.316, 7186117.588999999687076 ], [ 672968.709999999962747, 7186118.695000000298023 ], [ 672964.535999999963678, 7186122.803000000305474 ], [ 672960.427999999956228, 7186126.13300000037998 ], [ 672959.087000000057742, 7186127.347 ], [ 672958.48499999998603, 7186128.689000000245869 ], [ 672958.25199999997858, 7186130.865000000223517 ], [ 672958.108, 7186136.361999999731779 ], [ 672957.810000000055879, 7186138.682 ], [ 672958.63800000003539, 7186140.473000000230968 ], [ 672960.427999999956228, 7186141.996000000275671 ], [ 672964.106000000028871, 7186144.998999999836087 ], [ 672967.650000000023283, 7186148.676 ], [ 672967.322999999974854, 7186151.775000000372529 ], [ 672967.192000000039116, 7186155.439000000245869 ], [ 672966.79300000006333, 7186158.67 ], [ 672966.241000000038184, 7186162.850999999791384 ], [ 672966.163000000058673, 7186164.404 ], [ 672965.483, 7186168.66399999987334 ], [ 672964.766000000061467, 7186173.001000000163913 ], [ 672964.202999999979511, 7186174.88300000037998 ], [ 672963.417000000015832, 7186178.657000000588596 ], [ 672961.147, 7186179.376000000163913 ], [ 672960.427999999956228, 7186180.708999999798834 ], [ 672959.271000000066124, 7186179.815000000409782 ], [ 672958.746999999973923, 7186178.657000000588596 ], [ 672958.483, 7186176.712000000290573 ], [ 672957.550000000046566, 7186171.542000000365078 ], [ 672957.197000000043772, 7186168.66399999987334 ], [ 672954.589000000036322, 7186164.509999999776483 ], [ 672950.435000000055879, 7186162.44400000013411 ], [ 672945.95499999995809, 7186164.184000000357628 ], [ 672941.011999999987893, 7186168.66399999987334 ], [ 672940.95499999995809, 7186169.178000000305474 ], [ 672940.441, 7186173.437 ], [ 672939.604000000050291, 7186177.820000000298023 ], [ 672938.699000000022352, 7186178.657000000588596 ], [ 672932.445000000065193, 7186180.65500000026077 ], [ 672930.447000000043772, 7186182.562 ], [ 672928.180999999982305, 7186186.384000000543892 ], [ 672926.310000000055879, 7186188.651000000536442 ], [ 672924.795999999972992, 7186192.994 ], [ 672923.652, 7186195.446000000461936 ], [ 672922.322999999974854, 7186198.645000000484288 ], [ 672921.572000000043772, 7186199.763000000268221 ], [ 672920.452999999979511, 7186200.21100000012666 ], [ 672915.993000000016764, 7186203.105000000447035 ], [ 672915.359000000054948, 7186203.543999999761581 ], [ 672910.459999999962747, 7186206.011 ], [ 672908.794, 7186206.973000000230968 ], [ 672906.92000000004191, 7186208.638000000268221 ], [ 672904.231999999959953, 7186212.404 ], [ 672900.466000000014901, 7186217.314000000245869 ], [ 672899.62699999997858, 7186217.793999999761581 ], [ 672898.755, 7186218.632000000216067 ], [ 672892.12699999997858, 7186220.286000000312924 ], [ 672890.472000000067055, 7186220.481000000610948 ], [ 672889.23699999996461, 7186219.867999999783933 ], [ 672887.402, 7186218.632000000216067 ], [ 672884.325000000069849, 7186214.786000000312924 ], [ 672880.479000000050291, 7186213.347 ], [ 672876.02800000004936, 7186213.088999999687076 ], [ 672874.437000000034459, 7186212.591 ], [ 672870.48499999998603, 7186212.217000000178814 ], [ 672867.71999999997206, 7186211.403 ], [ 672863.339000000036322, 7186211.486000000499189 ], [ 672860.491000000038184, 7186210.975000000558794 ], [ 672858.38, 7186210.75 ], [ 672853.584000000031665, 7186211.725000000558794 ], [ 672850.496999999973923, 7186211.54 ], [ 672847.572000000043772, 7186211.564000000245869 ], [ 672843.738000000012107, 7186208.638000000268221 ], [ 672844.196, 7186204.946000000461936 ], [ 672841.631999999983236, 7186199.773 ], [ 672842.450000000069849, 7186198.645000000484288 ], [ 672841.227000000071712, 7186197.92200000025332 ], [ 672840.503999999957159, 7186197.494 ], [ 672839.816, 7186197.957000000402331 ], [ 672830.817000000039116, 7186198.338000000454485 ], [ 672830.51, 7186198.43099999986589 ], [ 672830.400000000023283, 7186198.534 ], [ 672830.317999999970198, 7186198.645000000484288 ], [ 672824.979999999981374, 7186203.108 ], [ 672820.516000000061467, 7186204.364 ], [ 672816.88800000003539, 7186205.009999999776483 ], [ 672813.782, 7186205.378999999724329 ], [ 672810.523000000044703, 7186205.904 ], [ 672808.935000000055879, 7186207.051 ], [ 672804.609000000054948, 7186208.638000000268221 ], [ 672801.616000000038184, 7186209.725999999791384 ], [ 672800.528999999980442, 7186209.878999999724329 ], [ 672796.082000000053085, 7186214.185999999754131 ], [ 672791.489000000059605, 7186218.632000000216067 ], [ 672791.346000000019558, 7186219.443 ], [ 672790.535000000032596, 7186221.399000000208616 ], [ 672786.718, 7186224.809000000357628 ], [ 672782.430999999982305, 7186228.626000000163913 ], [ 672781.52800000004936, 7186229.612999999895692 ], [ 672780.540999999968335, 7186230.162999999709427 ], [ 672776.351000000024214, 7186234.429999999701977 ], [ 672773.15300000004936, 7186238.620000000111759 ], [ 672772.055999999982305, 7186240.128000000491738 ], [ 672770.548000000067987, 7186241.592000000178814 ], [ 672767.691, 7186245.757000000216067 ], [ 672766.113000000012107, 7186248.612999999895692 ], [ 672763.843, 7186251.901999999769032 ], [ 672760.554, 7186253.68099999986589 ], [ 672755.991000000038184, 7186253.177000000141561 ], [ 672755.035000000032596, 7186253.088000000454485 ], [ 672750.560000000055879, 7186252.609000000171363 ], [ 672745.871000000042841, 7186253.303000000305474 ], [ 672745.316, 7186253.362999999895692 ], [ 672740.567000000039116, 7186254.134000000543892 ], [ 672737.48699999996461, 7186255.528 ], [ 672735.478, 7186258.606999999843538 ], [ 672734.425999999977648, 7186262.46 ], [ 672733.776000000070781, 7186265.396999999880791 ], [ 672732.96999999997206, 7186268.600999999791384 ], [ 672732.459000000031665, 7186270.486999999731779 ], [ 672730.572999999974854, 7186275.514000000432134 ], [ 672729.39000000001397, 7186277.412000000476837 ], [ 672726.067999999970198, 7186278.594000000506639 ], [ 672722.155999999959022, 7186280.171 ], [ 672720.579000000027008, 7186280.645000000484288 ], [ 672718.92000000004191, 7186280.253999999724329 ], [ 672716.883000000030734, 7186278.594000000506639 ], [ 672712.280999999959022, 7186276.899000000208616 ], [ 672710.584999999962747, 7186276.196999999694526 ], [ 672706.326, 7186272.860000000335276 ], [ 672701.655999999959022, 7186268.600999999791384 ], [ 672701.042000000015832, 7186268.150000000372529 ], [ 672700.592000000062399, 7186267.923000000417233 ], [ 672696.064000000013039, 7186263.134999999776483 ], [ 672694.245, 7186258.606999999843538 ], [ 672692.812000000034459, 7186256.393000000156462 ], [ 672690.598, 7186255.230000000447035 ], [ 672687.310000000055879, 7186255.31900000013411 ], [ 672684.658000000054017, 7186254.553000000305474 ], [ 672680.604000000050291, 7186254.611999999731779 ], [ 672676.665999999968335, 7186254.668999999761581 ], [ 672673.525000000023283, 7186255.693 ], [ 672670.611000000033528, 7186255.771999999880791 ], [ 672667.852000000071712, 7186255.848000000230968 ], [ 672664.591000000014901, 7186258.606999999843538 ], [ 672661.89000000001397, 7186259.879999999888241 ], [ 672660.616999999969266, 7186260.480000000447035 ], [ 672658.691, 7186260.532999999821186 ], [ 672656.116999999969266, 7186258.606999999843538 ], [ 672652.973, 7186256.257000000216067 ], [ 672650.62300000002142, 7186256.321999999694526 ], [ 672646.680000000051223, 7186254.66399999987334 ], [ 672645.195000000065193, 7186254.041000000201166 ], [ 672640.628999999957159, 7186252.114 ], [ 672637.312000000034459, 7186255.29 ], [ 672636.10999999998603, 7186258.606999999843538 ], [ 672633.915000000037253, 7186261.887000000104308 ], [ 672630.636000000056811, 7186262.946999999694526 ], [ 672626.052000000025146, 7186264.017 ], [ 672623.672000000020489, 7186265.571000000461936 ], [ 672620.642, 7186267.00800000037998 ], [ 672619.572999999974854, 7186267.531000000424683 ], [ 672615.638999999966472, 7186268.600999999791384 ], [ 672619.256999999983236, 7186269.986000000499189 ], [ 672620.642, 7186270.201000000350177 ], [ 672623.798000000067987, 7186271.757000000216067 ], [ 672626.01300000003539, 7186273.224000000394881 ], [ 672630.636000000056811, 7186274.361999999731779 ], [ 672633.697000000043772, 7186275.532999999821186 ], [ 672635.267, 7186278.594000000506639 ], [ 672633.309, 7186281.268000000156462 ], [ 672630.636000000056811, 7186282.81900000013411 ], [ 672626.777, 7186284.730000000447035 ], [ 672624.836000000010245, 7186288.588000000454485 ], [ 672623.432000000029802, 7186291.378000000491738 ], [ 672620.642, 7186292.759999999776483 ], [ 672615.964999999967404, 7186293.90500000026077 ], [ 672614.086000000010245, 7186295.144000000320375 ], [ 672610.648000000044703, 7186296.826000000350177 ], [ 672608.419, 7186296.353000000119209 ], [ 672600.952999999979511, 7186298.282999999821186 ], [ 672600.65500000002794, 7186298.031000000424683 ], [ 672600.454000000027008, 7186298.382000000216067 ], [ 672600.216000000014901, 7186298.582000000402331 ], [ 672594.006999999983236, 7186301.928000000305474 ], [ 672590.660999999963678, 7186304.612999999895692 ], [ 672588.569000000017695, 7186306.484000000171363 ], [ 672585.807000000029802, 7186308.576000000350177 ], [ 672584.04500000004191, 7186311.95299999974668 ], [ 672583.314000000013039, 7186315.92200000025332 ], [ 672582.435000000055879, 7186318.56900000013411 ], [ 672581.87300000002142, 7186319.776000000536442 ], [ 672580.667000000015832, 7186320.833000000566244 ], [ 672578.746000000042841, 7186320.49100000038743 ], [ 672574.717000000062399, 7186322.612999999895692 ], [ 672570.673000000067987, 7186322.432 ], [ 672566.65300000004936, 7186324.542000000365078 ], [ 672564.751000000047497, 7186328.563 ], [ 672563.402, 7186331.286000000312924 ], [ 672560.680000000051223, 7186332.677000000141561 ], [ 672555.799, 7186333.676 ], [ 672555.187999999965541, 7186334.054000000469387 ], [ 672550.685999999986961, 7186335.945000000298023 ], [ 672548.454000000027008, 7186336.325000000186265 ], [ 672542.90300000004936, 7186338.557 ], [ 672541.592000000062399, 7186339.457000000402331 ], [ 672540.692000000039116, 7186339.696999999694526 ], [ 672536.114000000059605, 7186343.972 ], [ 672533.467000000062399, 7186345.782000000588596 ], [ 672530.697999999974854, 7186347.775000000372529 ], [ 672530.444000000017695, 7186348.296 ], [ 672530.290999999968335, 7186348.549999999813735 ], [ 672529.273999999975786, 7186349.975000000558794 ], [ 672526.790000000037253, 7186354.636 ], [ 672523.613000000012107, 7186355.636 ], [ 672520.70499999995809, 7186357.253000000491738 ], [ 672517.772, 7186355.611000000499189 ], [ 672514.878999999957159, 7186354.376000000163913 ], [ 672510.711000000010245, 7186350.032999999821186 ], [ 672508.875, 7186350.387000000104308 ], [ 672502.758999999961816, 7186350.592000000178814 ], [ 672500.717000000062399, 7186351.177000000141561 ], [ 672497.746999999973923, 7186351.520999999716878 ], [ 672494.437000000034459, 7186352.264000000432134 ], [ 672490.724000000045635, 7186352.599000000394881 ], [ 672486.772, 7186352.502000000327826 ], [ 672483.802999999956228, 7186351.623999999836087 ], [ 672480.729999999981374, 7186351.494 ], [ 672478.320000000065193, 7186350.96100000012666 ], [ 672472.966000000014901, 7186350.78000000026077 ], [ 672470.736000000033528, 7186350.418000000528991 ], [ 672469.432999999960884, 7186349.854000000283122 ], [ 672468.42000000004191, 7186348.549999999813735 ], [ 672464.167000000015832, 7186345.126000000163913 ], [ 672460.741999999969266, 7186345.072999999858439 ], [ 672460.741999999969266, 7186358.543999999761581 ], [ 672470.736000000033528, 7186368.537999999709427 ], [ 672470.736000000033528, 7186388.525000000372529 ], [ 672480.729999999981374, 7186398.519000000320375 ], [ 672480.729999999981374, 7186409.803000000305474 ], [ 672483.457999999984168, 7186411.24100000038743 ], [ 672486.810999999986961, 7186412.424999999813735 ], [ 672490.724000000045635, 7186416.895000000484288 ], [ 672492.39000000001397, 7186416.839999999850988 ], [ 672497.180000000051223, 7186414.969000000506639 ], [ 672500.717000000062399, 7186414.915 ], [ 672505.702999999979511, 7186413.498000000603497 ], [ 672505.734000000054948, 7186413.489 ], [ 672510.711000000010245, 7186412.07700000051409 ], [ 672515.547000000020489, 7186413.349000000394881 ], [ 672516.332000000053085, 7186412.884999999776483 ], [ 672516.060000000055879, 7186413.861999999731779 ], [ 672518.751000000047497, 7186418.506 ], [ 672519.467000000062399, 7186419.744 ], [ 672519.072000000043772, 7186426.867000000551343 ], [ 672519.474999999976717, 7186428.5 ], [ 672519.589000000036322, 7186429.61600000038743 ], [ 672520.70499999995809, 7186433.49100000038743 ], [ 672524.072000000043772, 7186431.867999999783933 ], [ 672529.381000000052154, 7186428.5 ], [ 672529.770000000018626, 7186427.571999999694526 ], [ 672530.697999999974854, 7186427.321000000461936 ], [ 672532.819000000017695, 7186426.379999999888241 ], [ 672536.461000000010245, 7186424.269000000320375 ], [ 672540.692000000039116, 7186423.127000000327826 ], [ 672544.827000000048429, 7186424.365000000223517 ], [ 672546.282, 7186424.096 ], [ 672550.685999999986961, 7186424.699 ], [ 672553.202000000048429, 7186425.984000000171363 ], [ 672554.45499999995809, 7186428.5 ], [ 672553.679, 7186431.492999999783933 ], [ 672550.685999999986961, 7186435.705 ], [ 672547.488000000012107, 7186435.296 ], [ 672543.891000000061467, 7186435.295 ], [ 672540.692000000039116, 7186434.747000000439584 ], [ 672538.027, 7186435.82799999974668 ], [ 672537.923000000067987, 7186438.494 ], [ 672539.12, 7186440.066000000573695 ], [ 672540.692000000039116, 7186440.855000000447035 ], [ 672543.371999999973923, 7186441.174000000581145 ], [ 672548.006999999983236, 7186441.173000000417233 ], [ 672550.685999999986961, 7186441.591 ], [ 672554.194000000017695, 7186444.980000000447035 ], [ 672558.106999999959953, 7186448.487999999895692 ], [ 672557.054, 7186452.114 ], [ 672558.603, 7186456.40500000026077 ], [ 672551.756000000052154, 7186457.412000000476837 ], [ 672550.685999999986961, 7186458.137000000104308 ], [ 672550.430000000051223, 7186458.225000000558794 ], [ 672549.334999999962747, 7186458.481000000610948 ], [ 672548.822999999974854, 7186460.344000000506639 ], [ 672550.685999999986961, 7186466.492999999783933 ], [ 672554.450000000069849, 7186462.245000000111759 ], [ 672556.24, 7186462.921 ], [ 672560.680000000051223, 7186462.063 ], [ 672562.344000000040978, 7186466.810000000521541 ], [ 672563.761999999987893, 7186468.475000000558794 ], [ 672566.973, 7186472.176 ], [ 672570.673000000067987, 7186474.104000000283122 ], [ 672574.143000000040047, 7186471.94400000013411 ], [ 672577.128999999957159, 7186472.013000000268221 ], [ 672580.667000000015832, 7186471.064000000245869 ], [ 672582.898000000044703, 7186470.706000000238419 ], [ 672588.631000000052154, 7186468.475000000558794 ], [ 672590.07999999995809, 7186467.894000000320375 ], [ 672590.660999999963678, 7186467.417000000365078 ], [ 672591.753000000026077, 7186467.38300000037998 ], [ 672599.097000000067055, 7186466.917000000365078 ], [ 672600.65500000002794, 7186466.872000000439584 ], [ 672604.849000000045635, 7186462.676 ], [ 672609.049, 7186458.481000000610948 ] ] ], [ [ [ 673040.378000000026077, 7186248.892 ], [ 673040.378000000026077, 7186246.076000000350177 ], [ 673039.744000000064261, 7186247.979000000283122 ], [ 673040.025000000023283, 7186248.612999999895692 ], [ 673040.195000000065193, 7186248.79700000025332 ], [ 673040.378000000026077, 7186248.892 ] ] ] ] } }
]
}
